{"type":"FeatureCollection","features":[{"type":"Feature","geometry":{"type":"LineString","coordinates":[[12.589741,41.802117,0],[12.589741,41.802117,0],[12.589739,41.80212,0],[12.589739,41.80212,0],[12.589741,41.802117,0],[12.589692,41.802166,0],[12.58963,41.802235,0],[12.58947,41.802397,0],[12.589458,41.802441,0],[12.589458,41.802475,0],[12.589458,41.802509,0],[12.589486,41.802548,0],[12.589521,41.802578,0],[12.589567,41.802612,0],[12.589629,41.802653,0],[12.589709,41.802699,0],[12.589879,41.802795,0],[12.590098,41.802933,0],[12.59014,41.802979,0],[12.590176,41.80307,0],[12.590188,41.803107,0],[12.590145,41.80323,0],[12.590114,41.80331,0],[12.590051,41.803402,0],[12.589821,41.803712,0],[12.589645,41.803986,0],[12.589374,41.804387,0],[12.589118,41.804759,0],[12.588865,41.805096,0],[12.5886,41.805473,0],[12.58832,41.805865,0],[12.587889,41.806482,0],[12.587617,41.806881,0],[12.587522,41.807005,0],[12.587492,41.807156,0],[12.587507,41.80719,0],[12.587539,41.807236,0],[12.587585,41.807273,0],[12.587697,41.80732,0],[12.587757,41.807339,0],[12.587809,41.807354,0],[12.587804,41.80735,0],[12.587804,41.80735,0],[12.587804,41.80735,0],[12.587804,41.80735,0],[12.587809,41.807354,0],[12.587804,41.80735,0],[12.587809,41.807354,0],[12.587809,41.807354,0],[12.587913,41.807396,0],[12.587976,41.80743,0],[12.588112,41.807506,0],[12.58856,41.807773,0],[12.588863,41.807948,0],[12.588943,41.807968,0],[12.588975,41.80796,0],[12.589007,41.807936,0],[12.589021,41.807899,0],[12.589023,41.807878,0],[12.589007,41.807867,0],[12.589006,41.807854,0],[12.589007,41.807843,0],[12.589007,41.807843,0],[12.589052,41.807774,0],[12.589084,41.807716,0],[12.589146,41.807613,0],[12.589214,41.807517,0],[12.58931,41.807389,0],[12.589396,41.807247,0],[12.589505,41.807098,0],[12.589661,41.806881,0],[12.589821,41.806656,0],[12.589981,41.806423,0],[12.590156,41.806156,0],[12.590379,41.80584,0],[12.590613,41.805485,0],[12.590941,41.805027,0],[12.591081,41.80481,0],[12.591514,41.804177,0],[12.591514,41.804177,0]]},"properties":{"name":"9H-VVS","stroke-opacity":1,"stroke":"#e31a1c","stroke-width":4,"icon":"http://maps.google.com/mapfiles/kml/shapes/airports.png","coordinateProperties":{"times":["2026-07-15T08:50:56.830Z","2026-07-15T08:50:56.830Z","2026-07-15T08:52:12.120Z","2026-07-15T08:53:31.320Z","2026-07-15T08:54:47.040Z","2026-07-15T08:56:02.710Z","2026-07-15T08:56:07.640Z","2026-07-15T08:56:14.550Z","2026-07-15T08:56:15.710Z","2026-07-15T08:56:16.790Z","2026-07-15T08:56:17.720Z","2026-07-15T08:56:18.990Z","2026-07-15T08:56:19.870Z","2026-07-15T08:56:21.050Z","2026-07-15T08:56:22.260Z","2026-07-15T08:56:24.240Z","2026-07-15T08:56:27.550Z","2026-07-15T08:56:32.110Z","2026-07-15T08:56:33.740Z","2026-07-15T08:56:36.230Z","2026-07-15T08:56:37.220Z","2026-07-15T08:56:40.330Z","2026-07-15T08:56:42.110Z","2026-07-15T08:56:44.410Z","2026-07-15T08:56:51.440Z","2026-07-15T08:56:56.660Z","2026-07-15T08:57:03.260Z","2026-07-15T08:57:08.210Z","2026-07-15T08:57:12.780Z","2026-07-15T08:57:17.370Z","2026-07-15T08:57:22.780Z","2026-07-15T08:57:32.570Z","2026-07-15T08:57:41.940Z","2026-07-15T08:57:50.260Z","2026-07-15T08:57:51.440Z","2026-07-15T08:57:53.130Z","2026-07-15T08:57:54.740Z","2026-07-15T08:57:56.510Z","2026-07-15T08:58:00.680Z","2026-07-15T08:58:03.740Z","2026-07-15T08:58:10.690Z","2026-07-15T08:58:14.220Z","2026-07-15T08:58:35.380Z","2026-07-15T08:59:10.450Z","2026-07-15T08:59:30.280Z","2026-07-15T08:59:40.120Z","2026-07-15T09:00:05.240Z","2026-07-15T09:00:34.860Z","2026-07-15T09:00:59.910Z","2026-07-15T09:01:17.870Z","2026-07-15T09:01:20.400Z","2026-07-15T09:01:23.830Z","2026-07-15T09:01:32.180Z","2026-07-15T09:01:38.240Z","2026-07-15T09:01:40.060Z","2026-07-15T09:01:41.190Z","2026-07-15T09:01:42.590Z","2026-07-15T09:01:44.530Z","2026-07-15T09:01:46.270Z","2026-07-15T09:01:47.150Z","2026-07-15T09:01:49.010Z","2026-07-15T09:01:50.970Z","2026-07-15T09:01:57.240Z","2026-07-15T09:02:11.750Z","2026-07-15T09:02:12.710Z","2026-07-15T09:02:14.020Z","2026-07-15T09:02:15.000Z","2026-07-15T09:02:15.980Z","2026-07-15T09:02:16.880Z","2026-07-15T09:02:17.750Z","2026-07-15T09:02:18.920Z","2026-07-15T09:02:20.030Z","2026-07-15T09:02:20.980Z","2026-07-15T09:02:22.010Z","2026-07-15T09:02:23.170Z","2026-07-15T09:02:24.320Z","2026-07-15T09:02:25.650Z","2026-07-15T09:02:26.220Z","2026-07-15T09:02:27.780Z","2026-07-15T09:02:27.780Z"]}}},{"type":"Feature","geometry":{"type":"LineString","coordinates":[[12.592642,41.802612,120],[12.593328,41.801559,120],[12.59364,41.801102,120],[12.596137,41.797485,127],[12.597039,41.796228,127],[12.597948,41.79483,135],[12.598955,41.793389,150],[12.600233,41.791573,181],[12.601382,41.789851,210],[12.60266,41.787989,243],[12.603554,41.786546,275],[12.60464,41.784916,305],[12.605688,41.783386,337],[12.606437,41.782242,368],[12.607311,41.780823,400],[12.608089,41.779749,433],[12.608809,41.778671,457],[12.609494,41.777608,488],[12.610452,41.776164,529],[12.611119,41.775055,558],[12.612049,41.773604,590],[12.612991,41.772034,622],[12.613803,41.770294,653],[12.614285,41.768763,684],[12.614552,41.766861,716],[12.614552,41.765259,740],[12.614365,41.763657,756],[12.613928,41.762054,780],[12.613241,41.76059,806],[12.612177,41.758754,840],[12.610807,41.756882,865],[12.609184,41.755142,890],[12.607386,41.753493,923],[12.604876,41.751526,947],[12.602192,41.749878,979],[12.599883,41.748688,1009],[12.596824,41.74736,1038],[12.59359,41.746231,1071],[12.584839,41.74423,1149],[12.580969,41.743607,1164],[12.577366,41.743019,1179],[12.572916,41.742188,1195],[12.569701,41.74153,1211],[12.563888,41.740086,1247],[12.558497,41.738571,1279],[12.554065,41.737335,1312],[12.550922,41.736409,1342],[12.546962,41.735245,1373],[12.543765,41.734314,1406],[12.539832,41.733215,1438],[12.536774,41.732346,1470],[12.53359,41.73143,1504],[12.529658,41.730331,1535],[12.526349,41.729416,1566],[12.522729,41.728455,1599],[12.519624,41.727564,1633],[12.516174,41.726624,1665],[12.513553,41.725891,1695],[12.510868,41.725159,1729],[12.508559,41.724518,1760],[12.505875,41.723785,1784],[12.503272,41.723048,1808],[12.500506,41.722183,1833],[12.498009,41.721359,1850],[12.49516,41.720209,1860],[12.492641,41.719025,1877],[12.490019,41.717606,1886],[12.48746,41.716049,1902],[12.485068,41.714343,1910],[12.482903,41.71257,1926],[12.481343,41.711105,1942],[12.478808,41.708431,1974],[12.476764,41.705684,2008],[12.474913,41.70282,2041],[12.473506,41.700005,2069],[12.472357,41.697258,2102],[12.471542,41.69458,2134],[12.470793,41.691193,2166],[12.470504,41.688507,2199],[12.470504,41.685807,2232],[12.470856,41.682358,2266],[12.471782,41.678312,2321],[12.47354,41.673477,2370],[12.475423,41.669793,2421],[12.477914,41.666115,2468],[12.480916,41.662344,2525],[12.484838,41.658508,2579],[12.488396,41.655533,2629],[12.492704,41.652512,2688],[12.497779,41.649542,2733],[12.503627,41.64679,2770],[12.508247,41.64505,2803],[12.514066,41.643444,2850],[12.519943,41.642327,2892],[12.52585,41.641663,2932],[12.532716,41.641388,2979],[12.537585,41.641525,3013],[12.542891,41.642075,3053],[12.548878,41.643118,3108],[12.554307,41.644561,3157],[12.559736,41.646377,3202],[12.565421,41.648891,3260],[12.569421,41.651001,3308],[12.573469,41.653546,3358],[12.57596,41.655268,3383],[12.578659,41.657455,3409],[12.581773,41.660156,3434],[12.583653,41.661896,3452],[12.588397,41.666794,3477],[12.595014,41.673798,3502],[12.60238,41.681717,3541],[12.609808,41.689865,3580],[12.616265,41.697072,3616],[12.623229,41.70488,3641],[12.630844,41.713486,3677],[12.638493,41.722071,3709],[12.647627,41.732312,3741],[12.650632,41.735687,3757],[12.653184,41.738504,3773],[12.655064,41.740677,3790],[12.656953,41.742833,3806],[12.661104,41.747581,3846],[12.666214,41.753447,3912],[12.675913,41.764481,4036],[12.680586,41.769787,4089],[12.693425,41.784265,4218],[12.705127,41.797348,4355],[12.718016,41.811777,4477],[12.73097,41.826279,4599],[12.743119,41.839894,4729],[12.755255,41.853395,4873],[12.766488,41.865921,4988],[12.777419,41.87816,5125],[12.789147,41.891327,5247],[12.801116,41.904788,5384],[12.814658,41.920244,5498],[12.826985,41.934489,5628],[12.840333,41.949966,5757],[12.852755,41.96434,5895],[12.868248,41.982158,6009],[12.883405,41.999268,6138],[12.898205,42.015443,6254],[12.907999,42.025085,6313],[12.919539,42.035367,6375],[12.932718,42.045959,6458],[12.94589,42.055573,6512],[12.95931,42.064636,6573],[12.98386,42.08029,6702],[13.008834,42.096211,6817],[13.033873,42.112178,6923],[13.060892,42.129263,7038],[13.088294,42.146627,7137],[13.11742,42.165108,7243],[13.144439,42.182286,7350],[13.1705,42.198859,7464],[13.195829,42.21492,7571],[13.224345,42.232982,7685],[13.252633,42.250946,7792],[13.28322,42.270401,7891],[13.31905,42.293106,7967],[13.353258,42.314896,8059],[13.38734,42.336502,8150],[13.420886,42.357695,8242],[13.450636,42.376694,8326],[13.46151,42.384509,8348],[13.471793,42.392982,8374],[13.481374,42.401873,8397],[13.491211,42.412115,8424],[13.498951,42.42128,8456],[13.506754,42.431717,8479],[13.514058,42.442932,8510],[13.520593,42.45457,8546],[13.526853,42.467884,8585],[13.540837,42.4991,8670],[13.555069,42.530457,8762],[13.569176,42.561218,8846],[13.584969,42.595734,8922],[13.599701,42.627914,9014],[13.612699,42.656048,9098],[13.625918,42.684769,9212],[13.64065,42.716675,9296],[13.655175,42.748222,9381],[13.669177,42.77861,9472],[13.683097,42.808823,9571],[13.696566,42.838028,9663],[13.710807,42.868932,9754],[13.724147,42.897794,9847],[13.737095,42.925772,9946],[13.750436,42.954495,10037],[13.762534,42.980657,10136],[13.775417,43.008542,10243],[13.787449,43.034471,10342],[13.799531,43.060547,10441],[13.811646,43.08661,10548],[13.824986,43.115426,10648],[13.837542,43.142566,10747],[13.851205,43.172012,10838],[13.865065,43.201813,10917],[13.868515,43.209183,10928],[13.887307,43.249263,10930],[13.906264,43.289612,10930],[13.92466,43.329666,10922],[13.942672,43.369308,10922],[13.9614,43.409543,10922],[13.980299,43.449578,10922],[13.999329,43.489426,10922],[14.018424,43.529275,10923],[14.037589,43.569214,10923],[14.056745,43.609531,10916],[14.075914,43.649643,10916],[14.094347,43.688158,10916],[14.113639,43.728333,10916],[14.132698,43.76825,10916],[14.151895,43.808635,10908],[14.17115,43.848953,10908],[14.189954,43.888379,10908],[14.20905,43.928321,10908],[14.227818,43.967471,10908],[14.246585,44.00647,10908],[14.264243,44.043165,10900],[14.283207,44.082828,10899],[14.302283,44.122513,10899],[14.321006,44.161222,10899],[14.339709,44.199646,10899],[14.358327,44.238219,10899],[14.377507,44.277695,10892],[14.395908,44.316241,10892],[14.414129,44.355624,10892],[14.433021,44.395426,10892],[14.452057,44.434021,10892],[14.471339,44.472749,10892],[14.49064,44.511566,10892],[14.509791,44.550259,10892],[14.529218,44.589549,10883],[14.548383,44.628159,10883],[14.568139,44.668083,10883],[14.587817,44.707443,10883],[14.607328,44.746477,10883],[14.626688,44.785534,10875],[14.645952,44.824539,10875],[14.665375,44.863724,10874],[14.684797,44.902908,10874],[14.704612,44.9431,10874],[14.724426,44.983063,10874],[14.744054,45.022159,10867],[14.763749,45.061542,10867],[14.783779,45.101624,10866],[14.803675,45.141612,10866],[14.823169,45.180716,10866],[14.842931,45.220099,10866],[14.862606,45.25946,10866],[14.882589,45.299098,10858],[14.902496,45.338608,10858],[14.922247,45.377958,10858],[14.942076,45.417294,10858],[14.962106,45.456631,10851],[14.982002,45.495968,10850],[15.001766,45.534714,10850],[15.021469,45.57357,10850],[15.041313,45.612534,10850],[15.061089,45.651359,10850],[15.081001,45.690323,10842],[15.101177,45.729813,10842],[15.120939,45.768402,10842],[15.141371,45.807953,10842],[15.161407,45.846785,10842],[15.181766,45.886185,10834],[15.187862,45.897903,10842],[15.190796,45.903579,10850],[15.193221,45.908295,10865],[15.200054,45.921432,10911],[15.214256,45.948761,11010],[15.228149,45.975595,11102],[15.233299,45.985557,11133],[15.235703,45.99012,11141],[15.23998,45.99852,11145],[15.249157,46.017105,11147],[15.255135,46.031504,11147],[15.269857,46.07103,11139],[15.284662,46.111038,11139],[15.299601,46.150589,11139],[15.314673,46.190186,11139],[15.32991,46.230003,11139],[15.345087,46.270157,11131],[15.349205,46.283492,11131],[15.351334,46.291452,11130],[15.353126,46.298538,11145],[15.355247,46.307001,11164],[15.361633,46.332651,11261],[15.36795,46.357929,11361],[15.371246,46.370638,11413],[15.37329,46.378784,11428],[15.374897,46.385056,11436],[15.385013,46.424652,11436],[15.394867,46.463649,11436],[15.404755,46.503125,11436],[15.41489,46.542984,11436],[15.425285,46.582683,11436],[15.435858,46.622452,11429],[15.446308,46.662094,11429],[15.456802,46.701857,11429],[15.467343,46.741653,11429],[15.477861,46.781387,11421],[15.488457,46.821124,11421],[15.498894,46.860321,11421],[15.509193,46.898209,11421],[15.513329,46.910457,11421],[15.518738,46.923523,11421],[15.525261,46.936844,11421],[15.533226,46.95108,11421],[15.54126,46.963715,11421],[15.566711,47.000582,11421],[15.592064,47.037498,11413],[15.617911,47.075019,11413],[15.643707,47.112488,11413],[15.669391,47.149875,11413],[15.694931,47.186966,11413],[15.720818,47.22464,11413],[15.746577,47.26202,11413],[15.772353,47.299541,11413],[15.798271,47.337296,11413],[15.823834,47.374211,11406],[15.848342,47.409544,11406],[15.852585,47.415665,11391],[15.872216,47.443992,11307],[15.893484,47.474531,11223],[15.91507,47.505432,11147],[15.931892,47.529694,11086],[15.936584,47.536399,11086],[15.963135,47.574738,11093],[15.989544,47.612512,11093],[16.016075,47.650452,11093],[16.042648,47.688309,11086],[16.069427,47.726349,11086],[16.096661,47.764924,11086],[16.123282,47.802677,11087],[16.150677,47.841362,11087],[16.177861,47.879815,11087],[16.204693,47.917848,11087],[16.231682,47.956009,11087],[16.25853,47.994049,11087],[16.286064,48.032776,11080],[16.313667,48.071503,11080],[16.34127,48.110001,11080],[16.368643,48.148188,11080],[16.3963,48.18664,11080],[16.423575,48.224579,11080],[16.451322,48.263168,11074],[16.478647,48.301163,11074],[16.506395,48.339844,11074],[16.534072,48.378479,11074],[16.561749,48.416885,11074],[16.589496,48.455292,11066],[16.617244,48.493423,11066],[16.644938,48.531313,11066],[16.673198,48.569951,11066],[16.700953,48.607892,11066],[16.728853,48.646018,11058],[16.756536,48.683818,11058],[16.784291,48.722131,11058],[16.812118,48.76035,11058],[16.839717,48.79866,11058],[16.867555,48.837348,11051],[16.895599,48.876265,11051],[16.923065,48.914578,11051],[16.950748,48.953169,11051],[16.978792,48.992227,11052],[17.006695,49.031067,11052],[17.034654,49.070389,11051],[17.042108,49.082166,11051],[17.047746,49.092966,11050],[17.052516,49.104092,11050],[17.056697,49.116531,11044],[17.060177,49.130068,11043],[17.062331,49.141937,11043],[17.063647,49.154601,11043],[17.06408,49.169172,11043],[17.064444,49.210144,11043],[17.065309,49.251569,11043],[17.066275,49.29245,11043],[17.067331,49.333786,11035],[17.068417,49.375491,11035],[17.069444,49.417236,11035],[17.070527,49.458308,11035],[17.071814,49.499313,11035],[17.073188,49.541153,11035],[17.074344,49.582947,11035],[17.075426,49.624918,11028],[17.076317,49.667141,11028],[17.077235,49.709106,11028],[17.078024,49.751121,11028],[17.078767,49.792739,11028],[17.079657,49.834869,11028],[17.080548,49.877418,11020],[17.0815,49.919449,11020],[17.082181,49.96205,11020],[17.082924,50.004319,11020],[17.08374,50.046249,11020],[17.08468,50.088135,11013],[17.085764,50.130432,11013],[17.087006,50.172233,11014],[17.088268,50.21399,11014],[17.089308,50.256399,11014],[17.090273,50.298483,11014],[17.091312,50.340752,11006],[17.092269,50.382706,11006],[17.093093,50.424779,11006],[17.093931,50.467072,11007],[17.094727,50.509597,11007],[17.095766,50.55168,10999],[17.096895,50.594559,10999],[17.097919,50.611826,10999],[17.101111,50.635381,10999],[17.107391,50.678349,10999],[17.113724,50.721317,11000],[17.116089,50.737424,10993],[17.116625,50.740997,10985],[17.120438,50.767403,10940],[17.122267,50.779907,10927],[17.122726,50.783185,10920],[17.12286,50.784256,10921],[17.123184,50.786583,10906],[17.12338,50.787598,10906],[17.123718,50.790028,10883],[17.124048,50.792404,10869],[17.126236,50.807811,10744],[17.126943,50.813004,10708],[17.127609,50.817494,10686],[17.128448,50.823871,10656],[17.131991,50.848984,10558],[17.133847,50.862122,10490],[17.136593,50.88208,10368],[17.139435,50.902498,10238],[17.142235,50.922409,10116],[17.144928,50.941835,9987],[17.147431,50.959167,9857],[17.150116,50.97754,9751],[17.152786,50.995789,9615],[17.155151,51.012268,9493],[17.157898,51.030533,9371],[17.16057,51.048248,9249],[17.163465,51.067886,9119],[17.16636,51.087662,8997],[17.169418,51.108678,8883],[17.172623,51.130278,8753],[17.174683,51.144104,8677],[17.177734,51.164215,8578],[17.180634,51.18358,8455],[17.182172,51.194412,8389],[17.184601,51.211419,8266],[17.187294,51.230347,8136],[17.189966,51.249207,8007],[17.192639,51.268753,7900],[17.195534,51.288895,7778],[17.198181,51.307642,7649],[17.201027,51.326431,7520],[17.203773,51.345428,7398],[17.206573,51.364715,7269],[17.209396,51.383708,7154],[17.212067,51.40191,7017],[17.214737,51.419973,6903],[17.217331,51.437756,6773],[17.22003,51.455887,6644],[17.222702,51.474426,6529],[17.225375,51.492828,6408],[17.228121,51.511414,6270],[17.230719,51.528717,6156],[17.233911,51.550415,6049],[17.236955,51.57193,5943],[17.239702,51.590424,5851],[17.242745,51.610794,5738],[17.245712,51.630947,5631],[17.247238,51.640956,5586],[17.250671,51.664139,5479],[17.253954,51.686279,5372],[17.257156,51.707665,5273],[17.260338,51.728622,5166],[17.263412,51.749376,5060],[17.266235,51.768556,4945],[17.269135,51.78862,4839],[17.271957,51.807846,4732],[17.274551,51.825675,4611],[17.277486,51.845398,4505],[17.278976,51.857377,4459],[17.279267,51.865906,4420],[17.278822,51.875793,4373],[17.278005,51.882385,4331],[17.276075,51.892548,4253],[17.273331,51.902664,4185],[17.268311,51.917802,4063],[17.262802,51.934387,3933],[17.258501,51.947875,3841],[17.254791,51.959244,3773],[17.251129,51.970184,3706],[17.248001,51.979568,3650],[17.244644,51.989639,3590],[17.241159,52.000013,3522],[17.238312,52.008682,3461],[17.235822,52.016446,3401],[17.233625,52.023662,3345],[17.23114,52.031433,3273],[17.228699,52.039124,3211],[17.226013,52.04759,3149],[17.222953,52.056947,3088],[17.220363,52.065,3027],[17.217941,52.072495,2962],[17.216492,52.077026,2934],[17.213058,52.087738,2876],[17.209926,52.097121,2821],[17.206573,52.10733,2761],[17.20302,52.11821,2707],[17.199707,52.128159,2653],[17.196579,52.137817,2586],[17.193222,52.147842,2532],[17.190543,52.156057,2471],[17.187653,52.164688,2410],[17.185207,52.172164,2348],[17.184067,52.175583,2317],[17.182846,52.179337,2278],[17.182068,52.181614,2254],[17.181362,52.183662,2239],[17.180481,52.186478,2222],[17.179565,52.189178,2206],[17.178116,52.193802,2190],[17.176889,52.197535,2182],[17.175476,52.201864,2182],[17.173907,52.206892,2174],[17.172775,52.21051,2166],[17.171021,52.216141,2157],[17.169189,52.22168,2147],[17.167892,52.225891,2139],[17.166216,52.230866,2128],[17.16551,52.233007,2120],[17.164612,52.235687,2105],[17.163548,52.238966,2075],[17.162292,52.242644,2044],[17.160801,52.247206,2013],[17.159389,52.251442,1979],[17.157974,52.255783,1947],[17.156677,52.259491,1916],[17.155073,52.264151,1885],[17.153582,52.26862,1854],[17.151947,52.273132,1823],[17.1506,52.277279,1789],[17.1492,52.281326,1758],[17.147618,52.286217,1730],[17.146048,52.290872,1696],[17.144557,52.295387,1665],[17.14325,52.2995,1634],[17.141889,52.303674,1603],[17.140656,52.307419,1572],[17.139535,52.310889,1541],[17.138436,52.314381,1508],[17.137375,52.317719,1479],[17.13623,52.321243,1446],[17.135141,52.324436,1418],[17.133571,52.329324,1383],[17.132263,52.333099,1352],[17.131195,52.336578,1321],[17.130661,52.339371,1291],[17.130508,52.342438,1260],[17.130903,52.345524,1236],[17.131766,52.348131,1219],[17.133408,52.351364,1206],[17.136307,52.35585,1184],[17.141105,52.362935,1146],[17.145342,52.369499,1124],[17.149353,52.375854,1107],[17.152557,52.380844,1078],[17.155609,52.385696,1070],[17.162292,52.39608,1055],[17.169277,52.40674,1039],[17.176339,52.417261,1024],[17.178929,52.421497,1016],[17.179871,52.423508,1017],[17.180557,52.426071,1010],[17.180812,52.427829,1010],[17.180655,52.430249,1002],[17.180106,52.432484,1001],[17.179243,52.434579,993],[17.177887,52.436737,993],[17.176132,52.438797,983],[17.174225,52.440628,976],[17.171866,52.442399,974],[17.168884,52.444308,966],[17.165588,52.445984,958],[17.162136,52.44738,957],[17.158133,52.448637,950],[17.154759,52.449429,950],[17.150726,52.450104,942],[17.146441,52.450499,935],[17.142988,52.450593,929],[17.139221,52.450453,928],[17.135391,52.450104,922],[17.1315,52.449509,912],[17.127764,52.448591,912],[17.124405,52.447586,904],[17.121251,52.446356,896],[17.116935,52.444122,887],[17.114659,52.442679,887],[17.111991,52.440584,879],[17.110138,52.438705,872],[17.108303,52.436208,872],[17.107125,52.434113,864],[17.106323,52.431885,857],[17.105637,52.428864,849],[17.103806,52.417694,826],[17.101212,52.406616,811],[17.099533,52.39888,788],[17.097702,52.391052,773],[17.096863,52.388718,773],[17.095718,52.38652,773],[17.094256,52.384488,765],[17.092667,52.38295,757],[17.091064,52.381577,750],[17.089081,52.380249,742],[17.086722,52.378995,734],[17.08374,52.377785,719],[17.081151,52.376947,711],[17.07695,52.375992,696],[17.073975,52.37558,696],[17.070236,52.375305,688],[17.066574,52.375351,686],[17.062302,52.375671,688],[17.058029,52.376221,688],[17.048645,52.377823,689],[17.028961,52.381485,689],[17.001421,52.386956,689],[16.997262,52.38784,689],[16.994476,52.388397,681],[16.986276,52.390075,651],[16.978683,52.391556,620],[16.970973,52.393007,590],[16.962812,52.394544,559],[16.953659,52.396362,529],[16.944606,52.398082,498],[16.93573,52.399796,468],[16.928329,52.40126,445],[16.92215,52.402496,415],[16.914708,52.403994,384],[16.909136,52.405064,369],[16.904114,52.405996,345],[16.899643,52.406845,330],[16.89297,52.408137,301],[16.884966,52.409673,270],[16.876907,52.41124,239],[16.869049,52.412796,209],[16.86111,52.414282,178],[16.851959,52.416092,148],[16.843262,52.417786,118],[16.838745,52.418658,97],[16.836312,52.419123,91],[16.834194,52.419496,91],[16.832809,52.4198,92],[16.831818,52.419983,92],[16.831284,52.420074,92],[16.830063,52.420303,99],[16.828779,52.420566,99],[16.828003,52.420715,99],[16.827288,52.420846,98],[16.826248,52.421036,97],[16.826248,52.421036,97]]},"properties":{"name":"9H-VVS","stroke-opacity":1,"stroke":"#e31a1c","stroke-width":4,"icon":"http://maps.google.com/mapfiles/kml/shapes/airports.png","coordinateProperties":{"times":["2026-07-15T09:02:31.700Z","2026-07-15T09:02:33.620Z","2026-07-15T09:02:34.440Z","2026-07-15T09:02:40.620Z","2026-07-15T09:02:42.600Z","2026-07-15T09:02:44.750Z","2026-07-15T09:02:46.730Z","2026-07-15T09:02:49.350Z","2026-07-15T09:02:51.770Z","2026-07-15T09:02:54.390Z","2026-07-15T09:02:56.340Z","2026-07-15T09:02:58.760Z","2026-07-15T09:03:00.710Z","2026-07-15T09:03:02.250Z","2026-07-15T09:03:04.200Z","2026-07-15T09:03:05.740Z","2026-07-15T09:03:07.180Z","2026-07-15T09:03:08.790Z","2026-07-15T09:03:10.780Z","2026-07-15T09:03:12.280Z","2026-07-15T09:03:14.230Z","2026-07-15T09:03:16.360Z","2026-07-15T09:03:18.620Z","2026-07-15T09:03:20.790Z","2026-07-15T09:03:22.930Z","2026-07-15T09:03:24.870Z","2026-07-15T09:03:26.860Z","2026-07-15T09:03:28.900Z","2026-07-15T09:03:30.800Z","2026-07-15T09:03:33.280Z","2026-07-15T09:03:35.880Z","2026-07-15T09:03:38.520Z","2026-07-15T09:03:40.960Z","2026-07-15T09:03:44.420Z","2026-07-15T09:03:47.370Z","2026-07-15T09:03:49.980Z","2026-07-15T09:03:53.080Z","2026-07-15T09:03:56.140Z","2026-07-15T09:04:04.060Z","2026-07-15T09:04:07.410Z","2026-07-15T09:04:10.400Z","2026-07-15T09:04:14.080Z","2026-07-15T09:04:16.760Z","2026-07-15T09:04:21.490Z","2026-07-15T09:04:25.720Z","2026-07-15T09:04:29.240Z","2026-07-15T09:04:31.780Z","2026-07-15T09:04:34.930Z","2026-07-15T09:04:37.390Z","2026-07-15T09:04:40.350Z","2026-07-15T09:04:42.810Z","2026-07-15T09:04:45.270Z","2026-07-15T09:04:48.130Z","2026-07-15T09:04:50.760Z","2026-07-15T09:04:53.420Z","2026-07-15T09:04:55.730Z","2026-07-15T09:04:58.340Z","2026-07-15T09:05:00.200Z","2026-07-15T09:05:02.280Z","2026-07-15T09:05:03.920Z","2026-07-15T09:05:05.890Z","2026-07-15T09:05:07.860Z","2026-07-15T09:05:09.780Z","2026-07-15T09:05:11.710Z","2026-07-15T09:05:13.750Z","2026-07-15T09:05:15.710Z","2026-07-15T09:05:17.700Z","2026-07-15T09:05:19.650Z","2026-07-15T09:05:21.770Z","2026-07-15T09:05:23.600Z","2026-07-15T09:05:25.130Z","2026-07-15T09:05:27.690Z","2026-07-15T09:05:30.150Z","2026-07-15T09:05:32.600Z","2026-07-15T09:05:34.980Z","2026-07-15T09:05:37.120Z","2026-07-15T09:05:39.170Z","2026-07-15T09:05:41.710Z","2026-07-15T09:05:43.670Z","2026-07-15T09:05:45.660Z","2026-07-15T09:05:48.120Z","2026-07-15T09:05:51.170Z","2026-07-15T09:05:54.660Z","2026-07-15T09:05:57.500Z","2026-07-15T09:06:00.390Z","2026-07-15T09:06:03.610Z","2026-07-15T09:06:06.900Z","2026-07-15T09:06:09.780Z","2026-07-15T09:06:12.850Z","2026-07-15T09:06:16.130Z","2026-07-15T09:06:19.680Z","2026-07-15T09:06:22.370Z","2026-07-15T09:06:25.570Z","2026-07-15T09:06:28.700Z","2026-07-15T09:06:31.710Z","2026-07-15T09:06:35.250Z","2026-07-15T09:06:37.810Z","2026-07-15T09:06:40.530Z","2026-07-15T09:06:43.820Z","2026-07-15T09:06:46.760Z","2026-07-15T09:06:49.890Z","2026-07-15T09:06:53.380Z","2026-07-15T09:06:55.990Z","2026-07-15T09:06:58.930Z","2026-07-15T09:07:00.950Z","2026-07-15T09:07:02.850Z","2026-07-15T09:07:05.440Z","2026-07-15T09:07:07.040Z","2026-07-15T09:07:11.240Z","2026-07-15T09:07:17.260Z","2026-07-15T09:07:23.690Z","2026-07-15T09:07:30.130Z","2026-07-15T09:07:35.680Z","2026-07-15T09:07:41.440Z","2026-07-15T09:07:47.710Z","2026-07-15T09:07:53.810Z","2026-07-15T09:08:00.950Z","2026-07-15T09:08:03.190Z","2026-07-15T09:08:05.100Z","2026-07-15T09:08:06.580Z","2026-07-15T09:08:08.020Z","2026-07-15T09:08:11.180Z","2026-07-15T09:08:15.130Z","2026-07-15T09:08:22.500Z","2026-07-15T09:08:26.000Z","2026-07-15T09:08:35.630Z","2026-07-15T09:08:44.270Z","2026-07-15T09:08:53.720Z","2026-07-15T09:09:03.070Z","2026-07-15T09:09:11.800Z","2026-07-15T09:09:20.590Z","2026-07-15T09:09:28.520Z","2026-07-15T09:09:36.300Z","2026-07-15T09:09:44.680Z","2026-07-15T09:09:53.270Z","2026-07-15T09:10:02.860Z","2026-07-15T09:10:11.720Z","2026-07-15T09:10:21.450Z","2026-07-15T09:10:30.220Z","2026-07-15T09:10:41.190Z","2026-07-15T09:10:51.760Z","2026-07-15T09:11:01.750Z","2026-07-15T09:11:07.790Z","2026-07-15T09:11:14.600Z","2026-07-15T09:11:21.580Z","2026-07-15T09:11:28.230Z","2026-07-15T09:11:34.910Z","2026-07-15T09:11:46.430Z","2026-07-15T09:11:58.200Z","2026-07-15T09:12:09.840Z","2026-07-15T09:12:22.370Z","2026-07-15T09:12:34.890Z","2026-07-15T09:12:48.360Z","2026-07-15T09:13:00.470Z","2026-07-15T09:13:12.190Z","2026-07-15T09:13:23.710Z","2026-07-15T09:13:36.580Z","2026-07-15T09:13:49.300Z","2026-07-15T09:14:03.050Z","2026-07-15T09:14:19.160Z","2026-07-15T09:14:34.180Z","2026-07-15T09:14:49.040Z","2026-07-15T09:15:03.690Z","2026-07-15T09:15:16.720Z","2026-07-15T09:15:21.720Z","2026-07-15T09:15:26.710Z","2026-07-15T09:15:31.930Z","2026-07-15T09:15:37.470Z","2026-07-15T09:15:42.310Z","2026-07-15T09:15:47.780Z","2026-07-15T09:15:53.390Z","2026-07-15T09:15:59.120Z","2026-07-15T09:16:05.710Z","2026-07-15T09:16:20.640Z","2026-07-15T09:16:35.640Z","2026-07-15T09:16:50.570Z","2026-07-15T09:17:06.940Z","2026-07-15T09:17:22.130Z","2026-07-15T09:17:35.570Z","2026-07-15T09:17:49.360Z","2026-07-15T09:18:04.530Z","2026-07-15T09:18:19.400Z","2026-07-15T09:18:34.000Z","2026-07-15T09:18:48.200Z","2026-07-15T09:19:02.180Z","2026-07-15T09:19:16.940Z","2026-07-15T09:19:30.670Z","2026-07-15T09:19:44.020Z","2026-07-15T09:19:57.680Z","2026-07-15T09:20:10.290Z","2026-07-15T09:20:23.780Z","2026-07-15T09:20:36.380Z","2026-07-15T09:20:48.930Z","2026-07-15T09:21:01.870Z","2026-07-15T09:21:15.710Z","2026-07-15T09:21:29.210Z","2026-07-15T09:21:43.670Z","2026-07-15T09:21:58.330Z","2026-07-15T09:22:02.010Z","2026-07-15T09:22:21.600Z","2026-07-15T09:22:41.540Z","2026-07-15T09:23:01.200Z","2026-07-15T09:23:20.710Z","2026-07-15T09:23:40.620Z","2026-07-15T09:24:00.300Z","2026-07-15T09:24:19.950Z","2026-07-15T09:24:39.550Z","2026-07-15T09:24:59.260Z","2026-07-15T09:25:19.120Z","2026-07-15T09:25:38.850Z","2026-07-15T09:25:57.970Z","2026-07-15T09:26:17.740Z","2026-07-15T09:26:37.290Z","2026-07-15T09:26:57.150Z","2026-07-15T09:27:17.140Z","2026-07-15T09:27:36.640Z","2026-07-15T09:27:56.310Z","2026-07-15T09:28:15.730Z","2026-07-15T09:28:35.250Z","2026-07-15T09:28:53.470Z","2026-07-15T09:29:13.370Z","2026-07-15T09:29:33.210Z","2026-07-15T09:29:52.740Z","2026-07-15T09:30:12.160Z","2026-07-15T09:30:31.760Z","2026-07-15T09:30:51.610Z","2026-07-15T09:31:11.040Z","2026-07-15T09:31:30.930Z","2026-07-15T09:31:50.800Z","2026-07-15T09:32:10.310Z","2026-07-15T09:32:29.820Z","2026-07-15T09:32:49.470Z","2026-07-15T09:33:08.930Z","2026-07-15T09:33:28.800Z","2026-07-15T09:33:48.500Z","2026-07-15T09:34:08.490Z","2026-07-15T09:34:28.440Z","2026-07-15T09:34:48.110Z","2026-07-15T09:35:07.740Z","2026-07-15T09:35:27.380Z","2026-07-15T09:35:47.040Z","2026-07-15T09:36:06.550Z","2026-07-15T09:36:26.550Z","2026-07-15T09:36:46.440Z","2026-07-15T09:37:05.950Z","2026-07-15T09:37:25.700Z","2026-07-15T09:37:45.650Z","2026-07-15T09:38:05.630Z","2026-07-15T09:38:25.240Z","2026-07-15T09:38:44.990Z","2026-07-15T09:39:04.790Z","2026-07-15T09:39:24.710Z","2026-07-15T09:39:44.600Z","2026-07-15T09:40:04.390Z","2026-07-15T09:40:24.140Z","2026-07-15T09:40:44.070Z","2026-07-15T09:41:03.900Z","2026-07-15T09:41:23.440Z","2026-07-15T09:41:43.080Z","2026-07-15T09:42:02.750Z","2026-07-15T09:42:22.330Z","2026-07-15T09:42:41.930Z","2026-07-15T09:43:01.810Z","2026-07-15T09:43:21.220Z","2026-07-15T09:43:41.170Z","2026-07-15T09:44:00.680Z","2026-07-15T09:44:20.500Z","2026-07-15T09:44:26.360Z","2026-07-15T09:44:29.240Z","2026-07-15T09:44:31.610Z","2026-07-15T09:44:38.280Z","2026-07-15T09:44:52.040Z","2026-07-15T09:45:05.600Z","2026-07-15T09:45:10.630Z","2026-07-15T09:45:12.990Z","2026-07-15T09:45:17.260Z","2026-07-15T09:45:26.670Z","2026-07-15T09:45:33.900Z","2026-07-15T09:45:53.560Z","2026-07-15T09:46:13.460Z","2026-07-15T09:46:33.130Z","2026-07-15T09:46:52.900Z","2026-07-15T09:47:12.760Z","2026-07-15T09:47:32.710Z","2026-07-15T09:47:39.280Z","2026-07-15T09:47:43.230Z","2026-07-15T09:47:46.680Z","2026-07-15T09:47:50.810Z","2026-07-15T09:48:03.480Z","2026-07-15T09:48:16.100Z","2026-07-15T09:48:22.390Z","2026-07-15T09:48:26.430Z","2026-07-15T09:48:29.600Z","2026-07-15T09:48:49.330Z","2026-07-15T09:49:08.850Z","2026-07-15T09:49:28.460Z","2026-07-15T09:49:48.360Z","2026-07-15T09:50:08.110Z","2026-07-15T09:50:27.870Z","2026-07-15T09:50:47.680Z","2026-07-15T09:51:07.560Z","2026-07-15T09:51:27.470Z","2026-07-15T09:51:47.380Z","2026-07-15T09:52:07.270Z","2026-07-15T09:52:26.900Z","2026-07-15T09:52:45.950Z","2026-07-15T09:52:52.080Z","2026-07-15T09:52:58.780Z","2026-07-15T09:53:05.600Z","2026-07-15T09:53:12.930Z","2026-07-15T09:53:19.510Z","2026-07-15T09:53:39.020Z","2026-07-15T09:53:58.500Z","2026-07-15T09:54:18.320Z","2026-07-15T09:54:38.060Z","2026-07-15T09:54:57.800Z","2026-07-15T09:55:17.310Z","2026-07-15T09:55:37.150Z","2026-07-15T09:55:56.900Z","2026-07-15T09:56:16.700Z","2026-07-15T09:56:36.550Z","2026-07-15T09:56:56.020Z","2026-07-15T09:57:14.650Z","2026-07-15T09:57:17.850Z","2026-07-15T09:57:32.770Z","2026-07-15T09:57:48.850Z","2026-07-15T09:58:05.090Z","2026-07-15T09:58:17.740Z","2026-07-15T09:58:21.220Z","2026-07-15T09:58:41.190Z","2026-07-15T09:59:00.820Z","2026-07-15T09:59:20.580Z","2026-07-15T09:59:40.260Z","2026-07-15T10:00:00.040Z","2026-07-15T10:00:19.900Z","2026-07-15T10:00:39.430Z","2026-07-15T10:00:59.410Z","2026-07-15T10:01:19.280Z","2026-07-15T10:01:38.870Z","2026-07-15T10:01:58.490Z","2026-07-15T10:02:18.030Z","2026-07-15T10:02:37.880Z","2026-07-15T10:02:57.760Z","2026-07-15T10:03:17.480Z","2026-07-15T10:03:37.060Z","2026-07-15T10:03:56.750Z","2026-07-15T10:04:16.210Z","2026-07-15T10:04:36.040Z","2026-07-15T10:04:55.600Z","2026-07-15T10:05:15.540Z","2026-07-15T10:05:35.440Z","2026-07-15T10:05:55.280Z","2026-07-15T10:06:15.140Z","2026-07-15T10:06:34.850Z","2026-07-15T10:06:54.420Z","2026-07-15T10:07:14.420Z","2026-07-15T10:07:34.040Z","2026-07-15T10:07:53.750Z","2026-07-15T10:08:13.310Z","2026-07-15T10:08:32.910Z","2026-07-15T10:08:52.570Z","2026-07-15T10:09:12.160Z","2026-07-15T10:09:31.890Z","2026-07-15T10:09:51.750Z","2026-07-15T10:10:11.260Z","2026-07-15T10:10:30.950Z","2026-07-15T10:10:50.860Z","2026-07-15T10:11:10.690Z","2026-07-15T10:11:30.680Z","2026-07-15T10:11:36.600Z","2026-07-15T10:11:41.900Z","2026-07-15T10:11:47.320Z","2026-07-15T10:11:53.330Z","2026-07-15T10:11:59.840Z","2026-07-15T10:12:05.540Z","2026-07-15T10:12:11.600Z","2026-07-15T10:12:18.620Z","2026-07-15T10:12:38.390Z","2026-07-15T10:12:58.340Z","2026-07-15T10:13:17.930Z","2026-07-15T10:13:37.760Z","2026-07-15T10:13:57.690Z","2026-07-15T10:14:17.570Z","2026-07-15T10:14:37.110Z","2026-07-15T10:14:56.550Z","2026-07-15T10:15:16.340Z","2026-07-15T10:15:36.030Z","2026-07-15T10:15:55.790Z","2026-07-15T10:16:15.640Z","2026-07-15T10:16:35.360Z","2026-07-15T10:16:55.110Z","2026-07-15T10:17:14.640Z","2026-07-15T10:17:34.420Z","2026-07-15T10:17:54.410Z","2026-07-15T10:18:14.110Z","2026-07-15T10:18:34.100Z","2026-07-15T10:18:53.920Z","2026-07-15T10:19:13.520Z","2026-07-15T10:19:33.120Z","2026-07-15T10:19:52.890Z","2026-07-15T10:20:12.430Z","2026-07-15T10:20:31.980Z","2026-07-15T10:20:51.820Z","2026-07-15T10:21:11.550Z","2026-07-15T10:21:31.320Z","2026-07-15T10:21:50.920Z","2026-07-15T10:22:10.600Z","2026-07-15T10:22:30.310Z","2026-07-15T10:22:50.140Z","2026-07-15T10:23:09.680Z","2026-07-15T10:23:29.570Z","2026-07-15T10:23:37.570Z","2026-07-15T10:23:48.430Z","2026-07-15T10:24:08.290Z","2026-07-15T10:24:28.110Z","2026-07-15T10:24:35.520Z","2026-07-15T10:24:37.160Z","2026-07-15T10:24:49.310Z","2026-07-15T10:24:55.130Z","2026-07-15T10:24:56.640Z","2026-07-15T10:24:57.150Z","2026-07-15T10:24:58.230Z","2026-07-15T10:24:58.680Z","2026-07-15T10:24:59.840Z","2026-07-15T10:25:00.970Z","2026-07-15T10:25:08.180Z","2026-07-15T10:25:10.610Z","2026-07-15T10:25:12.710Z","2026-07-15T10:25:15.710Z","2026-07-15T10:25:27.700Z","2026-07-15T10:25:34.030Z","2026-07-15T10:25:43.740Z","2026-07-15T10:25:53.740Z","2026-07-15T10:26:03.560Z","2026-07-15T10:26:13.170Z","2026-07-15T10:26:21.800Z","2026-07-15T10:26:30.970Z","2026-07-15T10:26:40.130Z","2026-07-15T10:26:48.430Z","2026-07-15T10:26:57.610Z","2026-07-15T10:27:06.520Z","2026-07-15T10:27:16.460Z","2026-07-15T10:27:26.520Z","2026-07-15T10:27:37.320Z","2026-07-15T10:27:48.500Z","2026-07-15T10:27:55.760Z","2026-07-15T10:28:06.400Z","2026-07-15T10:28:16.750Z","2026-07-15T10:28:22.530Z","2026-07-15T10:28:31.670Z","2026-07-15T10:28:41.880Z","2026-07-15T10:28:52.080Z","2026-07-15T10:29:02.800Z","2026-07-15T10:29:13.890Z","2026-07-15T10:29:24.290Z","2026-07-15T10:29:34.820Z","2026-07-15T10:29:45.410Z","2026-07-15T10:29:56.260Z","2026-07-15T10:30:07.050Z","2026-07-15T10:30:17.410Z","2026-07-15T10:30:27.730Z","2026-07-15T10:30:37.900Z","2026-07-15T10:30:48.320Z","2026-07-15T10:30:59.050Z","2026-07-15T10:31:09.650Z","2026-07-15T10:31:20.470Z","2026-07-15T10:31:30.570Z","2026-07-15T10:31:43.200Z","2026-07-15T10:31:55.840Z","2026-07-15T10:32:06.620Z","2026-07-15T10:32:18.600Z","2026-07-15T10:32:30.470Z","2026-07-15T10:32:36.350Z","2026-07-15T10:32:50.060Z","2026-07-15T10:33:03.260Z","2026-07-15T10:33:16.150Z","2026-07-15T10:33:28.710Z","2026-07-15T10:33:41.230Z","2026-07-15T10:33:52.830Z","2026-07-15T10:34:05.160Z","2026-07-15T10:34:17.080Z","2026-07-15T10:34:28.190Z","2026-07-15T10:34:40.510Z","2026-07-15T10:34:48.050Z","2026-07-15T10:34:53.530Z","2026-07-15T10:34:59.930Z","2026-07-15T10:35:04.200Z","2026-07-15T10:35:10.860Z","2026-07-15T10:35:17.530Z","2026-07-15T10:35:27.530Z","2026-07-15T10:35:38.470Z","2026-07-15T10:35:47.370Z","2026-07-15T10:35:54.910Z","2026-07-15T10:36:02.220Z","2026-07-15T10:36:08.600Z","2026-07-15T10:36:15.420Z","2026-07-15T10:36:22.450Z","2026-07-15T10:36:28.450Z","2026-07-15T10:36:33.750Z","2026-07-15T10:36:38.710Z","2026-07-15T10:36:44.080Z","2026-07-15T10:36:49.330Z","2026-07-15T10:36:55.160Z","2026-07-15T10:37:01.630Z","2026-07-15T10:37:07.210Z","2026-07-15T10:37:12.390Z","2026-07-15T10:37:15.580Z","2026-07-15T10:37:23.190Z","2026-07-15T10:37:29.850Z","2026-07-15T10:37:37.100Z","2026-07-15T10:37:44.930Z","2026-07-15T10:37:52.240Z","2026-07-15T10:37:59.390Z","2026-07-15T10:38:06.880Z","2026-07-15T10:38:13.070Z","2026-07-15T10:38:19.620Z","2026-07-15T10:38:25.310Z","2026-07-15T10:38:27.840Z","2026-07-15T10:38:30.720Z","2026-07-15T10:38:32.410Z","2026-07-15T10:38:33.920Z","2026-07-15T10:38:36.010Z","2026-07-15T10:38:38.030Z","2026-07-15T10:38:41.560Z","2026-07-15T10:38:44.390Z","2026-07-15T10:38:47.770Z","2026-07-15T10:38:51.750Z","2026-07-15T10:38:54.670Z","2026-07-15T10:38:59.200Z","2026-07-15T10:39:03.860Z","2026-07-15T10:39:07.280Z","2026-07-15T10:39:11.560Z","2026-07-15T10:39:13.440Z","2026-07-15T10:39:15.860Z","2026-07-15T10:39:18.580Z","2026-07-15T10:39:21.820Z","2026-07-15T10:39:25.930Z","2026-07-15T10:39:29.570Z","2026-07-15T10:39:33.470Z","2026-07-15T10:39:36.840Z","2026-07-15T10:39:41.040Z","2026-07-15T10:39:45.100Z","2026-07-15T10:39:49.280Z","2026-07-15T10:39:53.130Z","2026-07-15T10:39:56.950Z","2026-07-15T10:40:01.580Z","2026-07-15T10:40:06.110Z","2026-07-15T10:40:10.460Z","2026-07-15T10:40:14.510Z","2026-07-15T10:40:18.610Z","2026-07-15T10:40:22.310Z","2026-07-15T10:40:25.790Z","2026-07-15T10:40:29.280Z","2026-07-15T10:40:32.640Z","2026-07-15T10:40:36.170Z","2026-07-15T10:40:39.410Z","2026-07-15T10:40:44.320Z","2026-07-15T10:40:48.240Z","2026-07-15T10:40:51.810Z","2026-07-15T10:40:54.570Z","2026-07-15T10:40:57.630Z","2026-07-15T10:41:00.570Z","2026-07-15T10:41:03.120Z","2026-07-15T10:41:06.520Z","2026-07-15T10:41:11.380Z","2026-07-15T10:41:19.220Z","2026-07-15T10:41:26.600Z","2026-07-15T10:41:33.850Z","2026-07-15T10:41:39.770Z","2026-07-15T10:41:45.550Z","2026-07-15T10:41:58.110Z","2026-07-15T10:42:11.080Z","2026-07-15T10:42:23.800Z","2026-07-15T10:42:28.990Z","2026-07-15T10:42:31.370Z","2026-07-15T10:42:34.260Z","2026-07-15T10:42:36.310Z","2026-07-15T10:42:39.090Z","2026-07-15T10:42:41.530Z","2026-07-15T10:42:44.110Z","2026-07-15T10:42:46.650Z","2026-07-15T10:42:49.270Z","2026-07-15T10:42:51.720Z","2026-07-15T10:42:54.170Z","2026-07-15T10:42:57.140Z","2026-07-15T10:43:00.080Z","2026-07-15T10:43:02.950Z","2026-07-15T10:43:05.970Z","2026-07-15T10:43:08.480Z","2026-07-15T10:43:11.270Z","2026-07-15T10:43:14.280Z","2026-07-15T10:43:16.600Z","2026-07-15T10:43:19.220Z","2026-07-15T10:43:21.810Z","2026-07-15T10:43:24.580Z","2026-07-15T10:43:27.340Z","2026-07-15T10:43:29.900Z","2026-07-15T10:43:32.450Z","2026-07-15T10:43:36.370Z","2026-07-15T10:43:38.580Z","2026-07-15T10:43:41.630Z","2026-07-15T10:43:44.030Z","2026-07-15T10:43:47.090Z","2026-07-15T10:43:49.690Z","2026-07-15T10:43:52.340Z","2026-07-15T10:43:55.790Z","2026-07-15T10:44:08.420Z","2026-07-15T10:44:21.050Z","2026-07-15T10:44:29.790Z","2026-07-15T10:44:38.740Z","2026-07-15T10:44:41.430Z","2026-07-15T10:44:44.080Z","2026-07-15T10:44:46.550Z","2026-07-15T10:44:48.500Z","2026-07-15T10:44:50.430Z","2026-07-15T10:44:52.490Z","2026-07-15T10:44:54.580Z","2026-07-15T10:44:57.070Z","2026-07-15T10:44:58.960Z","2026-07-15T10:45:02.040Z","2026-07-15T10:45:04.210Z","2026-07-15T10:45:06.700Z","2026-07-15T10:45:09.190Z","2026-07-15T10:45:12.200Z","2026-07-15T10:45:15.210Z","2026-07-15T10:45:21.750Z","2026-07-15T10:45:35.750Z","2026-07-15T10:45:55.470Z","2026-07-15T10:45:58.410Z","2026-07-15T10:46:00.510Z","2026-07-15T10:46:06.330Z","2026-07-15T10:46:11.730Z","2026-07-15T10:46:17.270Z","2026-07-15T10:46:23.080Z","2026-07-15T10:46:29.820Z","2026-07-15T10:46:36.470Z","2026-07-15T10:46:43.030Z","2026-07-15T10:46:48.650Z","2026-07-15T10:46:53.480Z","2026-07-15T10:46:59.410Z","2026-07-15T10:47:03.820Z","2026-07-15T10:47:08.110Z","2026-07-15T10:47:11.950Z","2026-07-15T10:47:17.810Z","2026-07-15T10:47:24.960Z","2026-07-15T10:47:32.260Z","2026-07-15T10:47:39.630Z","2026-07-15T10:47:46.960Z","2026-07-15T10:47:55.750Z","2026-07-15T10:48:04.350Z","2026-07-15T10:48:08.820Z","2026-07-15T10:48:10.990Z","2026-07-15T10:48:13.090Z","2026-07-15T10:48:14.540Z","2026-07-15T10:48:15.630Z","2026-07-15T10:48:16.200Z","2026-07-15T10:48:17.680Z","2026-07-15T10:48:19.030Z","2026-07-15T10:48:20.290Z","2026-07-15T10:48:21.060Z","2026-07-15T10:48:22.360Z","2026-07-15T10:48:22.360Z"]}}},{"type":"Feature","geometry":{"type":"LineString","coordinates":[[16.825981,52.421104,0],[16.825248,52.421253,0],[16.824589,52.421379,0],[16.824051,52.421486,0],[16.823711,52.421551,0],[16.823462,52.421602,0],[16.822933,52.421695,0],[16.822403,52.4218,0],[16.821938,52.421894,0],[16.821194,52.422043,0],[16.820259,52.422215,0],[16.819656,52.422335,0],[16.819146,52.422428,0],[16.818562,52.422546,0],[16.817856,52.422672,0],[16.817243,52.422789,0],[16.816674,52.422882,0],[16.8164,52.422929,0],[16.816044,52.422958,0],[16.815733,52.422975,0],[16.8153,52.423004,0],[16.814919,52.423004,0],[16.814499,52.422993,0],[16.813869,52.422952,0],[16.813418,52.422917,0],[16.812849,52.422847,0],[16.812534,52.42281,0],[16.812153,52.422752,0],[16.811907,52.422719,0],[16.81177,52.422684,0],[16.811695,52.422649,0],[16.811632,52.422615,0],[16.811593,52.422556,0],[16.811562,52.422512,0],[16.811554,52.422463,0],[16.811554,52.422417,0],[16.811581,52.422363,0],[16.811593,52.422324,0],[16.811638,52.422272,0],[16.811676,52.422237,0],[16.811771,52.42218,0],[16.811848,52.422138,0],[16.811981,52.4221,0],[16.812123,52.422068,0],[16.81242,52.422009,0],[16.813065,52.421893,0],[16.813698,52.421768,0],[16.814281,52.421649,0],[16.814919,52.421516,0],[16.815576,52.421393,0],[16.816243,52.421265,0],[16.816921,52.421139,0],[16.817608,52.421001,0],[16.818256,52.420864,0],[16.81893,52.420753,0],[16.819578,52.420625,0],[16.82024,52.420498,0],[16.820853,52.42038,0],[16.821442,52.420264,0],[16.822033,52.420155,0],[16.822643,52.420029,0],[16.823273,52.419903,0],[16.823902,52.419788,0],[16.82457,52.419651,0],[16.82515,52.419542,0],[16.825829,52.419411,0],[16.826464,52.419286,0],[16.827087,52.41917,0],[16.82772,52.419053,0],[16.828367,52.418925,0],[16.828661,52.418867,0],[16.828877,52.418809,0],[16.828995,52.418751,0],[16.829052,52.418701,0],[16.82909,52.418667,0],[16.829128,52.41861,0],[16.829128,52.418564,0],[16.829132,52.418506,0],[16.829112,52.418413,0],[16.82909,52.418335,0],[16.828975,52.418146,0],[16.828766,52.41774,0],[16.828556,52.417339,0],[16.82848,52.417168,0],[16.828461,52.417042,0],[16.828485,52.416924,0],[16.82848,52.416698,0],[16.828442,52.416561,0],[16.828365,52.416367,0],[16.82827,52.416092,0],[16.828175,52.415817,0],[16.828151,52.415795,0],[16.828151,52.415795,0]]},"properties":{"name":"9H-VVS","stroke-opacity":1,"stroke":"#e31a1c","stroke-width":4,"icon":"http://maps.google.com/mapfiles/kml/shapes/airports.png","coordinateProperties":{"times":["2026-07-15T10:48:22.740Z","2026-07-15T10:48:24.180Z","2026-07-15T10:48:25.060Z","2026-07-15T10:48:25.790Z","2026-07-15T10:48:26.370Z","2026-07-15T10:48:26.830Z","2026-07-15T10:48:27.820Z","2026-07-15T10:48:28.860Z","2026-07-15T10:48:29.870Z","2026-07-15T10:48:31.460Z","2026-07-15T10:48:33.570Z","2026-07-15T10:48:35.030Z","2026-07-15T10:48:36.370Z","2026-07-15T10:48:37.830Z","2026-07-15T10:48:39.890Z","2026-07-15T10:48:42.030Z","2026-07-15T10:48:43.700Z","2026-07-15T10:48:44.690Z","2026-07-15T10:48:45.790Z","2026-07-15T10:48:47.050Z","2026-07-15T10:48:48.740Z","2026-07-15T10:48:50.240Z","2026-07-15T10:48:51.750Z","2026-07-15T10:48:54.630Z","2026-07-15T10:48:56.550Z","2026-07-15T10:48:59.540Z","2026-07-15T10:49:01.570Z","2026-07-15T10:49:04.350Z","2026-07-15T10:49:06.700Z","2026-07-15T10:49:08.400Z","2026-07-15T10:49:09.480Z","2026-07-15T10:49:10.660Z","2026-07-15T10:49:11.960Z","2026-07-15T10:49:12.970Z","2026-07-15T10:49:13.970Z","2026-07-15T10:49:15.040Z","2026-07-15T10:49:16.120Z","2026-07-15T10:49:17.130Z","2026-07-15T10:49:18.280Z","2026-07-15T10:49:19.410Z","2026-07-15T10:49:20.870Z","2026-07-15T10:49:22.440Z","2026-07-15T10:49:23.870Z","2026-07-15T10:49:25.810Z","2026-07-15T10:49:28.380Z","2026-07-15T10:49:33.680Z","2026-07-15T10:49:37.400Z","2026-07-15T10:49:40.630Z","2026-07-15T10:49:43.950Z","2026-07-15T10:49:46.710Z","2026-07-15T10:49:49.580Z","2026-07-15T10:49:52.360Z","2026-07-15T10:49:55.260Z","2026-07-15T10:49:58.320Z","2026-07-15T10:50:01.050Z","2026-07-15T10:50:03.950Z","2026-07-15T10:50:07.170Z","2026-07-15T10:50:09.620Z","2026-07-15T10:50:12.190Z","2026-07-15T10:50:15.170Z","2026-07-15T10:50:17.630Z","2026-07-15T10:50:20.360Z","2026-07-15T10:50:23.220Z","2026-07-15T10:50:26.320Z","2026-07-15T10:50:28.810Z","2026-07-15T10:50:31.890Z","2026-07-15T10:50:34.970Z","2026-07-15T10:50:38.240Z","2026-07-15T10:50:41.810Z","2026-07-15T10:50:46.230Z","2026-07-15T10:50:48.880Z","2026-07-15T10:50:51.240Z","2026-07-15T10:50:52.970Z","2026-07-15T10:50:54.230Z","2026-07-15T10:50:55.240Z","2026-07-15T10:50:56.210Z","2026-07-15T10:50:57.210Z","2026-07-15T10:50:58.330Z","2026-07-15T10:51:00.000Z","2026-07-15T10:51:01.450Z","2026-07-15T10:51:04.970Z","2026-07-15T10:51:11.930Z","2026-07-15T10:51:17.550Z","2026-07-15T10:51:20.210Z","2026-07-15T10:51:22.270Z","2026-07-15T10:51:23.990Z","2026-07-15T10:51:27.500Z","2026-07-15T10:51:29.750Z","2026-07-15T10:51:33.130Z","2026-07-15T10:51:39.790Z","2026-07-15T10:51:50.510Z","2026-07-15T10:52:21.040Z","2026-07-15T10:52:21.040Z"]}}}]}