{"type":"FeatureCollection","features":[{"type":"Feature","geometry":{"type":"LineString","coordinates":[[16.829093,52.415806,0],[16.829093,52.415806,0],[16.82909,52.415806,0],[16.82909,52.415806,0],[16.829128,52.415886,0],[16.829166,52.415977,0],[16.829205,52.416058,0],[16.8293,52.416195,0],[16.829319,52.416229,0],[16.829348,52.416249,0],[16.829357,52.416286,0],[16.829387,52.416307,0],[16.829387,52.416342,0],[16.829395,52.416367,0],[16.829395,52.416401,0],[16.829395,52.416424,0],[16.829407,52.416458,0],[16.829387,52.41647,0],[16.829387,52.416493,0],[16.829368,52.416516,0],[16.829348,52.416528,0],[16.829328,52.41654,0],[16.8293,52.41655,0],[16.829147,52.416573,0],[16.829147,52.416573,0],[16.829147,52.416573,0],[16.829281,52.416561,0],[16.829505,52.416516,0],[16.829987,52.416458,0],[16.830505,52.416377,0],[16.831212,52.416284,0],[16.831879,52.41619,0],[16.832585,52.416097,0],[16.833272,52.415993,0],[16.833919,52.415911,0],[16.834586,52.415818,0],[16.835251,52.415726,0],[16.835587,52.415713,0],[16.836234,52.41569,0],[16.836872,52.415668,0],[16.837597,52.415634,0],[16.838235,52.41562,0],[16.838392,52.41562,0],[16.838551,52.415634,0],[16.838684,52.415668,0],[16.838824,52.415702,0],[16.838989,52.415783,0],[16.839142,52.415863,0],[16.839373,52.415993,0],[16.839569,52.416121,0],[16.839706,52.416237,0],[16.839824,52.416353,0],[16.839943,52.416538,0],[16.840134,52.416847,0],[16.840373,52.417226,0],[16.840511,52.417447,0],[16.840534,52.417488,0],[16.840707,52.417797,0],[16.840727,52.417925,0],[16.840725,52.418015,0],[16.840687,52.418099,0],[16.840648,52.418157,0],[16.84057,52.418215,0],[16.840511,52.418262,0],[16.840393,52.41832,0],[16.840256,52.418355,0],[16.840079,52.41839,0],[16.839485,52.418518,0],[16.839142,52.418587,0],[16.838989,52.41861,0],[16.838818,52.418644,0],[16.838686,52.418669,0],[16.838303,52.418747,0],[16.838112,52.41877,0],[16.837646,52.418867,0],[16.83747,52.418902,0],[16.83691,52.41901,0],[16.836666,52.419053,0],[16.836038,52.419181,0],[16.835594,52.419262,0],[16.835365,52.419308,0],[16.834793,52.419411,0],[16.834221,52.419525,0],[16.833649,52.41964,0],[16.832899,52.419787,0],[16.832899,52.419787,0]]},"properties":{"name":"SP-RNL","stroke-opacity":1,"stroke":"#e31a1c","stroke-width":4,"icon":"http://maps.google.com/mapfiles/kml/shapes/airports.png","coordinateProperties":{"times":["2026-07-09T05:27:33.450Z","2026-07-09T05:27:33.450Z","2026-07-09T05:28:48.750Z","2026-07-09T05:29:03.920Z","2026-07-09T05:29:53.580Z","2026-07-09T05:30:00.180Z","2026-07-09T05:30:06.490Z","2026-07-09T05:30:18.040Z","2026-07-09T05:30:20.340Z","2026-07-09T05:30:22.130Z","2026-07-09T05:30:24.600Z","2026-07-09T05:30:26.750Z","2026-07-09T05:30:28.890Z","2026-07-09T05:30:30.530Z","2026-07-09T05:30:32.890Z","2026-07-09T05:30:34.800Z","2026-07-09T05:30:36.930Z","2026-07-09T05:30:37.990Z","2026-07-09T05:30:39.480Z","2026-07-09T05:30:41.640Z","2026-07-09T05:30:43.100Z","2026-07-09T05:30:44.640Z","2026-07-09T05:30:47.630Z","2026-07-09T05:31:07.390Z","2026-07-09T05:32:24.520Z","2026-07-09T05:33:39.660Z","2026-07-09T05:34:14.440Z","2026-07-09T05:34:21.470Z","2026-07-09T05:34:31.370Z","2026-07-09T05:34:39.690Z","2026-07-09T05:34:47.700Z","2026-07-09T05:34:54.930Z","2026-07-09T05:35:02.200Z","2026-07-09T05:35:09.010Z","2026-07-09T05:35:14.590Z","2026-07-09T05:35:20.000Z","2026-07-09T05:35:25.250Z","2026-07-09T05:35:27.650Z","2026-07-09T05:35:32.540Z","2026-07-09T05:35:37.220Z","2026-07-09T05:35:42.280Z","2026-07-09T05:35:46.860Z","2026-07-09T05:35:47.910Z","2026-07-09T05:35:48.980Z","2026-07-09T05:35:50.030Z","2026-07-09T05:35:51.060Z","2026-07-09T05:35:52.430Z","2026-07-09T05:35:53.960Z","2026-07-09T05:35:56.080Z","2026-07-09T05:35:58.220Z","2026-07-09T05:35:59.960Z","2026-07-09T05:36:01.280Z","2026-07-09T05:36:04.010Z","2026-07-09T05:36:07.820Z","2026-07-09T05:36:12.840Z","2026-07-09T05:36:15.590Z","2026-07-09T05:36:16.180Z","2026-07-09T05:36:20.440Z","2026-07-09T05:36:22.300Z","2026-07-09T05:36:23.560Z","2026-07-09T05:36:24.880Z","2026-07-09T05:36:26.120Z","2026-07-09T05:36:27.060Z","2026-07-09T05:36:28.130Z","2026-07-09T05:36:29.570Z","2026-07-09T05:36:31.200Z","2026-07-09T05:36:33.170Z","2026-07-09T05:36:39.420Z","2026-07-09T05:36:42.350Z","2026-07-09T05:36:43.220Z","2026-07-09T05:36:44.200Z","2026-07-09T05:36:44.670Z","2026-07-09T05:36:46.490Z","2026-07-09T05:36:46.940Z","2026-07-09T05:36:48.420Z","2026-07-09T05:36:48.960Z","2026-07-09T05:36:50.660Z","2026-07-09T05:36:50.880Z","2026-07-09T05:36:52.470Z","2026-07-09T05:36:53.280Z","2026-07-09T05:36:53.770Z","2026-07-09T05:36:54.800Z","2026-07-09T05:36:55.800Z","2026-07-09T05:36:56.870Z","2026-07-09T05:36:58.080Z","2026-07-09T05:36:58.080Z"]}}},{"type":"Feature","geometry":{"type":"LineString","coordinates":[[16.832809,52.4198,102],[16.831918,52.419961,102],[16.831207,52.42012,102],[16.830292,52.420258,102],[16.828779,52.420566,102],[16.827927,52.420715,102],[16.827523,52.420799,102],[16.826268,52.421078,102],[16.825405,52.421218,102],[16.824463,52.421404,102],[16.823521,52.421591,102],[16.822586,52.421768,102],[16.821559,52.421963,102],[16.820618,52.422149,102],[16.819441,52.422382,102],[16.817093,52.422821,103],[16.81536,52.423173,102],[16.814041,52.423416,109],[16.812378,52.423732,116],[16.81073,52.424058,130],[16.807826,52.42457,162],[16.805573,52.424973,192],[16.803275,52.425408,220],[16.801627,52.425734,251],[16.799927,52.426025,281],[16.798325,52.426346,305],[16.796605,52.426665,335],[16.79512,52.426941,356],[16.793442,52.427261,387],[16.791229,52.427673,419],[16.78915,52.428061,447],[16.787109,52.42848,480],[16.784834,52.428899,510],[16.782636,52.429272,534],[16.77948,52.429871,569],[16.775417,52.430622,598],[16.772435,52.431227,615],[16.768799,52.431931,629],[16.764587,52.43281,644],[16.761056,52.433601,659],[16.757355,52.434357,674],[16.753922,52.435089,690],[16.750031,52.435867,706],[16.74489,52.436906,732],[16.740189,52.437881,748],[16.737518,52.438385,755],[16.734543,52.43898,763],[16.730844,52.439746,777],[16.72794,52.440305,791],[16.724396,52.440994,821],[16.720734,52.441727,851],[16.717072,52.442413,882],[16.713638,52.4431,913],[16.710127,52.443749,943],[16.706848,52.444382,973],[16.703927,52.44496,1004],[16.700592,52.445618,1035],[16.6971,52.44631,1067],[16.693647,52.446961,1097],[16.69075,52.447495,1129],[16.68808,52.447998,1153],[16.685643,52.448498,1184],[16.682504,52.449103,1216],[16.679443,52.449662,1245],[16.677246,52.450104,1268],[16.67497,52.450499,1299],[16.671982,52.451065,1329],[16.668777,52.451706,1360],[16.666024,52.452222,1390],[16.663742,52.452621,1414],[16.661301,52.453079,1446],[16.65802,52.453712,1476],[16.655666,52.454131,1507],[16.652684,52.454689,1531],[16.649704,52.455231,1562],[16.646576,52.45578,1593],[16.643738,52.456318,1623],[16.640625,52.456879,1653],[16.63765,52.457428,1682],[16.634792,52.457948,1712],[16.632538,52.458389,1742],[16.628952,52.45903,1772],[16.626053,52.459625,1802],[16.623256,52.460136,1832],[16.620274,52.460694,1863],[16.617135,52.4613,1893],[16.613447,52.461951,1923],[16.610489,52.462555,1953],[16.607404,52.463115,1986],[16.604309,52.463699,2015],[16.600723,52.464386,2046],[16.597674,52.464977,2068],[16.594456,52.465582,2098],[16.591082,52.466188,2131],[16.584473,52.467453,2189],[16.577454,52.468781,2247],[16.570365,52.470098,2312],[16.563644,52.47139,2377],[16.557103,52.472426,2419],[16.551923,52.472891,2455],[16.549334,52.472984,2471],[16.545175,52.472938,2502],[16.542053,52.472717,2526],[16.537092,52.472146,2560],[16.533796,52.471634,2583],[16.528538,52.47047,2622],[16.526642,52.469971,2638],[16.521912,52.46846,2675],[16.516296,52.466281,2719],[16.511353,52.463767,2757],[16.507339,52.461273,2798],[16.504839,52.459577,2814],[16.502609,52.457932,2821],[16.500052,52.455806,2837],[16.497726,52.453766,2845],[16.495514,52.451706,2860],[16.491623,52.44809,2876],[16.48836,52.445099,2884],[16.484375,52.441406,2907],[16.481857,52.439072,2914],[16.477966,52.435455,2929],[16.47447,52.432251,2937],[16.470468,52.42862,2961],[16.467209,52.425613,2978],[16.464582,52.42322,2994],[16.459045,52.418198,3040],[16.452713,52.412476,3097],[16.447946,52.408183,3135],[16.443329,52.403961,3158],[16.433428,52.395102,3202],[16.42334,52.386108,3233],[16.41304,52.376953,3279],[16.402117,52.367311,3309],[16.389618,52.356262,3347],[16.377947,52.345943,3385],[16.364746,52.334335,3421],[16.360291,52.330348,3441],[16.356759,52.327276,3465],[16.348724,52.320145,3528],[16.339188,52.311768,3590],[16.329136,52.302789,3644],[16.309662,52.285583,3765],[16.287153,52.265641,3874],[16.281346,52.260473,3916],[16.262355,52.243621,4039],[16.252136,52.234543,4102],[16.236223,52.220392,4230],[16.219273,52.205216,4352],[16.202393,52.190094,4489],[16.186523,52.175903,4604],[16.169678,52.160851,4726],[16.156998,52.14949,4845],[16.13923,52.133572,4961],[16.121674,52.117813,5098],[16.10878,52.106232,5189],[16.094343,52.093304,5296],[16.075592,52.076431,5410],[16.056362,52.059135,5540],[16.045061,52.048986,5608],[16.029663,52.035095,5722],[16.016388,52.022141,5798],[16.001587,52.00621,5904],[15.989502,51.992844,5981],[15.970119,51.97143,6103],[15.953169,51.95267,6194],[15.937631,51.935492,6308],[15.932617,51.929901,6331],[15.921097,51.91713,6385],[15.90169,51.895597,6499],[15.882111,51.873717,6621],[15.878659,51.869888,6636],[15.862045,51.851372,6705],[15.860214,51.84937,6712],[15.843277,51.830424,6826],[15.821055,51.805527,6925],[15.810588,51.793579,6986],[15.789877,51.769958,7097],[15.784531,51.763807,7133],[15.778891,51.75737,7158],[15.767311,51.743637,7214],[15.754395,51.726746,7290],[15.741806,51.70841,7352],[15.731308,51.691177,7422],[15.727448,51.684357,7448],[15.716019,51.662975,7511],[15.70694,51.646077,7572],[15.69519,51.624151,7640],[15.691681,51.617587,7670],[15.689087,51.612745,7692],[15.686175,51.607269,7730],[15.682464,51.600311,7771],[15.674447,51.585388,7907],[15.666428,51.57029,8024],[15.658487,51.555359,8156],[15.650024,51.539383,8273],[15.640793,51.522015,8409],[15.632401,51.506001,8532],[15.62355,51.489429,8654],[15.615234,51.473647,8790],[15.607193,51.458633,8898],[15.599027,51.443298,9032],[15.596132,51.437897,9063],[15.592499,51.431192,9098],[15.585071,51.417435,9164],[15.569611,51.388922,9278],[15.553968,51.360123,9370],[15.538788,51.332175,9476],[15.524127,51.305099,9583],[15.509206,51.277405,9689],[15.494461,51.249871,9795],[15.478846,51.220642,9902],[15.463628,51.191986,10001],[15.44752,51.161636,10100],[15.43104,51.130325,10192],[15.413818,51.097645,10283],[15.396745,51.065094,10375],[15.385132,51.042853,10442],[15.382462,51.037686,10442],[15.379639,51.032286,10450],[15.370865,51.015573,10450],[15.351686,50.978897,10480],[15.34701,50.970062,10503],[15.326893,50.931564,10587],[15.310562,50.900253,10633],[15.287104,50.855026,10633],[15.263824,50.809859,10640],[15.240932,50.765396,10633],[15.217819,50.720758,10633],[15.194473,50.675742,10633],[15.171377,50.631005,10632],[15.148439,50.586641,10632],[15.125501,50.54209,10639],[15.10266,50.49765,10632],[15.079747,50.452927,10639],[15.05706,50.408486,10639],[15.034284,50.363937,10639],[15.011444,50.319305,10639],[15.001542,50.300034,10647],[14.998,50.293259,10654],[14.992478,50.282376,10685],[14.975305,50.248672,10776],[14.956921,50.212408,10853],[14.938587,50.176025,10936],[14.919731,50.138436,11012],[14.901618,50.102125,11088],[14.883439,50.065704,11172],[14.865319,50.029318,11255],[14.858503,50.015671,11286],[14.854778,50.008276,11286],[14.832627,49.963715,11286],[14.810313,49.91964,11286],[14.798436,49.898878,11286],[14.772491,49.855316,11286],[14.746102,49.811034,11294],[14.720121,49.767461,11294],[14.693768,49.72319,11300],[14.676144,49.693726,11308],[14.671374,49.685715,11323],[14.666314,49.677292,11346],[14.650413,49.650879,11422],[14.626778,49.611099,11498],[14.605729,49.575619,11575],[14.584784,49.540329,11651],[14.563491,49.504534,11735],[14.541995,49.468506,11811],[14.521179,49.433578,11895],[14.507519,49.410731,11940],[14.503616,49.404168,11940],[14.478174,49.361479,11940],[14.452585,49.318726,11940],[14.426928,49.276056,11940],[14.401104,49.233032,11940],[14.374888,49.189515,11948],[14.348778,49.146194,11948],[14.322791,49.10321,11948],[14.296682,49.060147,11948],[14.270888,49.017563,11955],[14.244786,48.974537,11955],[14.21828,48.931183,11955],[14.191871,48.88829,11955],[14.165109,48.845123,11962],[14.138176,48.801549,11962],[14.111657,48.758698,11962],[14.084614,48.714981,11962],[14.057641,48.671539,11963],[14.030386,48.62764,11963],[14.003061,48.583649,11971],[13.976581,48.540665,11971],[13.949608,48.496719,11971],[13.922641,48.452919,11971],[13.895754,48.409253,11971],[13.869011,48.365447,11971],[13.842773,48.322294,11979],[13.816153,48.278412,11979],[13.789504,48.234449,11979],[13.76305,48.190551,11979],[13.737065,48.147117,11987],[13.711212,48.103638,11987],[13.685257,48.060059,11987],[13.659508,48.017075,11987],[13.63354,47.974129,11995],[13.608328,47.932325,11995],[13.582535,47.889313,11995],[13.556717,47.846191,12002],[13.531036,47.803436,12001],[13.505719,47.761479,12001],[13.479802,47.718511,12001],[13.454407,47.676498,12009],[13.428462,47.633833,12009],[13.403183,47.592316,12009],[13.377777,47.550705,12015],[13.358389,47.518476,12015],[13.350929,47.503967,12015],[13.343459,47.486774,12015],[13.337473,47.47062,12015],[13.332402,47.453862,12015],[13.319893,47.408432,12015],[13.307671,47.363251,12023],[13.29564,47.318395,12022],[13.283386,47.272913,12022],[13.271553,47.228577,12030],[13.259674,47.183807,12030],[13.247658,47.138535,12030],[13.239281,47.107132,12037],[13.237015,47.098892,12053],[13.233877,47.087356,12075],[13.225849,47.057981,12174],[13.21768,47.028141,12274],[13.213031,47.011243,12327],[13.211334,47.00528,12342],[13.208454,46.994763,12350],[13.195918,46.949328,12342],[13.183525,46.904251,12327],[13.171134,46.858795,12335],[13.158943,46.813489,12334],[13.146816,46.768387,12334],[13.134758,46.723434,12335],[13.122551,46.678348,12335],[13.110307,46.633713,12327],[13.097351,46.592087,12327],[13.082451,46.546558,12335],[13.067701,46.501465,12335],[13.052964,46.456009,12327],[13.038643,46.411324,12336],[13.024627,46.366699,12336],[13.013168,46.328228,12336],[13.000946,46.283166,12351],[12.989067,46.237591,12344],[12.977119,46.192017,12344],[12.965103,46.146116,12337],[12.95295,46.100309,12338],[12.941002,46.055293,12338],[12.929054,46.01037,12338],[12.917038,45.965447,12338],[12.904983,45.920563,12345],[12.892724,45.875015,12339],[12.880599,45.82988,12346],[12.868492,45.784126,12361],[12.856349,45.73851,12346],[12.844322,45.693349,12354],[12.8325,45.648743,12354],[12.820496,45.603177,12354],[12.808754,45.55872,12354],[12.79698,45.513885,12354],[12.785205,45.469107,12354],[12.773372,45.424347,12355],[12.761491,45.378935,12355],[12.74983,45.334259,12362],[12.738313,45.289741,12362],[12.726656,45.245004,12362],[12.715,45.200314,12362],[12.703334,45.155548,12362],[12.691825,45.111053,12362],[12.680315,45.066422,12362],[12.668911,45.022252,12362],[12.657523,44.978167,12362],[12.646001,44.93343,12363],[12.634474,44.888672,12371],[12.62316,44.844955,12371],[12.611912,44.801102,12371],[12.600599,44.757111,12372],[12.589327,44.713285,12372],[12.577907,44.668625,12372],[12.566484,44.623858,12372],[12.555028,44.579075,12381],[12.543975,44.535269,12381],[12.532922,44.491743,12381],[12.521667,44.447332,12373],[12.518988,44.436671,12358],[12.517112,44.429316,12343],[12.508327,44.394562,12266],[12.499106,44.357986,12190],[12.489689,44.320587,12106],[12.480469,44.284103,12038],[12.471358,44.248228,11962],[12.462027,44.211365,11878],[12.452938,44.174722,11794],[12.444061,44.138626,11710],[12.435118,44.102829,11625],[12.426048,44.066711,11549],[12.416403,44.028534,11473],[12.408994,43.999008,11406],[12.406834,43.990235,11372],[12.400752,43.965749,11258],[12.394814,43.941833,11137],[12.388618,43.916611,11030],[12.382442,43.891219,10916],[12.376035,43.865341,10801],[12.369755,43.840058,10678],[12.363771,43.816315,10572],[12.357831,43.792282,10450],[12.35151,43.766505,10328],[12.345298,43.741553,10213],[12.339116,43.716568,10098],[12.332938,43.691882,9969],[12.331004,43.684021,9949],[12.329151,43.676651,9923],[12.327641,43.670422,9907],[12.325063,43.66008,9894],[12.318165,43.632294,9884],[12.316262,43.624661,9869],[12.308201,43.592056,9785],[12.299897,43.558136,9686],[12.291543,43.523223,9609],[12.283545,43.489517,9517],[12.275914,43.457724,9433],[12.268407,43.426666,9349],[12.260873,43.396136,9266],[12.25296,43.364061,9173],[12.245178,43.332545,9082],[12.236981,43.299271,9006],[12.229549,43.269095,8922],[12.221587,43.236694,8831],[12.218039,43.222356,8792],[12.212134,43.198151,8669],[12.206449,43.174896,8563],[12.201298,43.153738,8440],[12.199075,43.144661,8384],[12.197767,43.139354,8340],[12.194039,43.124084,8212],[12.189331,43.10463,8088],[12.187351,43.093689,8006],[12.186712,43.085312,7948],[12.186712,43.075516,7885],[12.18767,43.064758,7808],[12.189396,43.055234,7737],[12.191816,43.046435,7671],[12.19508,43.037155,7605],[12.199359,43.027679,7535],[12.207511,43.011056,7397],[12.216158,42.99321,7275],[12.224775,42.975583,7145],[12.232765,42.959015,7008],[12.241058,42.942019,6886],[12.248989,42.92569,6764],[12.256818,42.909618,6627],[12.264894,42.893234,6497],[12.272775,42.877311,6382],[12.281211,42.860366,6245],[12.289741,42.842972,6116],[12.298556,42.825073,5986],[12.305995,42.810602,5893],[12.311969,42.800779,5833],[12.318676,42.791003,5752],[12.326598,42.780853,5689],[12.342693,42.760837,5590],[12.347164,42.755251,5559],[12.360368,42.738785,5445],[12.373664,42.722031,5331],[12.386523,42.705734,5216],[12.399604,42.689147,5102],[12.412379,42.67304,4980],[12.424913,42.657257,4866],[12.438312,42.640546,4752],[12.449382,42.626816,4660],[12.460743,42.612625,4531],[12.471335,42.599255,4409],[12.482066,42.585289,4272],[12.486154,42.578911,4228],[12.488958,42.573349,4179],[12.491008,42.568297,4144],[12.493078,42.561722,4096],[12.494514,42.554764,4045],[12.495288,42.547675,3999],[12.495479,42.544556,3985],[12.49545,42.540756,3968],[12.494951,42.532196,3944],[12.494264,42.522949,3898],[12.493453,42.509308,3830],[12.492891,42.498001,3776],[12.492477,42.487343,3723],[12.491954,42.476028,3669],[12.491455,42.464858,3609],[12.490944,42.454012,3555],[12.490331,42.442245,3502],[12.48977,42.431305,3449],[12.489219,42.419842,3388],[12.488645,42.408111,3334],[12.48807,42.397311,3274],[12.487585,42.386124,3220],[12.487023,42.375183,3167],[12.486473,42.363514,3106],[12.485899,42.351791,3052],[12.4854,42.341354,2999],[12.484838,42.330551,2938],[12.484301,42.320314,2885],[12.483777,42.309128,2831],[12.483279,42.299179,2778],[12.482778,42.287933,2717],[12.482279,42.277771,2664],[12.48181,42.267337,2603],[12.48128,42.256348,2549],[12.480781,42.245773,2496],[12.480157,42.234283,2435],[12.479595,42.223984,2382],[12.479033,42.21373,2321],[12.478471,42.203064,2267],[12.478169,42.196112,2237],[12.477914,42.191364,2207],[12.477597,42.185349,2176],[12.477275,42.179074,2153],[12.476828,42.168972,2123],[12.476445,42.160919,2100],[12.476061,42.154122,2085],[12.475678,42.145929,2069],[12.475413,42.139938,2062],[12.475231,42.13578,2062],[12.475038,42.131149,2054],[12.474913,42.127121,2046],[12.474663,42.119202,2022],[12.474414,42.11293,2002],[12.474102,42.105881,1986],[12.473698,42.09798,1963],[12.473415,42.092651,1947],[12.473187,42.087925,1940],[12.472804,42.081547,1932],[12.472604,42.077545,1917],[12.472229,42.071631,1886],[12.471974,42.066138,1856],[12.471667,42.060883,1824],[12.471418,42.055206,1788],[12.471079,42.04938,1757],[12.470824,42.044538,1726],[12.470504,42.039278,1690],[12.470231,42.033875,1664],[12.46993,42.028664,1628],[12.46961,42.02331,1597],[12.469358,42.018036,1566],[12.469108,42.012863,1535],[12.468844,42.007436,1499],[12.468609,42.00119,1467],[12.468397,41.996729,1437],[12.46846,41.993144,1414],[12.468908,41.990305,1390],[12.469607,41.987595,1359],[12.470544,41.984619,1328],[12.47148,41.982147,1297],[12.472612,41.979318,1263],[12.474164,41.976151,1228],[12.47587,41.972941,1199],[12.478425,41.968611,1164],[12.481938,41.962839,1132],[12.486586,41.955414,1101],[12.489794,41.950549,1070],[12.492988,41.945987,1034],[12.496199,41.941406,1003],[12.499695,41.936508,972],[12.504422,41.929833,941],[12.506146,41.927413,926],[12.508573,41.924014,893],[12.510873,41.920523,867],[12.5133,41.917078,841],[12.516494,41.912656,818],[12.520544,41.906799,796],[12.524851,41.900299,766],[12.525038,41.899979,757],[12.527863,41.89599,711],[12.529332,41.893755,710],[12.532271,41.889845,681],[12.53565,41.88501,625],[12.539271,41.8797,592],[12.542454,41.875122,562],[12.546075,41.869904,531],[12.549517,41.864846,494],[12.552838,41.860145,469],[12.556159,41.855303,432],[12.559034,41.85116,409],[12.561368,41.847702,386],[12.562866,41.845596,371],[12.566124,41.840965,333],[12.569608,41.835892,310],[12.572767,41.831236,280],[12.575975,41.826645,249],[12.578846,41.822525,219],[12.582467,41.817169,188],[12.58565,41.812546,158],[12.588799,41.808099,122],[12.589821,41.80661,116],[12.590651,41.805492,110],[12.591393,41.804352,118],[12.591801,41.80377,111],[12.592504,41.802699,113],[12.592954,41.802155,113],[12.59359,41.80121,120],[12.594164,41.800372,120],[12.594612,41.79972,127],[12.594889,41.799316,127],[12.594889,41.799316,127]]},"properties":{"name":"SP-RNL","stroke-opacity":1,"stroke":"#e31a1c","stroke-width":4,"icon":"http://maps.google.com/mapfiles/kml/shapes/airports.png","coordinateProperties":{"times":["2026-07-09T05:36:58.080Z","2026-07-09T05:36:59.500Z","2026-07-09T05:37:00.630Z","2026-07-09T05:37:02.020Z","2026-07-09T05:37:03.650Z","2026-07-09T05:37:04.800Z","2026-07-09T05:37:05.400Z","2026-07-09T05:37:06.830Z","2026-07-09T05:37:07.910Z","2026-07-09T05:37:08.830Z","2026-07-09T05:37:09.760Z","2026-07-09T05:37:10.860Z","2026-07-09T05:37:12.010Z","2026-07-09T05:37:12.720Z","2026-07-09T05:37:14.020Z","2026-07-09T05:37:16.280Z","2026-07-09T05:37:17.640Z","2026-07-09T05:37:18.880Z","2026-07-09T05:37:20.240Z","2026-07-09T05:37:21.690Z","2026-07-09T05:37:24.300Z","2026-07-09T05:37:26.320Z","2026-07-09T05:37:28.280Z","2026-07-09T05:37:29.860Z","2026-07-09T05:37:31.350Z","2026-07-09T05:37:32.910Z","2026-07-09T05:37:34.430Z","2026-07-09T05:37:35.810Z","2026-07-09T05:37:37.470Z","2026-07-09T05:37:39.500Z","2026-07-09T05:37:41.530Z","2026-07-09T05:37:43.560Z","2026-07-09T05:37:45.690Z","2026-07-09T05:37:47.890Z","2026-07-09T05:37:50.850Z","2026-07-09T05:37:54.520Z","2026-07-09T05:37:57.130Z","2026-07-09T05:38:00.340Z","2026-07-09T05:38:03.780Z","2026-07-09T05:38:06.750Z","2026-07-09T05:38:09.760Z","2026-07-09T05:38:12.490Z","2026-07-09T05:38:15.540Z","2026-07-09T05:38:19.350Z","2026-07-09T05:38:22.750Z","2026-07-09T05:38:24.670Z","2026-07-09T05:38:26.770Z","2026-07-09T05:38:29.360Z","2026-07-09T05:38:31.330Z","2026-07-09T05:38:33.760Z","2026-07-09T05:38:36.240Z","2026-07-09T05:38:38.670Z","2026-07-09T05:38:41.070Z","2026-07-09T05:38:43.460Z","2026-07-09T05:38:45.580Z","2026-07-09T05:38:47.530Z","2026-07-09T05:38:49.790Z","2026-07-09T05:38:52.130Z","2026-07-09T05:38:54.460Z","2026-07-09T05:38:56.510Z","2026-07-09T05:38:58.140Z","2026-07-09T05:38:59.780Z","2026-07-09T05:39:01.910Z","2026-07-09T05:39:03.940Z","2026-07-09T05:39:05.400Z","2026-07-09T05:39:06.970Z","2026-07-09T05:39:08.970Z","2026-07-09T05:39:11.170Z","2026-07-09T05:39:12.980Z","2026-07-09T05:39:14.620Z","2026-07-09T05:39:16.150Z","2026-07-09T05:39:18.390Z","2026-07-09T05:39:20.080Z","2026-07-09T05:39:22.040Z","2026-07-09T05:39:23.990Z","2026-07-09T05:39:26.080Z","2026-07-09T05:39:28.040Z","2026-07-09T05:39:30.120Z","2026-07-09T05:39:32.150Z","2026-07-09T05:39:34.080Z","2026-07-09T05:39:35.630Z","2026-07-09T05:39:38.060Z","2026-07-09T05:39:40.090Z","2026-07-09T05:39:41.970Z","2026-07-09T05:39:43.990Z","2026-07-09T05:39:46.130Z","2026-07-09T05:39:48.640Z","2026-07-09T05:39:50.650Z","2026-07-09T05:39:52.760Z","2026-07-09T05:39:54.890Z","2026-07-09T05:39:57.290Z","2026-07-09T05:39:59.370Z","2026-07-09T05:40:01.570Z","2026-07-09T05:40:03.800Z","2026-07-09T05:40:08.190Z","2026-07-09T05:40:12.860Z","2026-07-09T05:40:17.520Z","2026-07-09T05:40:22.050Z","2026-07-09T05:40:26.290Z","2026-07-09T05:40:29.390Z","2026-07-09T05:40:30.940Z","2026-07-09T05:40:33.380Z","2026-07-09T05:40:35.200Z","2026-07-09T05:40:38.060Z","2026-07-09T05:40:39.920Z","2026-07-09T05:40:43.030Z","2026-07-09T05:40:44.130Z","2026-07-09T05:40:47.020Z","2026-07-09T05:40:50.550Z","2026-07-09T05:40:53.790Z","2026-07-09T05:40:56.720Z","2026-07-09T05:40:58.620Z","2026-07-09T05:41:00.310Z","2026-07-09T05:41:02.390Z","2026-07-09T05:41:04.320Z","2026-07-09T05:41:06.240Z","2026-07-09T05:41:09.510Z","2026-07-09T05:41:12.240Z","2026-07-09T05:41:15.530Z","2026-07-09T05:41:17.540Z","2026-07-09T05:41:20.690Z","2026-07-09T05:41:23.380Z","2026-07-09T05:41:26.510Z","2026-07-09T05:41:28.980Z","2026-07-09T05:41:30.970Z","2026-07-09T05:41:35.150Z","2026-07-09T05:41:39.830Z","2026-07-09T05:41:43.300Z","2026-07-09T05:41:46.680Z","2026-07-09T05:41:53.660Z","2026-07-09T05:42:00.590Z","2026-07-09T05:42:07.420Z","2026-07-09T05:42:14.460Z","2026-07-09T05:42:22.280Z","2026-07-09T05:42:29.440Z","2026-07-09T05:42:37.280Z","2026-07-09T05:42:39.930Z","2026-07-09T05:42:41.970Z","2026-07-09T05:42:46.700Z","2026-07-09T05:42:52.230Z","2026-07-09T05:42:58.030Z","2026-07-09T05:43:09.150Z","2026-07-09T05:43:21.710Z","2026-07-09T05:43:24.930Z","2026-07-09T05:43:35.410Z","2026-07-09T05:43:40.960Z","2026-07-09T05:43:49.590Z","2026-07-09T05:43:58.760Z","2026-07-09T05:44:07.860Z","2026-07-09T05:44:16.380Z","2026-07-09T05:44:25.360Z","2026-07-09T05:44:32.100Z","2026-07-09T05:44:41.500Z","2026-07-09T05:44:50.780Z","2026-07-09T05:44:57.550Z","2026-07-09T05:45:05.080Z","2026-07-09T05:45:14.850Z","2026-07-09T05:45:24.830Z","2026-07-09T05:45:30.660Z","2026-07-09T05:45:38.590Z","2026-07-09T05:45:45.790Z","2026-07-09T05:45:54.220Z","2026-07-09T05:46:01.290Z","2026-07-09T05:46:12.490Z","2026-07-09T05:46:22.200Z","2026-07-09T05:46:31.090Z","2026-07-09T05:46:33.980Z","2026-07-09T05:46:40.480Z","2026-07-09T05:46:51.430Z","2026-07-09T05:47:02.490Z","2026-07-09T05:47:04.470Z","2026-07-09T05:47:13.700Z","2026-07-09T05:47:14.690Z","2026-07-09T05:47:24.110Z","2026-07-09T05:47:36.430Z","2026-07-09T05:47:42.270Z","2026-07-09T05:47:53.810Z","2026-07-09T05:47:56.800Z","2026-07-09T05:47:59.910Z","2026-07-09T05:48:06.500Z","2026-07-09T05:48:14.400Z","2026-07-09T05:48:22.720Z","2026-07-09T05:48:30.350Z","2026-07-09T05:48:33.340Z","2026-07-09T05:48:42.570Z","2026-07-09T05:48:49.850Z","2026-07-09T05:48:59.260Z","2026-07-09T05:49:02.080Z","2026-07-09T05:49:04.160Z","2026-07-09T05:49:06.480Z","2026-07-09T05:49:09.490Z","2026-07-09T05:49:15.920Z","2026-07-09T05:49:22.530Z","2026-07-09T05:49:29.090Z","2026-07-09T05:49:36.150Z","2026-07-09T05:49:43.950Z","2026-07-09T05:49:51.120Z","2026-07-09T05:49:58.650Z","2026-07-09T05:50:05.830Z","2026-07-09T05:50:12.780Z","2026-07-09T05:50:19.880Z","2026-07-09T05:50:22.400Z","2026-07-09T05:50:25.570Z","2026-07-09T05:50:31.990Z","2026-07-09T05:50:45.270Z","2026-07-09T05:50:58.670Z","2026-07-09T05:51:11.600Z","2026-07-09T05:51:24.150Z","2026-07-09T05:51:36.850Z","2026-07-09T05:51:49.500Z","2026-07-09T05:52:02.920Z","2026-07-09T05:52:16.030Z","2026-07-09T05:52:29.870Z","2026-07-09T05:52:44.110Z","2026-07-09T05:52:58.960Z","2026-07-09T05:53:13.630Z","2026-07-09T05:53:23.670Z","2026-07-09T05:53:25.990Z","2026-07-09T05:53:28.380Z","2026-07-09T05:53:35.830Z","2026-07-09T05:53:52.010Z","2026-07-09T05:53:55.880Z","2026-07-09T05:54:12.700Z","2026-07-09T05:54:26.290Z","2026-07-09T05:54:45.900Z","2026-07-09T05:55:05.650Z","2026-07-09T05:55:25.300Z","2026-07-09T05:55:45.070Z","2026-07-09T05:56:05.000Z","2026-07-09T05:56:24.810Z","2026-07-09T05:56:44.440Z","2026-07-09T05:57:04.240Z","2026-07-09T05:57:23.980Z","2026-07-09T05:57:43.870Z","2026-07-09T05:58:03.640Z","2026-07-09T05:58:23.510Z","2026-07-09T05:58:43.370Z","2026-07-09T05:58:51.960Z","2026-07-09T05:58:54.990Z","2026-07-09T05:58:59.830Z","2026-07-09T05:59:14.810Z","2026-07-09T05:59:30.890Z","2026-07-09T05:59:46.980Z","2026-07-09T06:00:03.650Z","2026-07-09T06:00:19.850Z","2026-07-09T06:00:35.940Z","2026-07-09T06:00:52.090Z","2026-07-09T06:00:58.100Z","2026-07-09T06:01:01.370Z","2026-07-09T06:01:21.040Z","2026-07-09T06:01:40.400Z","2026-07-09T06:01:49.690Z","2026-07-09T06:02:09.300Z","2026-07-09T06:02:29.240Z","2026-07-09T06:02:48.870Z","2026-07-09T06:03:08.770Z","2026-07-09T06:03:22.040Z","2026-07-09T06:03:25.650Z","2026-07-09T06:03:29.500Z","2026-07-09T06:03:41.370Z","2026-07-09T06:03:59.390Z","2026-07-09T06:04:15.500Z","2026-07-09T06:04:31.590Z","2026-07-09T06:04:47.940Z","2026-07-09T06:05:04.410Z","2026-07-09T06:05:20.450Z","2026-07-09T06:05:30.930Z","2026-07-09T06:05:33.940Z","2026-07-09T06:05:53.560Z","2026-07-09T06:06:13.140Z","2026-07-09T06:06:32.740Z","2026-07-09T06:06:52.420Z","2026-07-09T06:07:12.320Z","2026-07-09T06:07:32.160Z","2026-07-09T06:07:51.800Z","2026-07-09T06:08:11.440Z","2026-07-09T06:08:30.890Z","2026-07-09T06:08:50.560Z","2026-07-09T06:09:10.430Z","2026-07-09T06:09:30.060Z","2026-07-09T06:09:49.880Z","2026-07-09T06:10:09.770Z","2026-07-09T06:10:29.290Z","2026-07-09T06:10:49.210Z","2026-07-09T06:11:08.920Z","2026-07-09T06:11:28.850Z","2026-07-09T06:11:48.760Z","2026-07-09T06:12:08.200Z","2026-07-09T06:12:28.050Z","2026-07-09T06:12:47.830Z","2026-07-09T06:13:07.530Z","2026-07-09T06:13:27.290Z","2026-07-09T06:13:46.750Z","2026-07-09T06:14:06.550Z","2026-07-09T06:14:26.430Z","2026-07-09T06:14:46.250Z","2026-07-09T06:15:05.980Z","2026-07-09T06:15:25.830Z","2026-07-09T06:15:45.770Z","2026-07-09T06:16:05.470Z","2026-07-09T06:16:25.270Z","2026-07-09T06:16:44.620Z","2026-07-09T06:17:04.420Z","2026-07-09T06:17:24.360Z","2026-07-09T06:17:44.150Z","2026-07-09T06:18:03.690Z","2026-07-09T06:18:23.670Z","2026-07-09T06:18:43.330Z","2026-07-09T06:19:03.260Z","2026-07-09T06:19:22.740Z","2026-07-09T06:19:42.320Z","2026-07-09T06:19:57.460Z","2026-07-09T06:20:04.150Z","2026-07-09T06:20:11.890Z","2026-07-09T06:20:19.040Z","2026-07-09T06:20:26.380Z","2026-07-09T06:20:46.230Z","2026-07-09T06:21:05.910Z","2026-07-09T06:21:25.450Z","2026-07-09T06:21:45.330Z","2026-07-09T06:22:04.750Z","2026-07-09T06:22:24.290Z","2026-07-09T06:22:44.150Z","2026-07-09T06:22:57.830Z","2026-07-09T06:23:01.470Z","2026-07-09T06:23:06.520Z","2026-07-09T06:23:19.370Z","2026-07-09T06:23:32.510Z","2026-07-09T06:23:40.010Z","2026-07-09T06:23:42.650Z","2026-07-09T06:23:47.330Z","2026-07-09T06:24:07.320Z","2026-07-09T06:24:27.070Z","2026-07-09T06:24:47.000Z","2026-07-09T06:25:06.840Z","2026-07-09T06:25:26.540Z","2026-07-09T06:25:46.160Z","2026-07-09T06:26:05.830Z","2026-07-09T06:26:25.360Z","2026-07-09T06:26:43.470Z","2026-07-09T06:27:03.400Z","2026-07-09T06:27:23.160Z","2026-07-09T06:27:43.020Z","2026-07-09T06:28:02.590Z","2026-07-09T06:28:22.050Z","2026-07-09T06:28:38.850Z","2026-07-09T06:28:58.440Z","2026-07-09T06:29:18.210Z","2026-07-09T06:29:37.990Z","2026-07-09T06:29:57.990Z","2026-07-09T06:30:17.890Z","2026-07-09T06:30:37.510Z","2026-07-09T06:30:57.090Z","2026-07-09T06:31:16.680Z","2026-07-09T06:31:36.270Z","2026-07-09T06:31:56.090Z","2026-07-09T06:32:15.810Z","2026-07-09T06:32:35.710Z","2026-07-09T06:32:55.710Z","2026-07-09T06:33:15.470Z","2026-07-09T06:33:34.930Z","2026-07-09T06:33:54.920Z","2026-07-09T06:34:14.380Z","2026-07-09T06:34:34.040Z","2026-07-09T06:34:53.760Z","2026-07-09T06:35:13.490Z","2026-07-09T06:35:33.420Z","2026-07-09T06:35:53.210Z","2026-07-09T06:36:12.810Z","2026-07-09T06:36:32.610Z","2026-07-09T06:36:52.400Z","2026-07-09T06:37:12.210Z","2026-07-09T06:37:31.890Z","2026-07-09T06:37:51.660Z","2026-07-09T06:38:11.320Z","2026-07-09T06:38:30.890Z","2026-07-09T06:38:50.830Z","2026-07-09T06:39:10.810Z","2026-07-09T06:39:30.370Z","2026-07-09T06:39:49.890Z","2026-07-09T06:40:09.450Z","2026-07-09T06:40:29.030Z","2026-07-09T06:40:48.940Z","2026-07-09T06:41:08.890Z","2026-07-09T06:41:28.780Z","2026-07-09T06:41:48.360Z","2026-07-09T06:42:07.840Z","2026-07-09T06:42:27.780Z","2026-07-09T06:42:32.600Z","2026-07-09T06:42:35.810Z","2026-07-09T06:42:51.440Z","2026-07-09T06:43:07.850Z","2026-07-09T06:43:24.660Z","2026-07-09T06:43:41.010Z","2026-07-09T06:43:57.090Z","2026-07-09T06:44:13.440Z","2026-07-09T06:44:29.720Z","2026-07-09T06:44:45.890Z","2026-07-09T06:45:01.900Z","2026-07-09T06:45:18.080Z","2026-07-09T06:45:35.250Z","2026-07-09T06:45:48.130Z","2026-07-09T06:45:52.040Z","2026-07-09T06:46:02.920Z","2026-07-09T06:46:13.670Z","2026-07-09T06:46:25.010Z","2026-07-09T06:46:36.530Z","2026-07-09T06:46:48.260Z","2026-07-09T06:46:59.710Z","2026-07-09T06:47:10.460Z","2026-07-09T06:47:21.240Z","2026-07-09T06:47:32.880Z","2026-07-09T06:47:44.170Z","2026-07-09T06:47:55.520Z","2026-07-09T06:48:06.690Z","2026-07-09T06:48:10.270Z","2026-07-09T06:48:13.610Z","2026-07-09T06:48:16.570Z","2026-07-09T06:48:21.200Z","2026-07-09T06:48:33.920Z","2026-07-09T06:48:37.420Z","2026-07-09T06:48:52.310Z","2026-07-09T06:49:07.930Z","2026-07-09T06:49:24.100Z","2026-07-09T06:49:39.910Z","2026-07-09T06:49:54.890Z","2026-07-09T06:50:09.740Z","2026-07-09T06:50:24.580Z","2026-07-09T06:50:40.160Z","2026-07-09T06:50:55.710Z","2026-07-09T06:51:12.070Z","2026-07-09T06:51:27.030Z","2026-07-09T06:51:43.180Z","2026-07-09T06:51:50.320Z","2026-07-09T06:52:02.610Z","2026-07-09T06:52:14.430Z","2026-07-09T06:52:25.300Z","2026-07-09T06:52:29.920Z","2026-07-09T06:52:32.620Z","2026-07-09T06:52:40.410Z","2026-07-09T06:52:50.480Z","2026-07-09T06:52:56.050Z","2026-07-09T06:53:00.380Z","2026-07-09T06:53:05.410Z","2026-07-09T06:53:10.930Z","2026-07-09T06:53:15.850Z","2026-07-09T06:53:20.400Z","2026-07-09T06:53:25.350Z","2026-07-09T06:53:30.570Z","2026-07-09T06:53:39.580Z","2026-07-09T06:53:49.470Z","2026-07-09T06:53:59.340Z","2026-07-09T06:54:08.640Z","2026-07-09T06:54:18.220Z","2026-07-09T06:54:27.570Z","2026-07-09T06:54:36.700Z","2026-07-09T06:54:46.090Z","2026-07-09T06:54:55.290Z","2026-07-09T06:55:05.130Z","2026-07-09T06:55:15.290Z","2026-07-09T06:55:25.900Z","2026-07-09T06:55:34.560Z","2026-07-09T06:55:40.650Z","2026-07-09T06:55:46.880Z","2026-07-09T06:55:53.720Z","2026-07-09T06:56:07.280Z","2026-07-09T06:56:11.140Z","2026-07-09T06:56:22.690Z","2026-07-09T06:56:34.500Z","2026-07-09T06:56:46.100Z","2026-07-09T06:56:57.950Z","2026-07-09T06:57:09.680Z","2026-07-09T06:57:21.220Z","2026-07-09T06:57:33.640Z","2026-07-09T06:57:43.980Z","2026-07-09T06:57:54.600Z","2026-07-09T06:58:04.710Z","2026-07-09T06:58:15.060Z","2026-07-09T06:58:19.670Z","2026-07-09T06:58:23.470Z","2026-07-09T06:58:26.950Z","2026-07-09T06:58:31.310Z","2026-07-09T06:58:35.910Z","2026-07-09T06:58:40.480Z","2026-07-09T06:58:42.500Z","2026-07-09T06:58:44.990Z","2026-07-09T06:58:50.640Z","2026-07-09T06:58:56.800Z","2026-07-09T06:59:05.900Z","2026-07-09T06:59:13.410Z","2026-07-09T06:59:20.610Z","2026-07-09T06:59:28.350Z","2026-07-09T06:59:35.860Z","2026-07-09T06:59:43.270Z","2026-07-09T06:59:51.410Z","2026-07-09T06:59:58.800Z","2026-07-09T07:00:06.710Z","2026-07-09T07:00:14.880Z","2026-07-09T07:00:22.440Z","2026-07-09T07:00:30.410Z","2026-07-09T07:00:38.000Z","2026-07-09T07:00:46.340Z","2026-07-09T07:00:54.710Z","2026-07-09T07:01:02.090Z","2026-07-09T07:01:09.920Z","2026-07-09T07:01:17.240Z","2026-07-09T07:01:25.370Z","2026-07-09T07:01:32.580Z","2026-07-09T07:01:40.790Z","2026-07-09T07:01:48.090Z","2026-07-09T07:01:55.720Z","2026-07-09T07:02:03.850Z","2026-07-09T07:02:11.630Z","2026-07-09T07:02:20.290Z","2026-07-09T07:02:27.880Z","2026-07-09T07:02:35.610Z","2026-07-09T07:02:43.570Z","2026-07-09T07:02:48.850Z","2026-07-09T07:02:52.430Z","2026-07-09T07:02:56.960Z","2026-07-09T07:03:01.690Z","2026-07-09T07:03:09.470Z","2026-07-09T07:03:15.710Z","2026-07-09T07:03:21.150Z","2026-07-09T07:03:27.830Z","2026-07-09T07:03:32.700Z","2026-07-09T07:03:36.150Z","2026-07-09T07:03:39.980Z","2026-07-09T07:03:43.490Z","2026-07-09T07:03:50.310Z","2026-07-09T07:03:55.910Z","2026-07-09T07:04:02.320Z","2026-07-09T07:04:09.700Z","2026-07-09T07:04:14.660Z","2026-07-09T07:04:19.130Z","2026-07-09T07:04:25.470Z","2026-07-09T07:04:29.460Z","2026-07-09T07:04:35.350Z","2026-07-09T07:04:40.910Z","2026-07-09T07:04:46.260Z","2026-07-09T07:04:52.100Z","2026-07-09T07:04:58.000Z","2026-07-09T07:05:03.140Z","2026-07-09T07:05:08.450Z","2026-07-09T07:05:14.050Z","2026-07-09T07:05:19.480Z","2026-07-09T07:05:25.080Z","2026-07-09T07:05:30.600Z","2026-07-09T07:05:36.090Z","2026-07-09T07:05:41.830Z","2026-07-09T07:05:48.490Z","2026-07-09T07:05:53.300Z","2026-07-09T07:05:57.220Z","2026-07-09T07:06:00.190Z","2026-07-09T07:06:03.190Z","2026-07-09T07:06:06.500Z","2026-07-09T07:06:09.120Z","2026-07-09T07:06:12.220Z","2026-07-09T07:06:15.720Z","2026-07-09T07:06:19.280Z","2026-07-09T07:06:24.200Z","2026-07-09T07:06:30.690Z","2026-07-09T07:06:39.320Z","2026-07-09T07:06:45.110Z","2026-07-09T07:06:50.690Z","2026-07-09T07:06:56.260Z","2026-07-09T07:07:02.280Z","2026-07-09T07:07:10.560Z","2026-07-09T07:07:13.550Z","2026-07-09T07:07:17.770Z","2026-07-09T07:07:22.050Z","2026-07-09T07:07:26.210Z","2026-07-09T07:07:31.910Z","2026-07-09T07:07:39.300Z","2026-07-09T07:07:47.510Z","2026-07-09T07:07:47.850Z","2026-07-09T07:07:53.100Z","2026-07-09T07:07:56.020Z","2026-07-09T07:08:01.350Z","2026-07-09T07:08:07.820Z","2026-07-09T07:08:15.030Z","2026-07-09T07:08:21.410Z","2026-07-09T07:08:28.650Z","2026-07-09T07:08:35.780Z","2026-07-09T07:08:42.540Z","2026-07-09T07:08:49.710Z","2026-07-09T07:08:55.970Z","2026-07-09T07:09:01.330Z","2026-07-09T07:09:04.700Z","2026-07-09T07:09:12.290Z","2026-07-09T07:09:20.740Z","2026-07-09T07:09:28.590Z","2026-07-09T07:09:36.130Z","2026-07-09T07:09:43.100Z","2026-07-09T07:09:51.780Z","2026-07-09T07:09:59.550Z","2026-07-09T07:10:07.020Z","2026-07-09T07:10:09.470Z","2026-07-09T07:10:11.400Z","2026-07-09T07:10:13.190Z","2026-07-09T07:10:14.360Z","2026-07-09T07:10:16.280Z","2026-07-09T07:10:17.270Z","2026-07-09T07:10:19.240Z","2026-07-09T07:10:21.150Z","2026-07-09T07:10:22.700Z","2026-07-09T07:10:23.650Z","2026-07-09T07:10:23.650Z"]}}},{"type":"Feature","geometry":{"type":"LineString","coordinates":[[12.595107,41.798987,0],[12.595357,41.79863,0],[12.595591,41.798286,0],[12.595716,41.798103,0],[12.595934,41.797783,0],[12.596153,41.797462,0],[12.596352,41.797171,0],[12.596576,41.796857,0],[12.59673,41.796616,0],[12.596991,41.796252,0],[12.597167,41.795972,0],[12.597406,41.795623,0],[12.597635,41.795288,0],[12.597854,41.794968,0],[12.598093,41.794634,0],[12.598166,41.79451,0],[12.598244,41.794407,0],[12.598509,41.794018,0],[12.598779,41.793633,0],[12.599003,41.793296,0],[12.599258,41.792912,0],[12.599508,41.792576,0],[12.599727,41.792255,0],[12.599992,41.791878,0],[12.600185,41.791596,0],[12.600273,41.791466,0],[12.600344,41.791375,0],[12.600424,41.791236,0],[12.600504,41.791108,0],[12.600552,41.790968,0],[12.600538,41.790813,0],[12.600476,41.790722,0],[12.600429,41.790642,0],[12.600344,41.790561,0],[12.600226,41.790516,0],[12.600101,41.790447,0],[12.599753,41.790316,0],[12.599602,41.790264,0],[12.599446,41.790241,0],[12.599368,41.790241,0],[12.599274,41.790253,0],[12.599195,41.790281,0],[12.599102,41.79031,0],[12.599024,41.790344,0],[12.598971,41.790433,0],[12.598915,41.790504,0],[12.598806,41.790676,0],[12.598572,41.791026,0],[12.5983,41.79141,0],[12.598029,41.791806,0],[12.597741,41.79219,0],[12.597526,41.792519,0],[12.597292,41.79285,0],[12.597039,41.793226,0],[12.596815,41.79354,0],[12.596574,41.793903,0],[12.596293,41.794292,0],[12.596059,41.794647,0],[12.595825,41.794983,0],[12.595586,41.795344,0],[12.595314,41.79574,0],[12.595029,41.796135,0],[12.594787,41.796496,0],[12.594548,41.796845,0],[12.594308,41.797194,0],[12.594053,41.797555,0],[12.593797,41.797939,0],[12.593547,41.798286,0],[12.593302,41.798649,0],[12.593079,41.798975,0],[12.592839,41.799347,0],[12.592548,41.799728,0],[12.592312,41.800081,0],[12.592064,41.800449,0],[12.591817,41.800814,0],[12.591549,41.801205,0],[12.591393,41.801434,0],[12.591222,41.801674,0],[12.591146,41.801722,0],[12.591099,41.801757,0],[12.591003,41.801777,0],[12.590923,41.801791,0],[12.590831,41.801788,0],[12.590763,41.801768,0],[12.590675,41.801743,0],[12.590588,41.801687,0],[12.590472,41.801628,0],[12.590061,41.801384,0],[12.58963,41.801136,0],[12.589193,41.800884,0],[12.588756,41.800644,0],[12.588384,41.80043,0],[12.588303,41.800369,0],[12.588288,41.800312,0],[12.588288,41.800278,0],[12.588288,41.800232,0],[12.588303,41.800198,0],[12.58832,41.800174,0],[12.588368,41.800139,0],[12.588413,41.800095,0],[12.58848,41.800034,0],[12.588569,41.799946,0],[12.588623,41.799918,0],[12.588709,41.799889,0],[12.588834,41.79982,0],[12.588881,41.799797,0],[12.588881,41.799797,0]]},"properties":{"name":"SP-RNL","stroke-opacity":1,"stroke":"#e31a1c","stroke-width":4,"icon":"http://maps.google.com/mapfiles/kml/shapes/airports.png","coordinateProperties":{"times":["2026-07-09T07:10:24.600Z","2026-07-09T07:10:25.350Z","2026-07-09T07:10:26.400Z","2026-07-09T07:10:26.940Z","2026-07-09T07:10:28.080Z","2026-07-09T07:10:28.980Z","2026-07-09T07:10:29.850Z","2026-07-09T07:10:31.130Z","2026-07-09T07:10:32.090Z","2026-07-09T07:10:33.410Z","2026-07-09T07:10:34.440Z","2026-07-09T07:10:36.180Z","2026-07-09T07:10:37.370Z","2026-07-09T07:10:38.890Z","2026-07-09T07:10:40.490Z","2026-07-09T07:10:41.240Z","2026-07-09T07:10:41.810Z","2026-07-09T07:10:43.710Z","2026-07-09T07:10:45.810Z","2026-07-09T07:10:47.580Z","2026-07-09T07:10:49.740Z","2026-07-09T07:10:51.850Z","2026-07-09T07:10:53.550Z","2026-07-09T07:10:56.180Z","2026-07-09T07:10:58.470Z","2026-07-09T07:10:59.390Z","2026-07-09T07:11:00.530Z","2026-07-09T07:11:02.080Z","2026-07-09T07:11:03.790Z","2026-07-09T07:11:06.080Z","2026-07-09T07:11:08.160Z","2026-07-09T07:11:09.690Z","2026-07-09T07:11:10.830Z","2026-07-09T07:11:12.360Z","2026-07-09T07:11:13.690Z","2026-07-09T07:11:15.400Z","2026-07-09T07:11:19.450Z","2026-07-09T07:11:21.100Z","2026-07-09T07:11:22.610Z","2026-07-09T07:11:23.560Z","2026-07-09T07:11:24.520Z","2026-07-09T07:11:25.460Z","2026-07-09T07:11:26.380Z","2026-07-09T07:11:27.370Z","2026-07-09T07:11:28.560Z","2026-07-09T07:11:29.810Z","2026-07-09T07:11:32.470Z","2026-07-09T07:11:37.460Z","2026-07-09T07:11:42.790Z","2026-07-09T07:11:48.310Z","2026-07-09T07:11:53.100Z","2026-07-09T07:11:57.180Z","2026-07-09T07:12:00.910Z","2026-07-09T07:12:05.140Z","2026-07-09T07:12:08.230Z","2026-07-09T07:12:11.840Z","2026-07-09T07:12:15.820Z","2026-07-09T07:12:19.050Z","2026-07-09T07:12:22.170Z","2026-07-09T07:12:25.620Z","2026-07-09T07:12:29.240Z","2026-07-09T07:12:32.770Z","2026-07-09T07:12:36.000Z","2026-07-09T07:12:38.860Z","2026-07-09T07:12:42.010Z","2026-07-09T07:12:44.890Z","2026-07-09T07:12:47.960Z","2026-07-09T07:12:50.870Z","2026-07-09T07:12:53.900Z","2026-07-09T07:12:56.270Z","2026-07-09T07:12:59.480Z","2026-07-09T07:13:02.630Z","2026-07-09T07:13:05.740Z","2026-07-09T07:13:09.040Z","2026-07-09T07:13:12.940Z","2026-07-09T07:13:17.620Z","2026-07-09T07:13:21.060Z","2026-07-09T07:13:25.730Z","2026-07-09T07:13:26.900Z","2026-07-09T07:13:27.840Z","2026-07-09T07:13:28.830Z","2026-07-09T07:13:29.970Z","2026-07-09T07:13:31.130Z","2026-07-09T07:13:31.890Z","2026-07-09T07:13:32.850Z","2026-07-09T07:13:34.600Z","2026-07-09T07:13:36.130Z","2026-07-09T07:13:42.750Z","2026-07-09T07:13:49.370Z","2026-07-09T07:13:55.520Z","2026-07-09T07:14:01.250Z","2026-07-09T07:14:07.010Z","2026-07-09T07:14:08.940Z","2026-07-09T07:14:10.470Z","2026-07-09T07:14:11.430Z","2026-07-09T07:14:12.550Z","2026-07-09T07:14:13.560Z","2026-07-09T07:14:14.630Z","2026-07-09T07:14:15.960Z","2026-07-09T07:14:17.960Z","2026-07-09T07:14:21.000Z","2026-07-09T07:14:25.380Z","2026-07-09T07:14:27.750Z","2026-07-09T07:14:31.130Z","2026-07-09T07:14:37.210Z","2026-07-09T07:15:13.440Z","2026-07-09T07:15:13.440Z"]}}}]}