{"type":"FeatureCollection","features":[{"type":"Feature","properties":{"_gpxType":"trk","name":"Wednesday Afternoon Track","time":"2026-07-22T13:07:46Z","coordinateProperties":{"times":["2026-07-22T13:07:46Z","2026-07-22T13:07:46Z","2026-07-22T13:07:46Z","2026-07-22T13:07:47Z","2026-07-22T13:07:47Z","2026-07-22T13:07:47Z","2026-07-22T13:07:48Z","2026-07-22T13:07:48Z","2026-07-22T13:07:48Z","2026-07-22T13:07:49Z","2026-07-22T13:07:49Z","2026-07-22T13:07:49Z","2026-07-22T13:07:52Z","2026-07-22T13:07:52Z","2026-07-22T13:07:52Z","2026-07-22T13:07:52Z","2026-07-22T13:07:52Z","2026-07-22T13:07:52Z","2026-07-22T13:07:53Z","2026-07-22T13:07:53Z","2026-07-22T13:07:53Z","2026-07-22T13:07:54Z","2026-07-22T13:07:54Z","2026-07-22T13:07:54Z","2026-07-22T13:07:55Z","2026-07-22T13:07:55Z","2026-07-22T13:07:55Z","2026-07-22T13:07:56Z","2026-07-22T13:07:56Z","2026-07-22T13:07:56Z","2026-07-22T13:07:57Z","2026-07-22T13:07:57Z","2026-07-22T13:07:57Z","2026-07-22T13:07:58Z","2026-07-22T13:07:58Z","2026-07-22T13:07:58Z","2026-07-22T13:08:00Z","2026-07-22T13:08:00Z","2026-07-22T13:08:00Z","2026-07-22T13:08:02Z","2026-07-22T13:08:02Z","2026-07-22T13:08:02Z","2026-07-22T13:08:04Z","2026-07-22T13:08:04Z","2026-07-22T13:08:04Z","2026-07-22T13:08:07Z","2026-07-22T13:08:07Z","2026-07-22T13:08:07Z","2026-07-22T13:08:09Z","2026-07-22T13:08:09Z","2026-07-22T13:08:09Z","2026-07-22T13:08:11Z","2026-07-22T13:08:11Z","2026-07-22T13:08:11Z","2026-07-22T13:08:13Z","2026-07-22T13:08:13Z","2026-07-22T13:08:13Z","2026-07-22T13:08:15Z","2026-07-22T13:08:15Z","2026-07-22T13:08:15Z","2026-07-22T13:08:17Z","2026-07-22T13:08:17Z","2026-07-22T13:08:17Z","2026-07-22T13:08:20Z","2026-07-22T13:08:20Z","2026-07-22T13:08:20Z","2026-07-22T13:08:22Z","2026-07-22T13:08:22Z","2026-07-22T13:08:22Z","2026-07-22T13:08:24Z","2026-07-22T13:08:24Z","2026-07-22T13:08:24Z","2026-07-22T13:08:26Z","2026-07-22T13:08:26Z","2026-07-22T13:08:26Z","2026-07-22T13:08:28Z","2026-07-22T13:08:28Z","2026-07-22T13:08:28Z","2026-07-22T13:08:30Z","2026-07-22T13:08:30Z","2026-07-22T13:08:30Z","2026-07-22T13:08:33Z","2026-07-22T13:08:33Z","2026-07-22T13:08:33Z","2026-07-22T13:08:35Z","2026-07-22T13:08:35Z","2026-07-22T13:08:35Z","2026-07-22T13:08:37Z","2026-07-22T13:08:37Z","2026-07-22T13:08:37Z","2026-07-22T13:08:39Z","2026-07-22T13:08:39Z","2026-07-22T13:08:39Z","2026-07-22T13:08:41Z","2026-07-22T13:08:41Z","2026-07-22T13:08:41Z","2026-07-22T13:08:43Z","2026-07-22T13:08:43Z","2026-07-22T13:08:43Z","2026-07-22T13:08:44Z","2026-07-22T13:08:44Z","2026-07-22T13:08:44Z","2026-07-22T13:08:46Z","2026-07-22T13:08:46Z","2026-07-22T13:08:46Z","2026-07-22T13:08:50Z","2026-07-22T13:08:50Z","2026-07-22T13:08:50Z","2026-07-22T13:08:53Z","2026-07-22T13:08:53Z","2026-07-22T13:08:53Z","2026-07-22T13:08:55Z","2026-07-22T13:08:55Z","2026-07-22T13:08:55Z","2026-07-22T13:08:57Z","2026-07-22T13:08:57Z","2026-07-22T13:08:57Z","2026-07-22T13:08:59Z","2026-07-22T13:08:59Z","2026-07-22T13:08:59Z","2026-07-22T13:09:01Z","2026-07-22T13:09:01Z","2026-07-22T13:09:01Z","2026-07-22T13:09:03Z","2026-07-22T13:09:03Z","2026-07-22T13:09:03Z","2026-07-22T13:09:05Z","2026-07-22T13:09:05Z","2026-07-22T13:09:05Z","2026-07-22T13:09:07Z","2026-07-22T13:09:07Z","2026-07-22T13:09:07Z","2026-07-22T13:09:09Z","2026-07-22T13:09:09Z","2026-07-22T13:09:09Z","2026-07-22T13:09:11Z","2026-07-22T13:09:11Z","2026-07-22T13:09:11Z","2026-07-22T13:09:13Z","2026-07-22T13:09:13Z","2026-07-22T13:09:13Z","2026-07-22T13:09:15Z","2026-07-22T13:09:15Z","2026-07-22T13:09:15Z","2026-07-22T13:09:17Z","2026-07-22T13:09:17Z","2026-07-22T13:09:17Z","2026-07-22T13:09:20Z","2026-07-22T13:09:20Z","2026-07-22T13:09:20Z","2026-07-22T13:09:22Z","2026-07-22T13:09:22Z","2026-07-22T13:09:22Z","2026-07-22T13:09:24Z","2026-07-22T13:09:24Z","2026-07-22T13:09:24Z","2026-07-22T13:09:27Z","2026-07-22T13:09:27Z","2026-07-22T13:09:27Z","2026-07-22T13:09:29Z","2026-07-22T13:09:29Z","2026-07-22T13:09:29Z","2026-07-22T13:09:31Z","2026-07-22T13:09:31Z","2026-07-22T13:09:31Z","2026-07-22T13:09:33Z","2026-07-22T13:09:33Z","2026-07-22T13:09:33Z","2026-07-22T13:09:35Z","2026-07-22T13:09:35Z","2026-07-22T13:09:35Z","2026-07-22T13:09:37Z","2026-07-22T13:09:37Z","2026-07-22T13:09:37Z","2026-07-22T13:09:39Z","2026-07-22T13:09:39Z","2026-07-22T13:09:39Z","2026-07-22T13:09:41Z","2026-07-22T13:09:41Z","2026-07-22T13:09:41Z","2026-07-22T13:09:43Z","2026-07-22T13:09:43Z","2026-07-22T13:09:43Z","2026-07-22T13:09:45Z","2026-07-22T13:09:45Z","2026-07-22T13:09:45Z","2026-07-22T13:09:47Z","2026-07-22T13:09:47Z","2026-07-22T13:09:47Z","2026-07-22T13:09:49Z","2026-07-22T13:09:49Z","2026-07-22T13:09:49Z","2026-07-22T13:09:51Z","2026-07-22T13:09:51Z","2026-07-22T13:09:51Z","2026-07-22T13:09:53Z","2026-07-22T13:09:53Z","2026-07-22T13:09:53Z","2026-07-22T13:09:54Z","2026-07-22T13:09:54Z","2026-07-22T13:09:54Z","2026-07-22T13:09:55Z","2026-07-22T13:09:55Z","2026-07-22T13:09:55Z","2026-07-22T13:09:56Z","2026-07-22T13:09:56Z","2026-07-22T13:09:56Z","2026-07-22T13:09:57Z","2026-07-22T13:09:57Z","2026-07-22T13:09:57Z","2026-07-22T13:09:58Z","2026-07-22T13:09:58Z","2026-07-22T13:09:58Z","2026-07-22T13:09:59Z","2026-07-22T13:09:59Z","2026-07-22T13:09:59Z","2026-07-22T13:10:01Z","2026-07-22T13:10:01Z","2026-07-22T13:10:01Z","2026-07-22T13:10:04Z","2026-07-22T13:10:04Z","2026-07-22T13:10:04Z","2026-07-22T13:10:08Z","2026-07-22T13:10:08Z","2026-07-22T13:10:08Z","2026-07-22T13:10:18Z","2026-07-22T13:10:18Z","2026-07-22T13:10:18Z","2026-07-22T13:10:20Z","2026-07-22T13:10:20Z","2026-07-22T13:10:20Z","2026-07-22T13:10:24Z","2026-07-22T13:10:24Z","2026-07-22T13:10:24Z","2026-07-22T13:10:26Z","2026-07-22T13:10:26Z","2026-07-22T13:10:26Z","2026-07-22T13:10:28Z","2026-07-22T13:10:28Z","2026-07-22T13:10:28Z","2026-07-22T13:10:30Z","2026-07-22T13:10:30Z","2026-07-22T13:10:30Z","2026-07-22T13:10:32Z","2026-07-22T13:10:32Z","2026-07-22T13:10:32Z","2026-07-22T13:10:34Z","2026-07-22T13:10:34Z","2026-07-22T13:10:34Z","2026-07-22T13:10:36Z","2026-07-22T13:10:36Z","2026-07-22T13:10:36Z","2026-07-22T13:10:38Z","2026-07-22T13:10:38Z","2026-07-22T13:10:38Z","2026-07-22T13:10:42Z","2026-07-22T13:10:42Z","2026-07-22T13:10:42Z","2026-07-22T13:10:47Z","2026-07-22T13:10:47Z","2026-07-22T13:10:47Z","2026-07-22T13:10:49Z","2026-07-22T13:10:49Z","2026-07-22T13:10:49Z","2026-07-22T13:10:51Z","2026-07-22T13:10:51Z","2026-07-22T13:10:51Z","2026-07-22T13:10:53Z","2026-07-22T13:10:53Z","2026-07-22T13:10:53Z","2026-07-22T13:10:54Z","2026-07-22T13:10:54Z","2026-07-22T13:10:54Z","2026-07-22T13:10:55Z","2026-07-22T13:10:55Z","2026-07-22T13:10:55Z","2026-07-22T13:10:56Z","2026-07-22T13:10:56Z","2026-07-22T13:10:56Z","2026-07-22T13:10:57Z","2026-07-22T13:10:57Z","2026-07-22T13:10:57Z","2026-07-22T13:10:58Z","2026-07-22T13:10:58Z","2026-07-22T13:10:58Z","2026-07-22T13:10:59Z","2026-07-22T13:10:59Z","2026-07-22T13:10:59Z","2026-07-22T13:11:01Z","2026-07-22T13:11:01Z","2026-07-22T13:11:01Z","2026-07-22T13:11:03Z","2026-07-22T13:11:03Z","2026-07-22T13:11:03Z","2026-07-22T13:11:05Z","2026-07-22T13:11:05Z","2026-07-22T13:11:05Z","2026-07-22T13:11:07Z","2026-07-22T13:11:07Z","2026-07-22T13:11:07Z","2026-07-22T13:11:10Z","2026-07-22T13:11:10Z","2026-07-22T13:11:10Z","2026-07-22T13:11:12Z","2026-07-22T13:11:12Z","2026-07-22T13:11:12Z","2026-07-22T13:11:13Z","2026-07-22T13:11:13Z","2026-07-22T13:11:13Z","2026-07-22T13:11:15Z","2026-07-22T13:11:15Z","2026-07-22T13:11:15Z","2026-07-22T13:11:16Z","2026-07-22T13:11:16Z","2026-07-22T13:11:16Z","2026-07-22T13:11:18Z","2026-07-22T13:11:18Z","2026-07-22T13:11:18Z","2026-07-22T13:11:20Z","2026-07-22T13:11:20Z","2026-07-22T13:11:20Z","2026-07-22T13:11:23Z","2026-07-22T13:11:23Z","2026-07-22T13:11:23Z","2026-07-22T13:11:25Z","2026-07-22T13:11:25Z","2026-07-22T13:11:25Z","2026-07-22T13:11:27Z","2026-07-22T13:11:27Z","2026-07-22T13:11:27Z","2026-07-22T13:11:29Z","2026-07-22T13:11:29Z","2026-07-22T13:11:29Z","2026-07-22T13:11:30Z","2026-07-22T13:11:30Z","2026-07-22T13:11:30Z","2026-07-22T13:11:31Z","2026-07-22T13:11:31Z","2026-07-22T13:11:31Z","2026-07-22T13:11:32Z","2026-07-22T13:11:32Z","2026-07-22T13:11:32Z","2026-07-22T13:11:33Z","2026-07-22T13:11:33Z","2026-07-22T13:11:33Z","2026-07-22T13:11:35Z","2026-07-22T13:11:35Z","2026-07-22T13:11:35Z","2026-07-22T13:11:37Z","2026-07-22T13:11:37Z","2026-07-22T13:11:37Z","2026-07-22T13:11:39Z","2026-07-22T13:11:39Z","2026-07-22T13:11:39Z","2026-07-22T13:11:41Z","2026-07-22T13:11:41Z","2026-07-22T13:11:41Z","2026-07-22T13:11:43Z","2026-07-22T13:11:43Z","2026-07-22T13:11:43Z","2026-07-22T13:11:45Z","2026-07-22T13:11:45Z","2026-07-22T13:11:45Z","2026-07-22T13:11:47Z","2026-07-22T13:11:47Z","2026-07-22T13:11:47Z","2026-07-22T13:11:49Z","2026-07-22T13:11:49Z","2026-07-22T13:11:49Z","2026-07-22T13:11:51Z","2026-07-22T13:11:51Z","2026-07-22T13:11:51Z","2026-07-22T13:11:52Z","2026-07-22T13:11:52Z","2026-07-22T13:11:52Z","2026-07-22T13:11:53Z","2026-07-22T13:11:53Z","2026-07-22T13:11:53Z","2026-07-22T13:11:54Z","2026-07-22T13:11:54Z","2026-07-22T13:11:54Z","2026-07-22T13:11:55Z","2026-07-22T13:11:55Z","2026-07-22T13:11:55Z","2026-07-22T13:11:56Z","2026-07-22T13:11:56Z","2026-07-22T13:11:56Z","2026-07-22T13:11:58Z","2026-07-22T13:11:58Z","2026-07-22T13:11:58Z","2026-07-22T13:12:01Z","2026-07-22T13:12:01Z","2026-07-22T13:12:01Z","2026-07-22T13:12:11Z","2026-07-22T13:12:11Z","2026-07-22T13:12:11Z","2026-07-22T13:12:38Z","2026-07-22T13:12:38Z","2026-07-22T13:12:38Z","2026-07-22T13:12:40Z","2026-07-22T13:12:40Z","2026-07-22T13:12:40Z","2026-07-22T13:12:42Z","2026-07-22T13:12:42Z","2026-07-22T13:12:42Z","2026-07-22T13:12:58Z","2026-07-22T13:12:58Z","2026-07-22T13:12:58Z","2026-07-22T13:13:00Z","2026-07-22T13:13:00Z","2026-07-22T13:13:00Z","2026-07-22T13:13:02Z","2026-07-22T13:13:02Z","2026-07-22T13:13:02Z","2026-07-22T13:13:04Z","2026-07-22T13:13:04Z","2026-07-22T13:13:04Z","2026-07-22T13:13:06Z","2026-07-22T13:13:06Z","2026-07-22T13:13:06Z","2026-07-22T13:13:08Z","2026-07-22T13:13:08Z","2026-07-22T13:13:08Z","2026-07-22T13:13:10Z","2026-07-22T13:13:10Z","2026-07-22T13:13:10Z","2026-07-22T13:13:12Z","2026-07-22T13:13:12Z","2026-07-22T13:13:12Z","2026-07-22T13:13:14Z","2026-07-22T13:13:14Z","2026-07-22T13:13:14Z","2026-07-22T13:13:17Z","2026-07-22T13:13:17Z","2026-07-22T13:13:17Z","2026-07-22T13:13:21Z","2026-07-22T13:13:21Z","2026-07-22T13:13:21Z","2026-07-22T13:13:23Z","2026-07-22T13:13:23Z","2026-07-22T13:13:23Z","2026-07-22T13:13:25Z","2026-07-22T13:13:25Z","2026-07-22T13:13:25Z","2026-07-22T13:13:26Z","2026-07-22T13:13:26Z","2026-07-22T13:13:26Z","2026-07-22T13:13:27Z","2026-07-22T13:13:27Z","2026-07-22T13:13:27Z","2026-07-22T13:13:28Z","2026-07-22T13:13:28Z","2026-07-22T13:13:28Z","2026-07-22T13:13:29Z","2026-07-22T13:13:29Z","2026-07-22T13:13:29Z","2026-07-22T13:13:29Z","2026-07-22T13:13:29Z","2026-07-22T13:13:29Z","2026-07-22T13:13:30Z","2026-07-22T13:13:30Z","2026-07-22T13:13:30Z","2026-07-22T13:13:31Z","2026-07-22T13:13:31Z","2026-07-22T13:13:31Z","2026-07-22T13:13:32Z","2026-07-22T13:13:32Z","2026-07-22T13:13:32Z","2026-07-22T13:13:33Z","2026-07-22T13:13:33Z","2026-07-22T13:13:33Z","2026-07-22T13:13:34Z","2026-07-22T13:13:34Z","2026-07-22T13:13:34Z","2026-07-22T13:13:35Z","2026-07-22T13:13:35Z","2026-07-22T13:13:35Z","2026-07-22T13:13:36Z","2026-07-22T13:13:36Z","2026-07-22T13:13:36Z","2026-07-22T13:13:37Z","2026-07-22T13:13:37Z","2026-07-22T13:13:37Z","2026-07-22T13:13:38Z","2026-07-22T13:13:38Z","2026-07-22T13:13:38Z","2026-07-22T13:13:39Z","2026-07-22T13:13:39Z","2026-07-22T13:13:39Z","2026-07-22T13:13:40Z","2026-07-22T13:13:40Z","2026-07-22T13:13:40Z","2026-07-22T13:13:41Z","2026-07-22T13:13:41Z","2026-07-22T13:13:41Z","2026-07-22T13:13:42Z","2026-07-22T13:13:42Z","2026-07-22T13:13:42Z","2026-07-22T13:13:43Z","2026-07-22T13:13:43Z","2026-07-22T13:13:43Z","2026-07-22T13:13:44Z","2026-07-22T13:13:44Z","2026-07-22T13:13:44Z","2026-07-22T13:13:45Z","2026-07-22T13:13:45Z","2026-07-22T13:13:45Z","2026-07-22T13:13:46Z","2026-07-22T13:13:46Z","2026-07-22T13:13:46Z","2026-07-22T13:13:47Z","2026-07-22T13:13:47Z","2026-07-22T13:13:47Z","2026-07-22T13:13:48Z","2026-07-22T13:13:48Z","2026-07-22T13:13:48Z","2026-07-22T13:13:49Z","2026-07-22T13:13:49Z","2026-07-22T13:13:49Z","2026-07-22T13:13:50Z","2026-07-22T13:13:50Z","2026-07-22T13:13:50Z","2026-07-22T13:13:51Z","2026-07-22T13:13:51Z","2026-07-22T13:13:51Z","2026-07-22T13:13:52Z","2026-07-22T13:13:52Z","2026-07-22T13:13:52Z","2026-07-22T13:13:53Z","2026-07-22T13:13:53Z","2026-07-22T13:13:53Z","2026-07-22T13:13:54Z","2026-07-22T13:13:54Z","2026-07-22T13:13:54Z","2026-07-22T13:13:55Z","2026-07-22T13:13:55Z","2026-07-22T13:13:55Z","2026-07-22T13:13:56Z","2026-07-22T13:13:56Z","2026-07-22T13:13:56Z","2026-07-22T13:13:57Z","2026-07-22T13:13:57Z","2026-07-22T13:13:57Z","2026-07-22T13:13:58Z","2026-07-22T13:13:58Z","2026-07-22T13:13:58Z","2026-07-22T13:13:59Z","2026-07-22T13:13:59Z","2026-07-22T13:13:59Z","2026-07-22T13:14:00Z","2026-07-22T13:14:00Z","2026-07-22T13:14:00Z","2026-07-22T13:14:01Z","2026-07-22T13:14:01Z","2026-07-22T13:14:01Z","2026-07-22T13:14:02Z","2026-07-22T13:14:02Z","2026-07-22T13:14:02Z","2026-07-22T13:14:03Z","2026-07-22T13:14:03Z","2026-07-22T13:14:03Z","2026-07-22T13:14:04Z","2026-07-22T13:14:04Z","2026-07-22T13:14:04Z","2026-07-22T13:14:05Z","2026-07-22T13:14:05Z","2026-07-22T13:14:05Z","2026-07-22T13:14:06Z","2026-07-22T13:14:06Z","2026-07-22T13:14:06Z","2026-07-22T13:14:07Z","2026-07-22T13:14:07Z","2026-07-22T13:14:07Z","2026-07-22T13:14:08Z","2026-07-22T13:14:08Z","2026-07-22T13:14:08Z","2026-07-22T13:14:09Z","2026-07-22T13:14:09Z","2026-07-22T13:14:09Z","2026-07-22T13:14:11Z","2026-07-22T13:14:11Z","2026-07-22T13:14:11Z","2026-07-22T13:14:12Z","2026-07-22T13:14:12Z","2026-07-22T13:14:12Z","2026-07-22T13:14:13Z","2026-07-22T13:14:13Z","2026-07-22T13:14:13Z","2026-07-22T13:14:14Z","2026-07-22T13:14:14Z","2026-07-22T13:14:14Z","2026-07-22T13:14:15Z","2026-07-22T13:14:15Z","2026-07-22T13:14:15Z","2026-07-22T13:14:16Z","2026-07-22T13:14:16Z","2026-07-22T13:14:16Z","2026-07-22T13:14:17Z","2026-07-22T13:14:17Z","2026-07-22T13:14:17Z","2026-07-22T13:14:18Z","2026-07-22T13:14:18Z","2026-07-22T13:14:18Z","2026-07-22T13:14:19Z","2026-07-22T13:14:19Z","2026-07-22T13:14:19Z","2026-07-22T13:14:20Z","2026-07-22T13:14:20Z","2026-07-22T13:14:20Z","2026-07-22T13:14:21Z","2026-07-22T13:14:21Z","2026-07-22T13:14:21Z","2026-07-22T13:14:22Z","2026-07-22T13:14:22Z","2026-07-22T13:14:22Z","2026-07-22T13:14:23Z","2026-07-22T13:14:23Z","2026-07-22T13:14:23Z","2026-07-22T13:14:24Z","2026-07-22T13:14:24Z","2026-07-22T13:14:24Z","2026-07-22T13:14:25Z","2026-07-22T13:14:25Z","2026-07-22T13:14:25Z","2026-07-22T13:14:26Z","2026-07-22T13:14:26Z","2026-07-22T13:14:26Z","2026-07-22T13:14:27Z","2026-07-22T13:14:27Z","2026-07-22T13:14:27Z","2026-07-22T13:14:28Z","2026-07-22T13:14:28Z","2026-07-22T13:14:28Z","2026-07-22T13:14:29Z","2026-07-22T13:14:29Z","2026-07-22T13:14:29Z","2026-07-22T13:14:30Z","2026-07-22T13:14:30Z","2026-07-22T13:14:30Z","2026-07-22T13:14:31Z","2026-07-22T13:14:31Z","2026-07-22T13:14:31Z","2026-07-22T13:14:32Z","2026-07-22T13:14:32Z","2026-07-22T13:14:32Z","2026-07-22T13:14:33Z","2026-07-22T13:14:33Z","2026-07-22T13:14:33Z","2026-07-22T13:14:34Z","2026-07-22T13:14:34Z","2026-07-22T13:14:34Z","2026-07-22T13:14:35Z","2026-07-22T13:14:35Z","2026-07-22T13:14:35Z","2026-07-22T13:14:36Z","2026-07-22T13:14:36Z","2026-07-22T13:14:36Z","2026-07-22T13:14:37Z","2026-07-22T13:14:37Z","2026-07-22T13:14:37Z","2026-07-22T13:14:39Z","2026-07-22T13:14:39Z","2026-07-22T13:14:39Z","2026-07-22T13:14:41Z","2026-07-22T13:14:41Z","2026-07-22T13:14:41Z","2026-07-22T13:14:44Z","2026-07-22T13:14:44Z","2026-07-22T13:14:44Z","2026-07-22T13:14:46Z","2026-07-22T13:14:46Z","2026-07-22T13:14:46Z","2026-07-22T13:14:49Z","2026-07-22T13:14:49Z","2026-07-22T13:14:49Z","2026-07-22T13:15:07Z","2026-07-22T13:15:07Z","2026-07-22T13:15:07Z","2026-07-22T13:15:10Z","2026-07-22T13:15:10Z","2026-07-22T13:15:10Z","2026-07-22T13:15:11Z","2026-07-22T13:15:11Z","2026-07-22T13:15:11Z","2026-07-22T13:15:13Z","2026-07-22T13:15:13Z","2026-07-22T13:15:13Z","2026-07-22T13:15:15Z","2026-07-22T13:15:15Z","2026-07-22T13:15:15Z","2026-07-22T13:15:16Z","2026-07-22T13:15:16Z","2026-07-22T13:15:16Z","2026-07-22T13:15:17Z","2026-07-22T13:15:17Z","2026-07-22T13:15:17Z","2026-07-22T13:15:18Z","2026-07-22T13:15:18Z","2026-07-22T13:15:18Z","2026-07-22T13:15:20Z","2026-07-22T13:15:20Z","2026-07-22T13:15:20Z","2026-07-22T13:15:21Z","2026-07-22T13:15:21Z","2026-07-22T13:15:21Z","2026-07-22T13:15:22Z","2026-07-22T13:15:22Z","2026-07-22T13:15:22Z","2026-07-22T13:15:23Z","2026-07-22T13:15:23Z","2026-07-22T13:15:23Z","2026-07-22T13:15:24Z","2026-07-22T13:15:24Z","2026-07-22T13:15:24Z","2026-07-22T13:15:25Z","2026-07-22T13:15:25Z","2026-07-22T13:15:25Z","2026-07-22T13:15:26Z","2026-07-22T13:15:26Z","2026-07-22T13:15:26Z","2026-07-22T13:15:27Z","2026-07-22T13:15:27Z","2026-07-22T13:15:27Z","2026-07-22T13:15:28Z","2026-07-22T13:15:28Z","2026-07-22T13:15:28Z","2026-07-22T13:15:29Z","2026-07-22T13:15:29Z","2026-07-22T13:15:29Z","2026-07-22T13:15:31Z","2026-07-22T13:15:31Z","2026-07-22T13:15:31Z","2026-07-22T13:15:33Z","2026-07-22T13:15:33Z","2026-07-22T13:15:33Z","2026-07-22T13:15:35Z","2026-07-22T13:15:35Z","2026-07-22T13:15:35Z","2026-07-22T13:15:37Z","2026-07-22T13:15:37Z","2026-07-22T13:15:37Z","2026-07-22T13:15:39Z","2026-07-22T13:15:39Z","2026-07-22T13:15:39Z","2026-07-22T13:15:40Z","2026-07-22T13:15:40Z","2026-07-22T13:15:40Z","2026-07-22T13:15:41Z","2026-07-22T13:15:41Z","2026-07-22T13:15:41Z","2026-07-22T13:15:42Z","2026-07-22T13:15:42Z","2026-07-22T13:15:42Z","2026-07-22T13:15:42Z","2026-07-22T13:15:42Z","2026-07-22T13:15:42Z","2026-07-22T13:15:43Z","2026-07-22T13:15:43Z","2026-07-22T13:15:43Z","2026-07-22T13:15:44Z","2026-07-22T13:15:44Z","2026-07-22T13:15:44Z","2026-07-22T13:15:45Z","2026-07-22T13:15:45Z","2026-07-22T13:15:45Z","2026-07-22T13:15:46Z","2026-07-22T13:15:46Z","2026-07-22T13:15:46Z","2026-07-22T13:15:47Z","2026-07-22T13:15:47Z","2026-07-22T13:15:47Z","2026-07-22T13:15:48Z","2026-07-22T13:15:48Z","2026-07-22T13:15:48Z","2026-07-22T13:15:49Z","2026-07-22T13:15:49Z","2026-07-22T13:15:49Z","2026-07-22T13:15:50Z","2026-07-22T13:15:50Z","2026-07-22T13:15:50Z","2026-07-22T13:15:51Z","2026-07-22T13:15:51Z","2026-07-22T13:15:51Z","2026-07-22T13:15:52Z","2026-07-22T13:15:52Z","2026-07-22T13:15:52Z","2026-07-22T13:15:53Z","2026-07-22T13:15:53Z","2026-07-22T13:15:53Z","2026-07-22T13:15:54Z","2026-07-22T13:15:54Z","2026-07-22T13:15:54Z","2026-07-22T13:15:55Z","2026-07-22T13:15:55Z","2026-07-22T13:15:55Z","2026-07-22T13:15:56Z","2026-07-22T13:15:56Z","2026-07-22T13:15:56Z","2026-07-22T13:15:57Z","2026-07-22T13:15:57Z","2026-07-22T13:15:57Z","2026-07-22T13:15:58Z","2026-07-22T13:15:58Z","2026-07-22T13:15:58Z","2026-07-22T13:15:59Z","2026-07-22T13:15:59Z","2026-07-22T13:15:59Z","2026-07-22T13:16:00Z","2026-07-22T13:16:00Z","2026-07-22T13:16:00Z","2026-07-22T13:16:01Z","2026-07-22T13:16:01Z","2026-07-22T13:16:01Z","2026-07-22T13:16:02Z","2026-07-22T13:16:02Z","2026-07-22T13:16:02Z","2026-07-22T13:16:03Z","2026-07-22T13:16:03Z","2026-07-22T13:16:03Z","2026-07-22T13:16:04Z","2026-07-22T13:16:04Z","2026-07-22T13:16:04Z","2026-07-22T13:16:05Z","2026-07-22T13:16:05Z","2026-07-22T13:16:05Z","2026-07-22T13:16:06Z","2026-07-22T13:16:06Z","2026-07-22T13:16:06Z","2026-07-22T13:16:07Z","2026-07-22T13:16:07Z","2026-07-22T13:16:07Z","2026-07-22T13:16:08Z","2026-07-22T13:16:08Z","2026-07-22T13:16:08Z","2026-07-22T13:16:09Z","2026-07-22T13:16:09Z","2026-07-22T13:16:09Z","2026-07-22T13:16:10Z","2026-07-22T13:16:10Z","2026-07-22T13:16:10Z","2026-07-22T13:16:11Z","2026-07-22T13:16:11Z","2026-07-22T13:16:11Z","2026-07-22T13:16:12Z","2026-07-22T13:16:12Z","2026-07-22T13:16:12Z","2026-07-22T13:16:13Z","2026-07-22T13:16:13Z","2026-07-22T13:16:13Z","2026-07-22T13:16:14Z","2026-07-22T13:16:14Z","2026-07-22T13:16:14Z","2026-07-22T13:16:15Z","2026-07-22T13:16:15Z","2026-07-22T13:16:15Z","2026-07-22T13:16:17Z","2026-07-22T13:16:17Z","2026-07-22T13:16:17Z","2026-07-22T13:16:18Z","2026-07-22T13:16:18Z","2026-07-22T13:16:18Z","2026-07-22T13:16:19Z","2026-07-22T13:16:19Z","2026-07-22T13:16:19Z","2026-07-22T13:16:20Z","2026-07-22T13:16:20Z","2026-07-22T13:16:20Z","2026-07-22T13:16:21Z","2026-07-22T13:16:21Z","2026-07-22T13:16:21Z","2026-07-22T13:16:22Z","2026-07-22T13:16:22Z","2026-07-22T13:16:22Z","2026-07-22T13:16:23Z","2026-07-22T13:16:23Z","2026-07-22T13:16:23Z","2026-07-22T13:16:24Z","2026-07-22T13:16:24Z","2026-07-22T13:16:24Z","2026-07-22T13:16:25Z","2026-07-22T13:16:25Z","2026-07-22T13:16:25Z","2026-07-22T13:16:26Z","2026-07-22T13:16:26Z","2026-07-22T13:16:26Z","2026-07-22T13:16:27Z","2026-07-22T13:16:27Z","2026-07-22T13:16:27Z","2026-07-22T13:16:29Z","2026-07-22T13:16:29Z","2026-07-22T13:16:29Z","2026-07-22T13:16:32Z","2026-07-22T13:16:32Z","2026-07-22T13:16:32Z","2026-07-22T13:16:36Z","2026-07-22T13:16:36Z","2026-07-22T13:16:36Z","2026-07-22T13:16:43Z","2026-07-22T13:16:43Z","2026-07-22T13:16:43Z","2026-07-22T13:16:45Z","2026-07-22T13:16:45Z","2026-07-22T13:16:45Z","2026-07-22T13:16:47Z","2026-07-22T13:16:47Z","2026-07-22T13:16:47Z","2026-07-22T13:16:48Z","2026-07-22T13:16:48Z","2026-07-22T13:16:48Z","2026-07-22T13:16:49Z","2026-07-22T13:16:49Z","2026-07-22T13:16:49Z","2026-07-22T13:16:50Z","2026-07-22T13:16:50Z","2026-07-22T13:16:50Z","2026-07-22T13:16:51Z","2026-07-22T13:16:51Z","2026-07-22T13:16:51Z","2026-07-22T13:16:52Z","2026-07-22T13:16:52Z","2026-07-22T13:16:52Z","2026-07-22T13:16:53Z","2026-07-22T13:16:53Z","2026-07-22T13:16:53Z","2026-07-22T13:16:54Z","2026-07-22T13:16:54Z","2026-07-22T13:16:54Z","2026-07-22T13:16:55Z","2026-07-22T13:16:55Z","2026-07-22T13:16:55Z","2026-07-22T13:16:56Z","2026-07-22T13:16:56Z","2026-07-22T13:16:56Z","2026-07-22T13:16:57Z","2026-07-22T13:16:57Z","2026-07-22T13:16:57Z","2026-07-22T13:16:58Z","2026-07-22T13:16:58Z","2026-07-22T13:16:58Z","2026-07-22T13:16:59Z","2026-07-22T13:16:59Z","2026-07-22T13:16:59Z","2026-07-22T13:17:00Z","2026-07-22T13:17:00Z","2026-07-22T13:17:00Z","2026-07-22T13:17:01Z","2026-07-22T13:17:01Z","2026-07-22T13:17:01Z","2026-07-22T13:17:03Z","2026-07-22T13:17:03Z","2026-07-22T13:17:03Z","2026-07-22T13:17:05Z","2026-07-22T13:17:05Z","2026-07-22T13:17:05Z","2026-07-22T13:17:07Z","2026-07-22T13:17:07Z","2026-07-22T13:17:07Z","2026-07-22T13:17:09Z","2026-07-22T13:17:09Z","2026-07-22T13:17:09Z","2026-07-22T13:17:11Z","2026-07-22T13:17:11Z","2026-07-22T13:17:11Z","2026-07-22T13:17:12Z","2026-07-22T13:17:12Z","2026-07-22T13:17:12Z","2026-07-22T13:17:13Z","2026-07-22T13:17:13Z","2026-07-22T13:17:13Z","2026-07-22T13:17:14Z","2026-07-22T13:17:14Z","2026-07-22T13:17:14Z","2026-07-22T13:17:16Z","2026-07-22T13:17:16Z","2026-07-22T13:17:16Z","2026-07-22T13:17:18Z","2026-07-22T13:17:18Z","2026-07-22T13:17:18Z","2026-07-22T13:17:20Z","2026-07-22T13:17:20Z","2026-07-22T13:17:20Z","2026-07-22T13:17:22Z","2026-07-22T13:17:22Z","2026-07-22T13:17:22Z","2026-07-22T13:17:24Z","2026-07-22T13:17:24Z","2026-07-22T13:17:24Z","2026-07-22T13:17:30Z","2026-07-22T13:17:30Z","2026-07-22T13:17:30Z","2026-07-22T13:17:33Z","2026-07-22T13:17:33Z","2026-07-22T13:17:33Z","2026-07-22T13:17:34Z","2026-07-22T13:17:34Z","2026-07-22T13:17:34Z","2026-07-22T13:17:36Z","2026-07-22T13:17:36Z","2026-07-22T13:17:36Z","2026-07-22T13:17:37Z","2026-07-22T13:17:37Z","2026-07-22T13:17:37Z","2026-07-22T13:17:38Z","2026-07-22T13:17:38Z","2026-07-22T13:17:38Z","2026-07-22T13:17:39Z","2026-07-22T13:17:39Z","2026-07-22T13:17:39Z","2026-07-22T13:17:40Z","2026-07-22T13:17:40Z","2026-07-22T13:17:40Z","2026-07-22T13:17:41Z","2026-07-22T13:17:41Z","2026-07-22T13:17:41Z","2026-07-22T13:17:42Z","2026-07-22T13:17:42Z","2026-07-22T13:17:42Z","2026-07-22T13:17:43Z","2026-07-22T13:17:43Z","2026-07-22T13:17:43Z","2026-07-22T13:17:44Z","2026-07-22T13:17:44Z","2026-07-22T13:17:44Z","2026-07-22T13:17:45Z","2026-07-22T13:17:45Z","2026-07-22T13:17:45Z","2026-07-22T13:17:46Z","2026-07-22T13:17:46Z","2026-07-22T13:17:46Z","2026-07-22T13:17:47Z","2026-07-22T13:17:47Z","2026-07-22T13:17:47Z","2026-07-22T13:17:48Z","2026-07-22T13:17:48Z","2026-07-22T13:17:48Z","2026-07-22T13:17:49Z","2026-07-22T13:17:49Z","2026-07-22T13:17:49Z","2026-07-22T13:17:50Z","2026-07-22T13:17:50Z","2026-07-22T13:17:50Z","2026-07-22T13:17:51Z","2026-07-22T13:17:51Z","2026-07-22T13:17:51Z","2026-07-22T13:17:52Z","2026-07-22T13:17:52Z","2026-07-22T13:17:52Z","2026-07-22T13:17:53Z","2026-07-22T13:17:53Z","2026-07-22T13:17:53Z","2026-07-22T13:17:54Z","2026-07-22T13:17:54Z","2026-07-22T13:17:54Z","2026-07-22T13:17:55Z","2026-07-22T13:17:55Z","2026-07-22T13:17:55Z","2026-07-22T13:17:57Z","2026-07-22T13:17:57Z","2026-07-22T13:17:57Z","2026-07-22T13:17:59Z","2026-07-22T13:17:59Z","2026-07-22T13:17:59Z","2026-07-22T13:18:05Z","2026-07-22T13:18:05Z","2026-07-22T13:18:05Z","2026-07-22T13:18:08Z","2026-07-22T13:18:08Z","2026-07-22T13:18:08Z","2026-07-22T13:18:11Z","2026-07-22T13:18:11Z","2026-07-22T13:18:11Z","2026-07-22T13:18:13Z","2026-07-22T13:18:13Z","2026-07-22T13:18:13Z","2026-07-22T13:18:15Z","2026-07-22T13:18:15Z","2026-07-22T13:18:15Z","2026-07-22T13:18:17Z","2026-07-22T13:18:17Z","2026-07-22T13:18:17Z","2026-07-22T13:18:19Z","2026-07-22T13:18:19Z","2026-07-22T13:18:19Z","2026-07-22T13:18:23Z","2026-07-22T13:18:23Z","2026-07-22T13:18:23Z","2026-07-22T13:18:25Z","2026-07-22T13:18:25Z","2026-07-22T13:18:25Z","2026-07-22T13:18:27Z","2026-07-22T13:18:27Z","2026-07-22T13:18:27Z","2026-07-22T13:18:28Z","2026-07-22T13:18:28Z","2026-07-22T13:18:28Z","2026-07-22T13:18:29Z","2026-07-22T13:18:29Z","2026-07-22T13:18:29Z","2026-07-22T13:18:30Z","2026-07-22T13:18:30Z","2026-07-22T13:18:30Z","2026-07-22T13:18:31Z","2026-07-22T13:18:31Z","2026-07-22T13:18:31Z","2026-07-22T13:18:32Z","2026-07-22T13:18:32Z","2026-07-22T13:18:32Z","2026-07-22T13:18:33Z","2026-07-22T13:18:33Z","2026-07-22T13:18:33Z","2026-07-22T13:18:34Z","2026-07-22T13:18:34Z","2026-07-22T13:18:34Z","2026-07-22T13:18:35Z","2026-07-22T13:18:35Z","2026-07-22T13:18:35Z","2026-07-22T13:18:36Z","2026-07-22T13:18:36Z","2026-07-22T13:18:36Z","2026-07-22T13:18:37Z","2026-07-22T13:18:37Z","2026-07-22T13:18:37Z","2026-07-22T13:18:38Z","2026-07-22T13:18:38Z","2026-07-22T13:18:38Z","2026-07-22T13:18:39Z","2026-07-22T13:18:39Z","2026-07-22T13:18:39Z","2026-07-22T13:18:40Z","2026-07-22T13:18:40Z","2026-07-22T13:18:40Z","2026-07-22T13:18:41Z","2026-07-22T13:18:41Z","2026-07-22T13:18:41Z","2026-07-22T13:18:42Z","2026-07-22T13:18:42Z","2026-07-22T13:18:42Z","2026-07-22T13:18:43Z","2026-07-22T13:18:43Z","2026-07-22T13:18:43Z","2026-07-22T13:18:44Z","2026-07-22T13:18:44Z","2026-07-22T13:18:44Z","2026-07-22T13:18:45Z","2026-07-22T13:18:45Z","2026-07-22T13:18:45Z","2026-07-22T13:18:46Z","2026-07-22T13:18:46Z","2026-07-22T13:18:46Z","2026-07-22T13:18:47Z","2026-07-22T13:18:47Z","2026-07-22T13:18:47Z","2026-07-22T13:18:48Z","2026-07-22T13:18:48Z","2026-07-22T13:18:48Z","2026-07-22T13:18:49Z","2026-07-22T13:18:49Z","2026-07-22T13:18:49Z","2026-07-22T13:18:50Z","2026-07-22T13:18:50Z","2026-07-22T13:18:50Z","2026-07-22T13:18:51Z","2026-07-22T13:18:51Z","2026-07-22T13:18:51Z","2026-07-22T13:18:52Z","2026-07-22T13:18:52Z","2026-07-22T13:18:52Z","2026-07-22T13:18:53Z","2026-07-22T13:18:53Z","2026-07-22T13:18:53Z","2026-07-22T13:18:54Z","2026-07-22T13:18:54Z","2026-07-22T13:18:54Z","2026-07-22T13:18:55Z","2026-07-22T13:18:55Z","2026-07-22T13:18:55Z","2026-07-22T13:18:56Z","2026-07-22T13:18:56Z","2026-07-22T13:18:56Z","2026-07-22T13:18:57Z","2026-07-22T13:18:57Z","2026-07-22T13:18:57Z","2026-07-22T13:18:58Z","2026-07-22T13:18:58Z","2026-07-22T13:18:58Z","2026-07-22T13:18:59Z","2026-07-22T13:18:59Z","2026-07-22T13:18:59Z","2026-07-22T13:19:00Z","2026-07-22T13:19:00Z","2026-07-22T13:19:00Z","2026-07-22T13:19:01Z","2026-07-22T13:19:01Z","2026-07-22T13:19:01Z","2026-07-22T13:19:02Z","2026-07-22T13:19:02Z","2026-07-22T13:19:02Z","2026-07-22T13:19:03Z","2026-07-22T13:19:03Z","2026-07-22T13:19:03Z","2026-07-22T13:19:04Z","2026-07-22T13:19:04Z","2026-07-22T13:19:04Z","2026-07-22T13:19:05Z","2026-07-22T13:19:05Z","2026-07-22T13:19:05Z","2026-07-22T13:19:06Z","2026-07-22T13:19:06Z","2026-07-22T13:19:06Z","2026-07-22T13:19:07Z","2026-07-22T13:19:07Z","2026-07-22T13:19:07Z","2026-07-22T13:19:08Z","2026-07-22T13:19:08Z","2026-07-22T13:19:08Z","2026-07-22T13:19:09Z","2026-07-22T13:19:09Z","2026-07-22T13:19:09Z","2026-07-22T13:19:10Z","2026-07-22T13:19:10Z","2026-07-22T13:19:10Z","2026-07-22T13:19:11Z","2026-07-22T13:19:11Z","2026-07-22T13:19:11Z","2026-07-22T13:19:12Z","2026-07-22T13:19:12Z","2026-07-22T13:19:12Z","2026-07-22T13:19:13Z","2026-07-22T13:19:13Z","2026-07-22T13:19:13Z","2026-07-22T13:19:14Z","2026-07-22T13:19:14Z","2026-07-22T13:19:14Z","2026-07-22T13:19:15Z","2026-07-22T13:19:15Z","2026-07-22T13:19:15Z","2026-07-22T13:19:16Z","2026-07-22T13:19:16Z","2026-07-22T13:19:16Z","2026-07-22T13:19:17Z","2026-07-22T13:19:17Z","2026-07-22T13:19:17Z","2026-07-22T13:19:18Z","2026-07-22T13:19:18Z","2026-07-22T13:19:18Z","2026-07-22T13:19:19Z","2026-07-22T13:19:19Z","2026-07-22T13:19:19Z","2026-07-22T13:19:20Z","2026-07-22T13:19:20Z","2026-07-22T13:19:20Z","2026-07-22T13:19:21Z","2026-07-22T13:19:21Z","2026-07-22T13:19:21Z","2026-07-22T13:19:22Z","2026-07-22T13:19:22Z","2026-07-22T13:19:22Z","2026-07-22T13:19:23Z","2026-07-22T13:19:23Z","2026-07-22T13:19:23Z","2026-07-22T13:19:24Z","2026-07-22T13:19:24Z","2026-07-22T13:19:24Z","2026-07-22T13:19:25Z","2026-07-22T13:19:25Z","2026-07-22T13:19:25Z","2026-07-22T13:19:26Z","2026-07-22T13:19:26Z","2026-07-22T13:19:26Z","2026-07-22T13:19:27Z","2026-07-22T13:19:27Z","2026-07-22T13:19:27Z","2026-07-22T13:19:28Z","2026-07-22T13:19:28Z","2026-07-22T13:19:28Z","2026-07-22T13:19:29Z","2026-07-22T13:19:29Z","2026-07-22T13:19:29Z","2026-07-22T13:19:30Z","2026-07-22T13:19:30Z","2026-07-22T13:19:30Z","2026-07-22T13:19:31Z","2026-07-22T13:19:31Z","2026-07-22T13:19:31Z","2026-07-22T13:19:32Z","2026-07-22T13:19:32Z","2026-07-22T13:19:32Z","2026-07-22T13:19:33Z","2026-07-22T13:19:33Z","2026-07-22T13:19:33Z","2026-07-22T13:19:34Z","2026-07-22T13:19:34Z","2026-07-22T13:19:34Z","2026-07-22T13:19:35Z","2026-07-22T13:19:35Z","2026-07-22T13:19:35Z","2026-07-22T13:19:36Z","2026-07-22T13:19:36Z","2026-07-22T13:19:36Z","2026-07-22T13:19:37Z","2026-07-22T13:19:37Z","2026-07-22T13:19:37Z","2026-07-22T13:19:38Z","2026-07-22T13:19:38Z","2026-07-22T13:19:38Z","2026-07-22T13:19:39Z","2026-07-22T13:19:39Z","2026-07-22T13:19:39Z","2026-07-22T13:19:40Z","2026-07-22T13:19:40Z","2026-07-22T13:19:40Z","2026-07-22T13:19:41Z","2026-07-22T13:19:41Z","2026-07-22T13:19:41Z","2026-07-22T13:19:41Z","2026-07-22T13:19:41Z","2026-07-22T13:19:41Z","2026-07-22T13:19:42Z","2026-07-22T13:19:42Z","2026-07-22T13:19:42Z","2026-07-22T13:19:43Z","2026-07-22T13:19:43Z","2026-07-22T13:19:43Z","2026-07-22T13:19:44Z","2026-07-22T13:19:44Z","2026-07-22T13:19:44Z","2026-07-22T13:19:45Z","2026-07-22T13:19:45Z","2026-07-22T13:19:45Z","2026-07-22T13:19:47Z","2026-07-22T13:19:47Z","2026-07-22T13:19:47Z","2026-07-22T13:19:50Z","2026-07-22T13:19:50Z","2026-07-22T13:19:50Z","2026-07-22T13:19:52Z","2026-07-22T13:19:52Z","2026-07-22T13:19:52Z","2026-07-22T13:19:54Z","2026-07-22T13:19:54Z","2026-07-22T13:19:54Z","2026-07-22T13:19:56Z","2026-07-22T13:19:56Z","2026-07-22T13:19:56Z","2026-07-22T13:19:58Z","2026-07-22T13:19:58Z","2026-07-22T13:19:58Z","2026-07-22T13:20:00Z","2026-07-22T13:20:00Z","2026-07-22T13:20:00Z","2026-07-22T13:20:02Z","2026-07-22T13:20:02Z","2026-07-22T13:20:02Z","2026-07-22T13:20:04Z","2026-07-22T13:20:04Z","2026-07-22T13:20:04Z","2026-07-22T13:20:06Z","2026-07-22T13:20:06Z","2026-07-22T13:20:06Z","2026-07-22T13:20:08Z","2026-07-22T13:20:08Z","2026-07-22T13:20:08Z","2026-07-22T13:20:10Z","2026-07-22T13:20:10Z","2026-07-22T13:20:10Z","2026-07-22T13:20:12Z","2026-07-22T13:20:12Z","2026-07-22T13:20:12Z","2026-07-22T13:20:14Z","2026-07-22T13:20:14Z","2026-07-22T13:20:14Z","2026-07-22T13:20:16Z","2026-07-22T13:20:16Z","2026-07-22T13:20:16Z","2026-07-22T13:20:18Z","2026-07-22T13:20:18Z","2026-07-22T13:20:18Z","2026-07-22T13:20:20Z","2026-07-22T13:20:20Z","2026-07-22T13:20:20Z","2026-07-22T13:20:22Z","2026-07-22T13:20:22Z","2026-07-22T13:20:22Z","2026-07-22T13:20:24Z","2026-07-22T13:20:24Z","2026-07-22T13:20:24Z","2026-07-22T13:20:26Z","2026-07-22T13:20:26Z","2026-07-22T13:20:26Z","2026-07-22T13:20:29Z","2026-07-22T13:20:29Z","2026-07-22T13:20:29Z","2026-07-22T13:20:31Z","2026-07-22T13:20:31Z","2026-07-22T13:20:31Z","2026-07-22T13:20:33Z","2026-07-22T13:20:33Z","2026-07-22T13:20:33Z","2026-07-22T13:20:35Z","2026-07-22T13:20:35Z","2026-07-22T13:20:35Z","2026-07-22T13:20:37Z","2026-07-22T13:20:37Z","2026-07-22T13:20:37Z","2026-07-22T13:20:39Z","2026-07-22T13:20:39Z","2026-07-22T13:20:39Z","2026-07-22T13:20:41Z","2026-07-22T13:20:41Z","2026-07-22T13:20:41Z","2026-07-22T13:20:43Z","2026-07-22T13:20:43Z","2026-07-22T13:20:43Z","2026-07-22T13:20:45Z","2026-07-22T13:20:45Z","2026-07-22T13:20:45Z","2026-07-22T13:20:47Z","2026-07-22T13:20:47Z","2026-07-22T13:20:47Z","2026-07-22T13:20:49Z","2026-07-22T13:20:49Z","2026-07-22T13:20:49Z","2026-07-22T13:20:51Z","2026-07-22T13:20:51Z","2026-07-22T13:20:51Z","2026-07-22T13:20:53Z","2026-07-22T13:20:53Z","2026-07-22T13:20:53Z","2026-07-22T13:20:55Z","2026-07-22T13:20:55Z","2026-07-22T13:20:55Z","2026-07-22T13:21:00Z","2026-07-22T13:21:00Z","2026-07-22T13:21:00Z","2026-07-22T13:21:02Z","2026-07-22T13:21:02Z","2026-07-22T13:21:02Z","2026-07-22T13:21:04Z","2026-07-22T13:21:04Z","2026-07-22T13:21:04Z","2026-07-22T13:21:06Z","2026-07-22T13:21:06Z","2026-07-22T13:21:06Z","2026-07-22T13:21:08Z","2026-07-22T13:21:08Z","2026-07-22T13:21:08Z","2026-07-22T13:21:10Z","2026-07-22T13:21:10Z","2026-07-22T13:21:10Z","2026-07-22T13:21:13Z","2026-07-22T13:21:13Z","2026-07-22T13:21:13Z","2026-07-22T13:21:14Z","2026-07-22T13:21:14Z","2026-07-22T13:21:14Z","2026-07-22T13:21:16Z","2026-07-22T13:21:16Z","2026-07-22T13:21:16Z","2026-07-22T13:21:18Z","2026-07-22T13:21:18Z","2026-07-22T13:21:18Z","2026-07-22T13:21:20Z","2026-07-22T13:21:20Z","2026-07-22T13:21:20Z","2026-07-22T13:21:22Z","2026-07-22T13:21:22Z","2026-07-22T13:21:22Z","2026-07-22T13:21:24Z","2026-07-22T13:21:24Z","2026-07-22T13:21:24Z","2026-07-22T13:21:25Z","2026-07-22T13:21:25Z","2026-07-22T13:21:25Z","2026-07-22T13:21:26Z","2026-07-22T13:21:26Z","2026-07-22T13:21:26Z","2026-07-22T13:21:27Z","2026-07-22T13:21:27Z","2026-07-22T13:21:27Z","2026-07-22T13:21:28Z","2026-07-22T13:21:28Z","2026-07-22T13:21:28Z","2026-07-22T13:21:29Z","2026-07-22T13:21:29Z","2026-07-22T13:21:29Z","2026-07-22T13:21:30Z","2026-07-22T13:21:30Z","2026-07-22T13:21:30Z","2026-07-22T13:21:31Z","2026-07-22T13:21:31Z","2026-07-22T13:21:31Z","2026-07-22T13:21:33Z","2026-07-22T13:21:33Z","2026-07-22T13:21:33Z","2026-07-22T13:21:35Z","2026-07-22T13:21:35Z","2026-07-22T13:21:35Z","2026-07-22T13:21:37Z","2026-07-22T13:21:37Z","2026-07-22T13:21:37Z","2026-07-22T13:21:39Z","2026-07-22T13:21:39Z","2026-07-22T13:21:39Z","2026-07-22T13:21:41Z","2026-07-22T13:21:41Z","2026-07-22T13:21:41Z","2026-07-22T13:21:42Z","2026-07-22T13:21:42Z","2026-07-22T13:21:42Z","2026-07-22T13:21:44Z","2026-07-22T13:21:44Z","2026-07-22T13:21:44Z","2026-07-22T13:21:46Z","2026-07-22T13:21:46Z","2026-07-22T13:21:46Z","2026-07-22T13:21:47Z","2026-07-22T13:21:47Z","2026-07-22T13:21:47Z","2026-07-22T13:21:48Z","2026-07-22T13:21:48Z","2026-07-22T13:21:48Z","2026-07-22T13:21:49Z","2026-07-22T13:21:49Z","2026-07-22T13:21:49Z","2026-07-22T13:21:50Z","2026-07-22T13:21:50Z","2026-07-22T13:21:50Z","2026-07-22T13:21:52Z","2026-07-22T13:21:52Z","2026-07-22T13:21:52Z","2026-07-22T13:21:54Z","2026-07-22T13:21:54Z","2026-07-22T13:21:54Z","2026-07-22T13:21:55Z","2026-07-22T13:21:55Z","2026-07-22T13:21:55Z","2026-07-22T13:21:56Z","2026-07-22T13:21:56Z","2026-07-22T13:21:56Z","2026-07-22T13:21:57Z","2026-07-22T13:21:57Z","2026-07-22T13:21:57Z","2026-07-22T13:21:59Z","2026-07-22T13:21:59Z","2026-07-22T13:21:59Z","2026-07-22T13:22:02Z","2026-07-22T13:22:02Z","2026-07-22T13:22:02Z","2026-07-22T13:22:06Z","2026-07-22T13:22:06Z","2026-07-22T13:22:06Z","2026-07-22T13:22:08Z","2026-07-22T13:22:08Z","2026-07-22T13:22:08Z","2026-07-22T13:22:10Z","2026-07-22T13:22:10Z","2026-07-22T13:22:10Z","2026-07-22T13:22:12Z","2026-07-22T13:22:12Z","2026-07-22T13:22:12Z","2026-07-22T13:22:15Z","2026-07-22T13:22:15Z","2026-07-22T13:22:15Z","2026-07-22T13:22:17Z","2026-07-22T13:22:17Z","2026-07-22T13:22:17Z","2026-07-22T13:22:20Z","2026-07-22T13:22:20Z","2026-07-22T13:22:20Z","2026-07-22T13:22:22Z","2026-07-22T13:22:22Z","2026-07-22T13:22:22Z","2026-07-22T13:22:24Z","2026-07-22T13:22:24Z","2026-07-22T13:22:24Z","2026-07-22T13:22:26Z","2026-07-22T13:22:26Z","2026-07-22T13:22:26Z","2026-07-22T13:22:27Z","2026-07-22T13:22:27Z","2026-07-22T13:22:27Z","2026-07-22T13:22:28Z","2026-07-22T13:22:28Z","2026-07-22T13:22:28Z","2026-07-22T13:22:29Z","2026-07-22T13:22:29Z","2026-07-22T13:22:29Z","2026-07-22T13:22:30Z","2026-07-22T13:22:30Z","2026-07-22T13:22:30Z","2026-07-22T13:22:31Z","2026-07-22T13:22:31Z","2026-07-22T13:22:31Z","2026-07-22T13:22:32Z","2026-07-22T13:22:32Z","2026-07-22T13:22:32Z","2026-07-22T13:22:33Z","2026-07-22T13:22:33Z","2026-07-22T13:22:33Z","2026-07-22T13:22:35Z","2026-07-22T13:22:35Z","2026-07-22T13:22:35Z","2026-07-22T13:22:37Z","2026-07-22T13:22:37Z","2026-07-22T13:22:37Z","2026-07-22T13:22:39Z","2026-07-22T13:22:39Z","2026-07-22T13:22:39Z","2026-07-22T13:22:41Z","2026-07-22T13:22:41Z","2026-07-22T13:22:41Z","2026-07-22T13:22:44Z","2026-07-22T13:22:44Z","2026-07-22T13:22:44Z","2026-07-22T13:22:49Z","2026-07-22T13:22:49Z","2026-07-22T13:22:49Z","2026-07-22T13:22:51Z","2026-07-22T13:22:51Z","2026-07-22T13:22:51Z"]}},"geometry":{"type":"LineString","coordinates":[[17.020611,52.411539,87.056648],[17.020611,52.411539,87.056648],[17.020611,52.411539,87.056648],[17.020768,52.411501,76.993721],[17.020768,52.411501,76.993721],[17.020768,52.411501,76.993721],[17.020949,52.411467,76.777779],[17.020949,52.411467,76.777779],[17.020949,52.411467,76.777779],[17.021109,52.411455,76.365669],[17.021109,52.411455,76.365669],[17.021109,52.411455,76.365669],[17.02148,52.411375,76.480537],[17.02148,52.411375,76.480537],[17.02148,52.411375,76.480537],[17.021646,52.411328,76.474983],[17.021646,52.411328,76.474983],[17.021646,52.411328,76.474983],[17.021823,52.411276,76.019783],[17.021823,52.411276,76.019783],[17.021823,52.411276,76.019783],[17.021993,52.411226,75.869209],[17.021993,52.411226,75.869209],[17.021993,52.411226,75.869209],[17.022171,52.41117,76.470711],[17.022171,52.41117,76.470711],[17.022171,52.41117,76.470711],[17.022362,52.411089,76.45533],[17.022362,52.411089,76.45533],[17.022362,52.411089,76.45533],[17.022563,52.411043,77.697762],[17.022563,52.411043,77.697762],[17.022563,52.411043,77.697762],[17.022727,52.410947,71.657726],[17.022727,52.410947,71.657726],[17.022727,52.410947,71.657726],[17.022897,52.410834,70.762129],[17.022897,52.410834,70.762129],[17.022897,52.410834,70.762129],[17.023069,52.410696,71.222897],[17.023069,52.410696,71.222897],[17.023069,52.410696,71.222897],[17.023138,52.410558,70.996172],[17.023138,52.410558,70.996172],[17.023138,52.410558,70.996172],[17.023073,52.410425,70.508815],[17.023073,52.410425,70.508815],[17.023073,52.410425,70.508815],[17.023143,52.410334,71.048407],[17.023143,52.410334,71.048407],[17.023143,52.410334,71.048407],[17.023315,52.410288,77.303843],[17.023315,52.410288,77.303843],[17.023315,52.410288,77.303843],[17.023475,52.410192,77.452649],[17.023475,52.410192,77.452649],[17.023475,52.410192,77.452649],[17.023587,52.410098,77.598705],[17.023587,52.410098,77.598705],[17.023587,52.410098,77.598705],[17.023642,52.409984,77.462108],[17.023642,52.409984,77.462108],[17.023642,52.409984,77.462108],[17.023545,52.409871,77.735122],[17.023545,52.409871,77.735122],[17.023545,52.409871,77.735122],[17.023331,52.409869,77.88823],[17.023331,52.409869,77.88823],[17.023331,52.409869,77.88823],[17.023138,52.409814,78.158215],[17.023138,52.409814,78.158215],[17.023138,52.409814,78.158215],[17.022927,52.409757,78.607486],[17.022927,52.409757,78.607486],[17.022927,52.409757,78.607486],[17.022697,52.409695,78.497053],[17.022697,52.409695,78.497053],[17.022697,52.409695,78.497053],[17.022443,52.409626,78.481681],[17.022443,52.409626,78.481681],[17.022443,52.409626,78.481681],[17.022183,52.409544,78.621637],[17.022183,52.409544,78.621637],[17.022183,52.409544,78.621637],[17.021921,52.409469,78.586459],[17.021921,52.409469,78.586459],[17.021921,52.409469,78.586459],[17.021659,52.409397,78.206515],[17.021659,52.409397,78.206515],[17.021659,52.409397,78.206515],[17.021397,52.409326,78.283114],[17.021397,52.409326,78.283114],[17.021397,52.409326,78.283114],[17.02114,52.409256,77.970841],[17.02114,52.409256,77.970841],[17.02114,52.409256,77.970841],[17.02089,52.409188,77.807178],[17.02089,52.409188,77.807178],[17.02089,52.409188,77.807178],[17.020662,52.409134,77.614088],[17.020662,52.409134,77.614088],[17.020662,52.409134,77.614088],[17.020519,52.409099,77.335102],[17.020519,52.409099,77.335102],[17.020519,52.409099,77.335102],[17.020371,52.409068,77.619381],[17.020371,52.409068,77.619381],[17.020371,52.409068,77.619381],[17.020166,52.408997,77.763098],[17.020166,52.408997,77.763098],[17.020166,52.408997,77.763098],[17.019962,52.40894,77.52638],[17.019962,52.40894,77.52638],[17.019962,52.40894,77.52638],[17.019743,52.40888,77.467684],[17.019743,52.40888,77.467684],[17.019743,52.40888,77.467684],[17.019517,52.408821,77.384423],[17.019517,52.408821,77.384423],[17.019517,52.408821,77.384423],[17.019299,52.408767,77.304558],[17.019299,52.408767,77.304558],[17.019299,52.408767,77.304558],[17.019092,52.408702,77.109955],[17.019092,52.408702,77.109955],[17.019092,52.408702,77.109955],[17.018903,52.408618,77.268726],[17.018903,52.408618,77.268726],[17.018903,52.408618,77.268726],[17.018736,52.408534,77.596573],[17.018736,52.408534,77.596573],[17.018736,52.408534,77.596573],[17.018627,52.408419,78.036832],[17.018627,52.408419,78.036832],[17.018627,52.408419,78.036832],[17.01857,52.408281,78.823532],[17.01857,52.408281,78.823532],[17.01857,52.408281,78.823532],[17.018509,52.408147,78.37002],[17.018509,52.408147,78.37002],[17.018509,52.408147,78.37002],[17.018458,52.40802,78.907148],[17.018458,52.40802,78.907148],[17.018458,52.40802,78.907148],[17.018424,52.407919,80.71873],[17.018424,52.407919,80.71873],[17.018424,52.407919,80.71873],[17.018373,52.407797,80.43249],[17.018373,52.407797,80.43249],[17.018373,52.407797,80.43249],[17.01831,52.407696,80.491002],[17.01831,52.407696,80.491002],[17.01831,52.407696,80.491002],[17.018237,52.407602,80.04649],[17.018237,52.407602,80.04649],[17.018237,52.407602,80.04649],[17.018145,52.407471,79.812],[17.018145,52.407471,79.812],[17.018145,52.407471,79.812],[17.018039,52.407365,79.959983],[17.018039,52.407365,79.959983],[17.018039,52.407365,79.959983],[17.017914,52.407276,79.962571],[17.017914,52.407276,79.962571],[17.017914,52.407276,79.962571],[17.0178,52.407214,80.396643],[17.0178,52.407214,80.396643],[17.0178,52.407214,80.396643],[17.0176,52.407177,80.164178],[17.0176,52.407177,80.164178],[17.0176,52.407177,80.164178],[17.017367,52.40716,80.355731],[17.017367,52.40716,80.355731],[17.017367,52.40716,80.355731],[17.017101,52.407169,80.628565],[17.017101,52.407169,80.628565],[17.017101,52.407169,80.628565],[17.016847,52.407195,80.822988],[17.016847,52.407195,80.822988],[17.016847,52.407195,80.822988],[17.016611,52.407237,80.550888],[17.016611,52.407237,80.550888],[17.016611,52.407237,80.550888],[17.016383,52.407303,79.452627],[17.016383,52.407303,79.452627],[17.016383,52.407303,79.452627],[17.016141,52.407376,78.368288],[17.016141,52.407376,78.368288],[17.016141,52.407376,78.368288],[17.015877,52.407417,78.123371],[17.015877,52.407417,78.123371],[17.015877,52.407417,78.123371],[17.015601,52.407398,77.690062],[17.015601,52.407398,77.690062],[17.015601,52.407398,77.690062],[17.015351,52.407331,77.802752],[17.015351,52.407331,77.802752],[17.015351,52.407331,77.802752],[17.015225,52.407283,77.705435],[17.015225,52.407283,77.705435],[17.015225,52.407283,77.705435],[17.0151,52.407227,78.04093],[17.0151,52.407227,78.04093],[17.0151,52.407227,78.04093],[17.014988,52.407163,78.508705],[17.014988,52.407163,78.508705],[17.014988,52.407163,78.508705],[17.014883,52.407092,78.83631],[17.014883,52.407092,78.83631],[17.014883,52.407092,78.83631],[17.014785,52.407019,79.022092],[17.014785,52.407019,79.022092],[17.014785,52.407019,79.022092],[17.014688,52.40695,79.153523],[17.014688,52.40695,79.153523],[17.014688,52.40695,79.153523],[17.014549,52.406822,79.713201],[17.014549,52.406822,79.713201],[17.014549,52.406822,79.713201],[17.014443,52.406726,79.969754],[17.014443,52.406726,79.969754],[17.014443,52.406726,79.969754],[17.014331,52.406663,79.820731],[17.014331,52.406663,79.820731],[17.014331,52.406663,79.820731],[17.014235,52.40657,79.890339],[17.014235,52.40657,79.890339],[17.014235,52.40657,79.890339],[17.014128,52.4065,79.43868],[17.014128,52.4065,79.43868],[17.014128,52.4065,79.43868],[17.014018,52.406413,79.143577],[17.014018,52.406413,79.143577],[17.014018,52.406413,79.143577],[17.014052,52.406309,79.590002],[17.014052,52.406309,79.590002],[17.014052,52.406309,79.590002],[17.014124,52.406221,80.118966],[17.014124,52.406221,80.118966],[17.014124,52.406221,80.118966],[17.014196,52.406126,79.949414],[17.014196,52.406126,79.949414],[17.014196,52.406126,79.949414],[17.014287,52.406001,80.192687],[17.014287,52.406001,80.192687],[17.014287,52.406001,80.192687],[17.014397,52.405854,80.605908],[17.014397,52.405854,80.605908],[17.014397,52.405854,80.605908],[17.014502,52.405717,81.248495],[17.014502,52.405717,81.248495],[17.014502,52.405717,81.248495],[17.014584,52.405603,80.404914],[17.014584,52.405603,80.404914],[17.014584,52.405603,80.404914],[17.014654,52.405506,80.606439],[17.014654,52.405506,80.606439],[17.014654,52.405506,80.606439],[17.014695,52.405412,80.623124],[17.014695,52.405412,80.623124],[17.014695,52.405412,80.623124],[17.014465,52.405374,80.50038],[17.014465,52.405374,80.50038],[17.014465,52.405374,80.50038],[17.014243,52.405308,80.091067],[17.014243,52.405308,80.091067],[17.014243,52.405308,80.091067],[17.013971,52.405255,79.663284],[17.013971,52.405255,79.663284],[17.013971,52.405255,79.663284],[17.013816,52.405228,79.251619],[17.013816,52.405228,79.251619],[17.013816,52.405228,79.251619],[17.01366,52.405207,79.072617],[17.01366,52.405207,79.072617],[17.01366,52.405207,79.072617],[17.013512,52.40519,78.741549],[17.013512,52.40519,78.741549],[17.013512,52.40519,78.741549],[17.013359,52.405173,78.232349],[17.013359,52.405173,78.232349],[17.013359,52.405173,78.232349],[17.01321,52.405154,77.796031],[17.01321,52.405154,77.796031],[17.01321,52.405154,77.796031],[17.013065,52.40513,77.586527],[17.013065,52.40513,77.586527],[17.013065,52.40513,77.586527],[17.012798,52.405079,76.9244],[17.012798,52.405079,76.9244],[17.012798,52.405079,76.9244],[17.012586,52.405032,76.471594],[17.012586,52.405032,76.471594],[17.012586,52.405032,76.471594],[17.012417,52.40499,76.398476],[17.012417,52.40499,76.398476],[17.012417,52.40499,76.398476],[17.012257,52.404991,76.167982],[17.012257,52.404991,76.167982],[17.012257,52.404991,76.167982],[17.012168,52.404887,76.170266],[17.012168,52.404887,76.170266],[17.012168,52.404887,76.170266],[17.012299,52.404804,77.38027],[17.012299,52.404804,77.38027],[17.012299,52.404804,77.38027],[17.012437,52.404696,78.043524],[17.012437,52.404696,78.043524],[17.012437,52.404696,78.043524],[17.012609,52.404576,78.414544],[17.012609,52.404576,78.414544],[17.012609,52.404576,78.414544],[17.012714,52.404511,78.722437],[17.012714,52.404511,78.722437],[17.012714,52.404511,78.722437],[17.012883,52.404401,79.647881],[17.012883,52.404401,79.647881],[17.012883,52.404401,79.647881],[17.012992,52.404335,80.527209],[17.012992,52.404335,80.527209],[17.012992,52.404335,80.527209],[17.013129,52.404247,81.148059],[17.013129,52.404247,81.148059],[17.013129,52.404247,81.148059],[17.013274,52.404156,81.639129],[17.013274,52.404156,81.639129],[17.013274,52.404156,81.639129],[17.01346,52.404054,81.794132],[17.01346,52.404054,81.794132],[17.01346,52.404054,81.794132],[17.01367,52.403938,82.041828],[17.01367,52.403938,82.041828],[17.01367,52.403938,82.041828],[17.013791,52.403884,82.324285],[17.013791,52.403884,82.324285],[17.013791,52.403884,82.324285],[17.013919,52.403824,82.283634],[17.013919,52.403824,82.283634],[17.013919,52.403824,82.283634],[17.014053,52.403774,82.371756],[17.014053,52.403774,82.371756],[17.014053,52.403774,82.371756],[17.014188,52.403729,82.475473],[17.014188,52.403729,82.475473],[17.014188,52.403729,82.475473],[17.014383,52.403665,82.359996],[17.014383,52.403665,82.359996],[17.014383,52.403665,82.359996],[17.014522,52.403616,82.220689],[17.014522,52.403616,82.220689],[17.014522,52.403616,82.220689],[17.014663,52.403569,81.981517],[17.014663,52.403569,81.981517],[17.014663,52.403569,81.981517],[17.014871,52.403502,81.764805],[17.014871,52.403502,81.764805],[17.014871,52.403502,81.764805],[17.015109,52.40343,81.914092],[17.015109,52.40343,81.914092],[17.015109,52.40343,81.914092],[17.015335,52.403361,81.291777],[17.015335,52.403361,81.291777],[17.015335,52.403361,81.291777],[17.015539,52.403281,80.032248],[17.015539,52.403281,80.032248],[17.015539,52.403281,80.032248],[17.015744,52.403205,78.318195],[17.015744,52.403205,78.318195],[17.015744,52.403205,78.318195],[17.015981,52.403123,76.527601],[17.015981,52.403123,76.527601],[17.015981,52.403123,76.527601],[17.016111,52.403079,75.607124],[17.016111,52.403079,75.607124],[17.016111,52.403079,75.607124],[17.016248,52.403034,75.035531],[17.016248,52.403034,75.035531],[17.016248,52.403034,75.035531],[17.016387,52.40299,74.869772],[17.016387,52.40299,74.869772],[17.016387,52.40299,74.869772],[17.016524,52.402948,74.582363],[17.016524,52.402948,74.582363],[17.016524,52.402948,74.582363],[17.016662,52.402907,74.426048],[17.016662,52.402907,74.426048],[17.016662,52.402907,74.426048],[17.016899,52.402841,74.150672],[17.016899,52.402841,74.150672],[17.016899,52.402841,74.150672],[17.017053,52.402794,73.984217],[17.017053,52.402794,73.984217],[17.017053,52.402794,73.984217],[17.017164,52.402734,74.158579],[17.017164,52.402734,74.158579],[17.017164,52.402734,74.158579],[17.017279,52.402647,74.115453],[17.017279,52.402647,74.115453],[17.017279,52.402647,74.115453],[17.017323,52.402545,73.878067],[17.017323,52.402545,73.878067],[17.017323,52.402545,73.878067],[17.01739,52.402457,73.792369],[17.01739,52.402457,73.792369],[17.01739,52.402457,73.792369],[17.01748,52.402342,73.102635],[17.01748,52.402342,73.102635],[17.01748,52.402342,73.102635],[17.017589,52.402189,72.983681],[17.017589,52.402189,72.983681],[17.017589,52.402189,72.983681],[17.017706,52.402058,72.942982],[17.017706,52.402058,72.942982],[17.017706,52.402058,72.942982],[17.017759,52.401967,73.275273],[17.017759,52.401967,73.275273],[17.017759,52.401967,73.275273],[17.017849,52.401851,73.474342],[17.017849,52.401851,73.474342],[17.017849,52.401851,73.474342],[17.01794,52.40169,73.563511],[17.01794,52.40169,73.563511],[17.01794,52.40169,73.563511],[17.01805,52.401535,73.684078],[17.01805,52.401535,73.684078],[17.01805,52.401535,73.684078],[17.018165,52.401394,73.652276],[17.018165,52.401394,73.652276],[17.018165,52.401394,73.652276],[17.018249,52.401268,73.152824],[17.018249,52.401268,73.152824],[17.018249,52.401268,73.152824],[17.018319,52.401159,73.021814],[17.018319,52.401159,73.021814],[17.018319,52.401159,73.021814],[17.018437,52.401016,72.763252],[17.018437,52.401016,72.763252],[17.018437,52.401016,72.763252],[17.018447,52.400868,72.558339],[17.018447,52.400868,72.558339],[17.018447,52.400868,72.558339],[17.018485,52.400684,72.512419],[17.018485,52.400684,72.512419],[17.018485,52.400684,72.512419],[17.018517,52.400582,72.564947],[17.018517,52.400582,72.564947],[17.018517,52.400582,72.564947],[17.018552,52.400475,72.562751],[17.018552,52.400475,72.562751],[17.018552,52.400475,72.562751],[17.018588,52.400366,72.543775],[17.018588,52.400366,72.543775],[17.018588,52.400366,72.543775],[17.018622,52.400259,72.535173],[17.018622,52.400259,72.535173],[17.018622,52.400259,72.535173],[17.018651,52.400155,72.535884],[17.018651,52.400155,72.535884],[17.018651,52.400155,72.535884],[17.018678,52.400051,72.780929],[17.018678,52.400051,72.780929],[17.018678,52.400051,72.780929],[17.01869,52.399949,72.904945],[17.01869,52.399949,72.904945],[17.01869,52.399949,72.904945],[17.018661,52.399848,73.436772],[17.018661,52.399848,73.436772],[17.018661,52.399848,73.436772],[17.018595,52.399746,73.938411],[17.018595,52.399746,73.938411],[17.018595,52.399746,73.938411],[17.01852,52.399634,74.202286],[17.01852,52.399634,74.202286],[17.01852,52.399634,74.202286],[17.018443,52.399521,74.318027],[17.018443,52.399521,74.318027],[17.018443,52.399521,74.318027],[17.018376,52.399414,74.706741],[17.018376,52.399414,74.706741],[17.018376,52.399414,74.706741],[17.018309,52.399306,75.286968],[17.018309,52.399306,75.286968],[17.018309,52.399306,75.286968],[17.018243,52.399204,75.719345],[17.018243,52.399204,75.719345],[17.018243,52.399204,75.719345],[17.018178,52.399102,76.461768],[17.018178,52.399102,76.461768],[17.018178,52.399102,76.461768],[17.018114,52.399003,77.161161],[17.018114,52.399003,77.161161],[17.018114,52.399003,77.161161],[17.018047,52.398898,77.924144],[17.018047,52.398898,77.924144],[17.018047,52.398898,77.924144],[17.017981,52.398789,78.607735],[17.017981,52.398789,78.607735],[17.017981,52.398789,78.607735],[17.017918,52.398679,79.395567],[17.017918,52.398679,79.395567],[17.017918,52.398679,79.395567],[17.017848,52.398569,80.368831],[17.017848,52.398569,80.368831],[17.017848,52.398569,80.368831],[17.017784,52.398458,81.397325],[17.017784,52.398458,81.397325],[17.017784,52.398458,81.397325],[17.017711,52.398348,81.873773],[17.017711,52.398348,81.873773],[17.017711,52.398348,81.873773],[17.017641,52.398244,81.452066],[17.017641,52.398244,81.452066],[17.017641,52.398244,81.452066],[17.017573,52.398133,82.046326],[17.017573,52.398133,82.046326],[17.017573,52.398133,82.046326],[17.017506,52.398011,82.537145],[17.017506,52.398011,82.537145],[17.017506,52.398011,82.537145],[17.017423,52.397885,83.306223],[17.017423,52.397885,83.306223],[17.017423,52.397885,83.306223],[17.017344,52.39775,83.854068],[17.017344,52.39775,83.854068],[17.017344,52.39775,83.854068],[17.017246,52.397609,84.309719],[17.017246,52.397609,84.309719],[17.017246,52.397609,84.309719],[17.017162,52.397471,84.618764],[17.017162,52.397471,84.618764],[17.017162,52.397471,84.618764],[17.01707,52.397328,84.871879],[17.01707,52.397328,84.871879],[17.01707,52.397328,84.871879],[17.016979,52.397179,84.940191],[17.016979,52.397179,84.940191],[17.016979,52.397179,84.940191],[17.016877,52.397034,84.945351],[17.016877,52.397034,84.945351],[17.016877,52.397034,84.945351],[17.016777,52.396896,85.107649],[17.016777,52.396896,85.107649],[17.016777,52.396896,85.107649],[17.016676,52.396765,85.217656],[17.016676,52.396765,85.217656],[17.016676,52.396765,85.217656],[17.016554,52.396646,85.269809],[17.016554,52.396646,85.269809],[17.016554,52.396646,85.269809],[17.016478,52.396517,85.010698],[17.016478,52.396517,85.010698],[17.016478,52.396517,85.010698],[17.016375,52.396399,84.646871],[17.016375,52.396399,84.646871],[17.016375,52.396399,84.646871],[17.016272,52.396284,83.994873],[17.016272,52.396284,83.994873],[17.016272,52.396284,83.994873],[17.016163,52.396173,83.503614],[17.016163,52.396173,83.503614],[17.016163,52.396173,83.503614],[17.016054,52.396063,82.926192],[17.016054,52.396063,82.926192],[17.016054,52.396063,82.926192],[17.015948,52.395955,82.452031],[17.015948,52.395955,82.452031],[17.015948,52.395955,82.452031],[17.015838,52.395849,81.819464],[17.015838,52.395849,81.819464],[17.015838,52.395849,81.819464],[17.015733,52.395745,80.985038],[17.015733,52.395745,80.985038],[17.015733,52.395745,80.985038],[17.015624,52.395639,80.276448],[17.015624,52.395639,80.276448],[17.015624,52.395639,80.276448],[17.015515,52.395533,79.244141],[17.015515,52.395533,79.244141],[17.015515,52.395533,79.244141],[17.015408,52.395425,78.168721],[17.015408,52.395425,78.168721],[17.015408,52.395425,78.168721],[17.0153,52.395317,76.956437],[17.0153,52.395317,76.956437],[17.0153,52.395317,76.956437],[17.015185,52.395217,75.774223],[17.015185,52.395217,75.774223],[17.015185,52.395217,75.774223],[17.015072,52.395119,75.049948],[17.015072,52.395119,75.049948],[17.015072,52.395119,75.049948],[17.014956,52.39502,74.098269],[17.014956,52.39502,74.098269],[17.014956,52.39502,74.098269],[17.014823,52.394927,73.435003],[17.014823,52.394927,73.435003],[17.014823,52.394927,73.435003],[17.014677,52.394837,72.792502],[17.014677,52.394837,72.792502],[17.014677,52.394837,72.792502],[17.014536,52.39475,72.769717],[17.014536,52.39475,72.769717],[17.014536,52.39475,72.769717],[17.0144,52.394661,72.504994],[17.0144,52.394661,72.504994],[17.0144,52.394661,72.504994],[17.01428,52.394573,72.490359],[17.01428,52.394573,72.490359],[17.01428,52.394573,72.490359],[17.014183,52.394479,72.989034],[17.014183,52.394479,72.989034],[17.014183,52.394479,72.989034],[17.014127,52.39438,73.32843],[17.014127,52.39438,73.32843],[17.014127,52.39438,73.32843],[17.014097,52.394278,73.853153],[17.014097,52.394278,73.853153],[17.014097,52.394278,73.853153],[17.014115,52.394159,74.333189],[17.014115,52.394159,74.333189],[17.014115,52.394159,74.333189],[17.014159,52.394051,74.90674],[17.014159,52.394051,74.90674],[17.014159,52.394051,74.90674],[17.014208,52.393945,75.579964],[17.014208,52.393945,75.579964],[17.014208,52.393945,75.579964],[17.014251,52.393844,76.273883],[17.014251,52.393844,76.273883],[17.014251,52.393844,76.273883],[17.014295,52.39375,77.026971],[17.014295,52.39375,77.026971],[17.014295,52.39375,77.026971],[17.014339,52.393656,77.989257],[17.014339,52.393656,77.989257],[17.014339,52.393656,77.989257],[17.014385,52.393561,79.301035],[17.014385,52.393561,79.301035],[17.014385,52.393561,79.301035],[17.01444,52.393463,80.761453],[17.01444,52.393463,80.761453],[17.01444,52.393463,80.761453],[17.014493,52.393374,82.05382],[17.014493,52.393374,82.05382],[17.014493,52.393374,82.05382],[17.014577,52.39329,83.599647],[17.014577,52.39329,83.599647],[17.014577,52.39329,83.599647],[17.014689,52.39321,84.901886],[17.014689,52.39321,84.901886],[17.014689,52.39321,84.901886],[17.014825,52.393148,85.823031],[17.014825,52.393148,85.823031],[17.014825,52.393148,85.823031],[17.01496,52.393111,86.242439],[17.01496,52.393111,86.242439],[17.01496,52.393111,86.242439],[17.015092,52.393071,86.361403],[17.015092,52.393071,86.361403],[17.015092,52.393071,86.361403],[17.01531,52.393032,86.477121],[17.01531,52.393032,86.477121],[17.01531,52.393032,86.477121],[17.015406,52.392957,86.309286],[17.015406,52.392957,86.309286],[17.015406,52.392957,86.309286],[17.01526,52.392831,85.902851],[17.01526,52.392831,85.902851],[17.01526,52.392831,85.902851],[17.015054,52.392771,84.984187],[17.015054,52.392771,84.984187],[17.015054,52.392771,84.984187],[17.014901,52.392784,84.090573],[17.014901,52.392784,84.090573],[17.014901,52.392784,84.090573],[17.014727,52.39272,83.082077],[17.014727,52.39272,83.082077],[17.014727,52.39272,83.082077],[17.014547,52.392692,82.875683],[17.014547,52.392692,82.875683],[17.014547,52.392692,82.875683],[17.014575,52.392587,83.073363],[17.014575,52.392587,83.073363],[17.014575,52.392587,83.073363],[17.01461,52.392464,83.097589],[17.01461,52.392464,83.097589],[17.01461,52.392464,83.097589],[17.014646,52.392293,83.635931],[17.014646,52.392293,83.635931],[17.014646,52.392293,83.635931],[17.014664,52.392203,83.894167],[17.014664,52.392203,83.894167],[17.014664,52.392203,83.894167],[17.014687,52.392106,83.960283],[17.014687,52.392106,83.960283],[17.014687,52.392106,83.960283],[17.014709,52.392013,84.255355],[17.014709,52.392013,84.255355],[17.014709,52.392013,84.255355],[17.014753,52.391837,84.755413],[17.014753,52.391837,84.755413],[17.014753,52.391837,84.755413],[17.014774,52.391747,85.197439],[17.014774,52.391747,85.197439],[17.014774,52.391747,85.197439],[17.014792,52.39165,85.05495],[17.014792,52.39165,85.05495],[17.014792,52.39165,85.05495],[17.014818,52.39154,85.41094],[17.014818,52.39154,85.41094],[17.014818,52.39154,85.41094],[17.014846,52.391429,85.703948],[17.014846,52.391429,85.703948],[17.014846,52.391429,85.703948],[17.014874,52.391319,85.958442],[17.014874,52.391319,85.958442],[17.014874,52.391319,85.958442],[17.014905,52.391199,86.213993],[17.014905,52.391199,86.213993],[17.014905,52.391199,86.213993],[17.014934,52.391083,86.384074],[17.014934,52.391083,86.384074],[17.014934,52.391083,86.384074],[17.014962,52.390976,86.37599],[17.014962,52.390976,86.37599],[17.014962,52.390976,86.37599],[17.014992,52.390878,86.277419],[17.014992,52.390878,86.277419],[17.014992,52.390878,86.277419],[17.015056,52.39072,85.914807],[17.015056,52.39072,85.914807],[17.015056,52.39072,85.914807],[17.015105,52.390579,85.902028],[17.015105,52.390579,85.902028],[17.015105,52.390579,85.902028],[17.015211,52.390495,85.609569],[17.015211,52.390495,85.609569],[17.015211,52.390495,85.609569],[17.01543,52.390511,82.717645],[17.01543,52.390511,82.717645],[17.01543,52.390511,82.717645],[17.015665,52.390614,82.332354],[17.015665,52.390614,82.332354],[17.015665,52.390614,82.332354],[17.015829,52.390647,82.460803],[17.015829,52.390647,82.460803],[17.015829,52.390647,82.460803],[17.016007,52.390683,82.573735],[17.016007,52.390683,82.573735],[17.016007,52.390683,82.573735],[17.016181,52.390712,82.620426],[17.016181,52.390712,82.620426],[17.016181,52.390712,82.620426],[17.016354,52.390747,82.532613],[17.016354,52.390747,82.532613],[17.016354,52.390747,82.532613],[17.016535,52.390779,82.554145],[17.016535,52.390779,82.554145],[17.016535,52.390779,82.554145],[17.016719,52.3908,82.399671],[17.016719,52.3908,82.399671],[17.016719,52.3908,82.399671],[17.016906,52.390816,82.318509],[17.016906,52.390816,82.318509],[17.016906,52.390816,82.318509],[17.017092,52.390829,82.264309],[17.017092,52.390829,82.264309],[17.017092,52.390829,82.264309],[17.017283,52.390843,82.390882],[17.017283,52.390843,82.390882],[17.017283,52.390843,82.390882],[17.017475,52.390852,82.173638],[17.017475,52.390852,82.173638],[17.017475,52.390852,82.173638],[17.017673,52.390861,82.234339],[17.017673,52.390861,82.234339],[17.017673,52.390861,82.234339],[17.017874,52.390868,82.198074],[17.017874,52.390868,82.198074],[17.017874,52.390868,82.198074],[17.018079,52.390875,82.092564],[17.018079,52.390875,82.092564],[17.018079,52.390875,82.092564],[17.018287,52.390885,82.182973],[17.018287,52.390885,82.182973],[17.018287,52.390885,82.182973],[17.018494,52.390891,82.029812],[17.018494,52.390891,82.029812],[17.018494,52.390891,82.029812],[17.018711,52.390902,82.154696],[17.018711,52.390902,82.154696],[17.018711,52.390902,82.154696],[17.018934,52.390913,82.073815],[17.018934,52.390913,82.073815],[17.018934,52.390913,82.073815],[17.019168,52.390926,82.002902],[17.019168,52.390926,82.002902],[17.019168,52.390926,82.002902],[17.019408,52.390938,81.881083],[17.019408,52.390938,81.881083],[17.019408,52.390938,81.881083],[17.019651,52.390951,81.852609],[17.019651,52.390951,81.852609],[17.019651,52.390951,81.852609],[17.019889,52.390964,82.026347],[17.019889,52.390964,82.026347],[17.019889,52.390964,82.026347],[17.020118,52.390977,81.949648],[17.020118,52.390977,81.949648],[17.020118,52.390977,81.949648],[17.020338,52.390989,81.871703],[17.020338,52.390989,81.871703],[17.020338,52.390989,81.871703],[17.020554,52.390995,81.704552],[17.020554,52.390995,81.704552],[17.020554,52.390995,81.704552],[17.020768,52.390999,81.743944],[17.020768,52.390999,81.743944],[17.020768,52.390999,81.743944],[17.020982,52.391,81.653529],[17.020982,52.391,81.653529],[17.020982,52.391,81.653529],[17.021195,52.390993,81.414305],[17.021195,52.390993,81.414305],[17.021195,52.390993,81.414305],[17.02141,52.39098,81.412802],[17.02141,52.39098,81.412802],[17.02141,52.39098,81.412802],[17.021626,52.390961,81.696474],[17.021626,52.390961,81.696474],[17.021626,52.390961,81.696474],[17.021848,52.390933,81.845234],[17.021848,52.390933,81.845234],[17.021848,52.390933,81.845234],[17.022071,52.390898,81.762654],[17.022071,52.390898,81.762654],[17.022071,52.390898,81.762654],[17.022293,52.390854,81.816703],[17.022293,52.390854,81.816703],[17.022293,52.390854,81.816703],[17.022517,52.390802,81.761607],[17.022517,52.390802,81.761607],[17.022517,52.390802,81.761607],[17.022733,52.390745,81.735758],[17.022733,52.390745,81.735758],[17.022733,52.390745,81.735758],[17.022947,52.390678,81.705656],[17.022947,52.390678,81.705656],[17.022947,52.390678,81.705656],[17.023157,52.390611,81.645143],[17.023157,52.390611,81.645143],[17.023157,52.390611,81.645143],[17.023357,52.390536,81.622321],[17.023357,52.390536,81.622321],[17.023357,52.390536,81.622321],[17.023541,52.390455,81.568544],[17.023541,52.390455,81.568544],[17.023541,52.390455,81.568544],[17.023714,52.390375,81.64346],[17.023714,52.390375,81.64346],[17.023714,52.390375,81.64346],[17.023873,52.390285,81.450807],[17.023873,52.390285,81.450807],[17.023873,52.390285,81.450807],[17.024014,52.39019,81.329312],[17.024014,52.39019,81.329312],[17.024014,52.39019,81.329312],[17.024141,52.390088,81.229599],[17.024141,52.390088,81.229599],[17.024141,52.390088,81.229599],[17.024256,52.389988,81.35766],[17.024256,52.389988,81.35766],[17.024256,52.389988,81.35766],[17.024365,52.389892,81.344053],[17.024365,52.389892,81.344053],[17.024365,52.389892,81.344053],[17.024472,52.389798,81.699163],[17.024472,52.389798,81.699163],[17.024472,52.389798,81.699163],[17.024548,52.389697,81.804935],[17.024548,52.389697,81.804935],[17.024548,52.389697,81.804935],[17.024646,52.389618,82.303167],[17.024646,52.389618,82.303167],[17.024646,52.389618,82.303167],[17.024733,52.389543,82.708138],[17.024733,52.389543,82.708138],[17.024733,52.389543,82.708138],[17.024876,52.389415,83.097195],[17.024876,52.389415,83.097195],[17.024876,52.389415,83.097195],[17.02497,52.389331,83.602747],[17.02497,52.389331,83.602747],[17.02497,52.389331,83.602747],[17.025062,52.389257,82.805209],[17.025062,52.389257,82.805209],[17.025062,52.389257,82.805209],[17.025196,52.389142,81.946902],[17.025196,52.389142,81.946902],[17.025196,52.389142,81.946902],[17.025322,52.389036,81.896125],[17.025322,52.389036,81.896125],[17.025322,52.389036,81.896125],[17.02549,52.388892,82.227236],[17.02549,52.388892,82.227236],[17.02549,52.388892,82.227236],[17.025582,52.388809,82.809919],[17.025582,52.388809,82.809919],[17.025582,52.388809,82.809919],[17.025682,52.388718,83.394395],[17.025682,52.388718,83.394395],[17.025682,52.388718,83.394395],[17.025795,52.388618,83.769],[17.025795,52.388618,83.769],[17.025795,52.388618,83.769],[17.025918,52.388512,83.957519],[17.025918,52.388512,83.957519],[17.025918,52.388512,83.957519],[17.026042,52.388406,84.175504],[17.026042,52.388406,84.175504],[17.026042,52.388406,84.175504],[17.026173,52.388292,84.102877],[17.026173,52.388292,84.102877],[17.026173,52.388292,84.102877],[17.026311,52.388171,83.93214],[17.026311,52.388171,83.93214],[17.026311,52.388171,83.93214],[17.026457,52.388043,83.538338],[17.026457,52.388043,83.538338],[17.026457,52.388043,83.538338],[17.026602,52.387916,83.202702],[17.026602,52.387916,83.202702],[17.026602,52.387916,83.202702],[17.026747,52.387791,82.918352],[17.026747,52.387791,82.918352],[17.026747,52.387791,82.918352],[17.026884,52.387671,83.118641],[17.026884,52.387671,83.118641],[17.026884,52.387671,83.118641],[17.02701,52.387564,83.418086],[17.02701,52.387564,83.418086],[17.02701,52.387564,83.418086],[17.027126,52.387468,84.091094],[17.027126,52.387468,84.091094],[17.027126,52.387468,84.091094],[17.027223,52.387382,84.423268],[17.027223,52.387382,84.423268],[17.027223,52.387382,84.423268],[17.027372,52.38726,84.847841],[17.027372,52.38726,84.847841],[17.027372,52.38726,84.847841],[17.027491,52.387174,85.37601],[17.027491,52.387174,85.37601],[17.027491,52.387174,85.37601],[17.027751,52.387213,86.05379],[17.027751,52.387213,86.05379],[17.027751,52.387213,86.05379],[17.027957,52.387338,86.402511],[17.027957,52.387338,86.402511],[17.027957,52.387338,86.402511],[17.028165,52.387463,85.766557],[17.028165,52.387463,85.766557],[17.028165,52.387463,85.766557],[17.028277,52.38753,85.554691],[17.028277,52.38753,85.554691],[17.028277,52.38753,85.554691],[17.028393,52.387598,85.229244],[17.028393,52.387598,85.229244],[17.028393,52.387598,85.229244],[17.028515,52.387667,85.048514],[17.028515,52.387667,85.048514],[17.028515,52.387667,85.048514],[17.028699,52.387776,84.84573],[17.028699,52.387776,84.84573],[17.028699,52.387776,84.84573],[17.028864,52.38787,84.61961],[17.028864,52.38787,84.61961],[17.028864,52.38787,84.61961],[17.029016,52.387962,83.970221],[17.029016,52.387962,83.970221],[17.029016,52.387962,83.970221],[17.029154,52.388045,83.446725],[17.029154,52.388045,83.446725],[17.029154,52.388045,83.446725],[17.029278,52.388116,83.262948],[17.029278,52.388116,83.262948],[17.029278,52.388116,83.262948],[17.029417,52.388194,83.756692],[17.029417,52.388194,83.756692],[17.029417,52.388194,83.756692],[17.029594,52.388297,83.64366],[17.029594,52.388297,83.64366],[17.029594,52.388297,83.64366],[17.029781,52.388405,83.283944],[17.029781,52.388405,83.283944],[17.029781,52.388405,83.283944],[17.029995,52.388532,83.000516],[17.029995,52.388532,83.000516],[17.029995,52.388532,83.000516],[17.030121,52.388605,82.601978],[17.030121,52.388605,82.601978],[17.030121,52.388605,82.601978],[17.030254,52.388684,82.503663],[17.030254,52.388684,82.503663],[17.030254,52.388684,82.503663],[17.03039,52.388765,82.098519],[17.03039,52.388765,82.098519],[17.03039,52.388765,82.098519],[17.030528,52.388846,81.87719],[17.030528,52.388846,81.87719],[17.030528,52.388846,81.87719],[17.030671,52.388931,81.533069],[17.030671,52.388931,81.533069],[17.030671,52.388931,81.533069],[17.030823,52.389021,81.311015],[17.030823,52.389021,81.311015],[17.030823,52.389021,81.311015],[17.030976,52.38911,80.984775],[17.030976,52.38911,80.984775],[17.030976,52.38911,80.984775],[17.031124,52.389197,80.872807],[17.031124,52.389197,80.872807],[17.031124,52.389197,80.872807],[17.031262,52.389284,80.673344],[17.031262,52.389284,80.673344],[17.031262,52.389284,80.673344],[17.031388,52.389371,80.735703],[17.031388,52.389371,80.735703],[17.031388,52.389371,80.735703],[17.031509,52.389456,80.594538],[17.031509,52.389456,80.594538],[17.031509,52.389456,80.594538],[17.031628,52.389543,80.575772],[17.031628,52.389543,80.575772],[17.031628,52.389543,80.575772],[17.031747,52.38963,80.576702],[17.031747,52.38963,80.576702],[17.031747,52.38963,80.576702],[17.031865,52.389716,80.632941],[17.031865,52.389716,80.632941],[17.031865,52.389716,80.632941],[17.031986,52.389802,80.464038],[17.031986,52.389802,80.464038],[17.031986,52.389802,80.464038],[17.032109,52.38989,80.500705],[17.032109,52.38989,80.500705],[17.032109,52.38989,80.500705],[17.03223,52.389975,80.59499],[17.03223,52.389975,80.59499],[17.03223,52.389975,80.59499],[17.032339,52.390059,80.647046],[17.032339,52.390059,80.647046],[17.032339,52.390059,80.647046],[17.032435,52.390134,80.603332],[17.032435,52.390134,80.603332],[17.032435,52.390134,80.603332],[17.032592,52.390253,80.722154],[17.032592,52.390253,80.722154],[17.032592,52.390253,80.722154],[17.03269,52.390327,80.84452],[17.03269,52.390327,80.84452],[17.03269,52.390327,80.84452],[17.032794,52.390406,81.329895],[17.032794,52.390406,81.329895],[17.032794,52.390406,81.329895],[17.032924,52.390458,82.300803],[17.032924,52.390458,82.300803],[17.032924,52.390458,82.300803],[17.033136,52.390462,83.579335],[17.033136,52.390462,83.579335],[17.033136,52.390462,83.579335],[17.033304,52.390409,84.71959],[17.033304,52.390409,84.71959],[17.033304,52.390409,84.71959],[17.03353,52.390349,85.588696],[17.03353,52.390349,85.588696],[17.03353,52.390349,85.588696],[17.033723,52.390291,85.709668],[17.033723,52.390291,85.709668],[17.033723,52.390291,85.709668],[17.033874,52.390247,85.479522],[17.033874,52.390247,85.479522],[17.033874,52.390247,85.479522],[17.034062,52.390294,85.742213],[17.034062,52.390294,85.742213],[17.034062,52.390294,85.742213],[17.034184,52.390398,86.941613],[17.034184,52.390398,86.941613],[17.034184,52.390398,86.941613],[17.034356,52.390531,88.097106],[17.034356,52.390531,88.097106],[17.034356,52.390531,88.097106],[17.034452,52.390612,88.523916],[17.034452,52.390612,88.523916],[17.034452,52.390612,88.523916],[17.034558,52.390697,88.93994],[17.034558,52.390697,88.93994],[17.034558,52.390697,88.93994],[17.034665,52.390785,89.523391],[17.034665,52.390785,89.523391],[17.034665,52.390785,89.523391],[17.03477,52.390872,90.056587],[17.03477,52.390872,90.056587],[17.03477,52.390872,90.056587],[17.034867,52.390959,90.703142],[17.034867,52.390959,90.703142],[17.034867,52.390959,90.703142],[17.034959,52.391052,91.14752],[17.034959,52.391052,91.14752],[17.034959,52.391052,91.14752],[17.035042,52.39115,91.566961],[17.035042,52.39115,91.566961],[17.035042,52.39115,91.566961],[17.035112,52.391252,91.877987],[17.035112,52.391252,91.877987],[17.035112,52.391252,91.877987],[17.035174,52.391363,92.310721],[17.035174,52.391363,92.310721],[17.035174,52.391363,92.310721],[17.035221,52.391483,92.78052],[17.035221,52.391483,92.78052],[17.035221,52.391483,92.78052],[17.035267,52.391603,93.169505],[17.035267,52.391603,93.169505],[17.035267,52.391603,93.169505],[17.035314,52.391725,93.477599],[17.035314,52.391725,93.477599],[17.035314,52.391725,93.477599],[17.035367,52.391854,93.621398],[17.035367,52.391854,93.621398],[17.035367,52.391854,93.621398],[17.03541,52.391981,93.796021],[17.03541,52.391981,93.796021],[17.03541,52.391981,93.796021],[17.035454,52.392111,93.907544],[17.035454,52.392111,93.907544],[17.035454,52.392111,93.907544],[17.035501,52.392241,94.161204],[17.035501,52.392241,94.161204],[17.035501,52.392241,94.161204],[17.035548,52.392375,94.24381],[17.035548,52.392375,94.24381],[17.035548,52.392375,94.24381],[17.035597,52.392514,94.31645],[17.035597,52.392514,94.31645],[17.035597,52.392514,94.31645],[17.035644,52.39265,94.24556],[17.035644,52.39265,94.24556],[17.035644,52.39265,94.24556],[17.035694,52.392787,94.37174],[17.035694,52.392787,94.37174],[17.035694,52.392787,94.37174],[17.035741,52.39292,94.12015],[17.035741,52.39292,94.12015],[17.035741,52.39292,94.12015],[17.035791,52.393057,93.819274],[17.035791,52.393057,93.819274],[17.035791,52.393057,93.819274],[17.035833,52.39319,93.455663],[17.035833,52.39319,93.455663],[17.035833,52.39319,93.455663],[17.035872,52.393323,93.019769],[17.035872,52.393323,93.019769],[17.035872,52.393323,93.019769],[17.03592,52.393452,92.779373],[17.03592,52.393452,92.779373],[17.03592,52.393452,92.779373],[17.03598,52.39358,92.420132],[17.03598,52.39358,92.420132],[17.03598,52.39358,92.420132],[17.036051,52.393716,92.183175],[17.036051,52.393716,92.183175],[17.036051,52.393716,92.183175],[17.036143,52.393848,91.5912],[17.036143,52.393848,91.5912],[17.036143,52.393848,91.5912],[17.036257,52.393975,91.001201],[17.036257,52.393975,91.001201],[17.036257,52.393975,91.001201],[17.036384,52.394096,90.584748],[17.036384,52.394096,90.584748],[17.036384,52.394096,90.584748],[17.03653,52.394217,90.748295],[17.03653,52.394217,90.748295],[17.03653,52.394217,90.748295],[17.03669,52.394314,89.950568],[17.03669,52.394314,89.950568],[17.03669,52.394314,89.950568],[17.036858,52.394413,89.643941],[17.036858,52.394413,89.643941],[17.036858,52.394413,89.643941],[17.037015,52.394504,89.437498],[17.037015,52.394504,89.437498],[17.037015,52.394504,89.437498],[17.037166,52.39459,89.181129],[17.037166,52.39459,89.181129],[17.037166,52.39459,89.181129],[17.037316,52.394676,88.851182],[17.037316,52.394676,88.851182],[17.037316,52.394676,88.851182],[17.037471,52.394764,88.469937],[17.037471,52.394764,88.469937],[17.037471,52.394764,88.469937],[17.037625,52.394853,88.030072],[17.037625,52.394853,88.030072],[17.037625,52.394853,88.030072],[17.037782,52.394943,87.78056],[17.037782,52.394943,87.78056],[17.037782,52.394943,87.78056],[17.037943,52.395036,87.685851],[17.037943,52.395036,87.685851],[17.037943,52.395036,87.685851],[17.038108,52.395133,87.663709],[17.038108,52.395133,87.663709],[17.038108,52.395133,87.663709],[17.038278,52.39523,87.6137],[17.038278,52.39523,87.6137],[17.038278,52.39523,87.6137],[17.03845,52.395329,87.670826],[17.03845,52.395329,87.670826],[17.03845,52.395329,87.670826],[17.038625,52.395426,87.68219],[17.038625,52.395426,87.68219],[17.038625,52.395426,87.68219],[17.03881,52.395519,88.014378],[17.03881,52.395519,88.014378],[17.03881,52.395519,88.014378],[17.039,52.395613,88.218669],[17.039,52.395613,88.218669],[17.039,52.395613,88.218669],[17.039197,52.395707,88.600061],[17.039197,52.395707,88.600061],[17.039197,52.395707,88.600061],[17.039399,52.395805,88.926065],[17.039399,52.395805,88.926065],[17.039399,52.395805,88.926065],[17.039604,52.395902,89.115351],[17.039604,52.395902,89.115351],[17.039604,52.395902,89.115351],[17.039812,52.396,89.049126],[17.039812,52.396,89.049126],[17.039812,52.396,89.049126],[17.040018,52.396092,88.859815],[17.040018,52.396092,88.859815],[17.040018,52.396092,88.859815],[17.040221,52.396184,88.86151],[17.040221,52.396184,88.86151],[17.040221,52.396184,88.86151],[17.040427,52.396276,89.024783],[17.040427,52.396276,89.024783],[17.040427,52.396276,89.024783],[17.040633,52.396371,89.19216],[17.040633,52.396371,89.19216],[17.040633,52.396371,89.19216],[17.040844,52.396466,89.510312],[17.040844,52.396466,89.510312],[17.040844,52.396466,89.510312],[17.041057,52.396562,89.697782],[17.041057,52.396562,89.697782],[17.041057,52.396562,89.697782],[17.041276,52.396658,89.758919],[17.041276,52.396658,89.758919],[17.041276,52.396658,89.758919],[17.041498,52.396755,89.746722],[17.041498,52.396755,89.746722],[17.041498,52.396755,89.746722],[17.041722,52.396853,89.775348],[17.041722,52.396853,89.775348],[17.041722,52.396853,89.775348],[17.041951,52.39695,89.730396],[17.041951,52.39695,89.730396],[17.041951,52.39695,89.730396],[17.04218,52.397049,89.342459],[17.04218,52.397049,89.342459],[17.04218,52.397049,89.342459],[17.042413,52.397151,89.358777],[17.042413,52.397151,89.358777],[17.042413,52.397151,89.358777],[17.04264,52.397255,89.774962],[17.04264,52.397255,89.774962],[17.04264,52.397255,89.774962],[17.042865,52.397351,89.778919],[17.042865,52.397351,89.778919],[17.042865,52.397351,89.778919],[17.043084,52.397446,89.702586],[17.043084,52.397446,89.702586],[17.043084,52.397446,89.702586],[17.043297,52.397541,90.021573],[17.043297,52.397541,90.021573],[17.043297,52.397541,90.021573],[17.043514,52.397634,90.053939],[17.043514,52.397634,90.053939],[17.043514,52.397634,90.053939],[17.043727,52.397728,89.948577],[17.043727,52.397728,89.948577],[17.043727,52.397728,89.948577],[17.043935,52.397818,89.87589],[17.043935,52.397818,89.87589],[17.043935,52.397818,89.87589],[17.044144,52.397905,89.807573],[17.044144,52.397905,89.807573],[17.044144,52.397905,89.807573],[17.044356,52.397993,89.707521],[17.044356,52.397993,89.707521],[17.044356,52.397993,89.707521],[17.044563,52.39808,89.505071],[17.044563,52.39808,89.505071],[17.044563,52.39808,89.505071],[17.04477,52.398159,89.399109],[17.04477,52.398159,89.399109],[17.04477,52.398159,89.399109],[17.044983,52.398224,89.170249],[17.044983,52.398224,89.170249],[17.044983,52.398224,89.170249],[17.045191,52.398278,88.955545],[17.045191,52.398278,88.955545],[17.045191,52.398278,88.955545],[17.045391,52.398328,88.442954],[17.045391,52.398328,88.442954],[17.045391,52.398328,88.442954],[17.045574,52.398376,87.982708],[17.045574,52.398376,87.982708],[17.045574,52.398376,87.982708],[17.045742,52.39843,87.618623],[17.045742,52.39843,87.618623],[17.045742,52.39843,87.618623],[17.045874,52.39848,87.349401],[17.045874,52.39848,87.349401],[17.045874,52.39848,87.349401],[17.046063,52.398536,86.688511],[17.046063,52.398536,86.688511],[17.046063,52.398536,86.688511],[17.046223,52.398422,85.912384],[17.046223,52.398422,85.912384],[17.046223,52.398422,85.912384],[17.046386,52.398305,85.331647],[17.046386,52.398305,85.331647],[17.046386,52.398305,85.331647],[17.04658,52.398171,84.801557],[17.04658,52.398171,84.801557],[17.04658,52.398171,84.801557],[17.046763,52.398046,84.612636],[17.046763,52.398046,84.612636],[17.046763,52.398046,84.612636],[17.046901,52.397951,84.33938],[17.046901,52.397951,84.33938],[17.046901,52.397951,84.33938],[17.047001,52.397883,84.367883],[17.047001,52.397883,84.367883],[17.047001,52.397883,84.367883],[17.047164,52.397795,84.451561],[17.047164,52.397795,84.451561],[17.047164,52.397795,84.451561],[17.047331,52.397672,84.712752],[17.047331,52.397672,84.712752],[17.047331,52.397672,84.712752],[17.047475,52.397573,84.504766],[17.047475,52.397573,84.504766],[17.047475,52.397573,84.504766],[17.047587,52.3975,84.192511],[17.047587,52.3975,84.192511],[17.047587,52.3975,84.192511],[17.047733,52.397401,84.321183],[17.047733,52.397401,84.321183],[17.047733,52.397401,84.321183],[17.047878,52.397303,84.126406],[17.047878,52.397303,84.126406],[17.047878,52.397303,84.126406],[17.048008,52.397212,83.867014],[17.048008,52.397212,83.867014],[17.048008,52.397212,83.867014],[17.048152,52.397112,84.289639],[17.048152,52.397112,84.289639],[17.048152,52.397112,84.289639],[17.048323,52.396987,84.482058],[17.048323,52.396987,84.482058],[17.048323,52.396987,84.482058],[17.048506,52.396857,84.506664],[17.048506,52.396857,84.506664],[17.048506,52.396857,84.506664],[17.048648,52.396759,84.593316],[17.048648,52.396759,84.593316],[17.048648,52.396759,84.593316],[17.048779,52.396669,84.563555],[17.048779,52.396669,84.563555],[17.048779,52.396669,84.563555],[17.048946,52.396562,84.87282],[17.048946,52.396562,84.87282],[17.048946,52.396562,84.87282],[17.049129,52.396444,84.913544],[17.049129,52.396444,84.913544],[17.049129,52.396444,84.913544],[17.049296,52.396325,84.769531],[17.049296,52.396325,84.769531],[17.049296,52.396325,84.769531],[17.049429,52.396236,84.640416],[17.049429,52.396236,84.640416],[17.049429,52.396236,84.640416],[17.049558,52.396157,84.948984],[17.049558,52.396157,84.948984],[17.049558,52.396157,84.948984],[17.049724,52.396059,84.988549],[17.049724,52.396059,84.988549],[17.049724,52.396059,84.988549],[17.04991,52.395944,84.864789],[17.04991,52.395944,84.864789],[17.04991,52.395944,84.864789],[17.050092,52.395848,84.671719],[17.050092,52.395848,84.671719],[17.050092,52.395848,84.671719],[17.050227,52.395778,84.412671],[17.050227,52.395778,84.412671],[17.050227,52.395778,84.412671],[17.050398,52.395695,84.462561],[17.050398,52.395695,84.462561],[17.050398,52.395695,84.462561],[17.050618,52.395605,84.483248],[17.050618,52.395605,84.483248],[17.050618,52.395605,84.483248],[17.050859,52.395522,84.399276],[17.050859,52.395522,84.399276],[17.050859,52.395522,84.399276],[17.051018,52.39547,84.077443],[17.051018,52.39547,84.077443],[17.051018,52.39547,84.077443],[17.051193,52.395409,83.911278],[17.051193,52.395409,83.911278],[17.051193,52.395409,83.911278],[17.05134,52.395358,83.850193],[17.05134,52.395358,83.850193],[17.05134,52.395358,83.850193],[17.051364,52.395265,84.463333],[17.051364,52.395265,84.463333],[17.051364,52.395265,84.463333],[17.051334,52.395167,84.536003],[17.051334,52.395167,84.536003],[17.051334,52.395167,84.536003],[17.051282,52.395065,84.524802],[17.051282,52.395065,84.524802],[17.051282,52.395065,84.524802],[17.051206,52.394967,84.624439],[17.051206,52.394967,84.624439],[17.051206,52.394967,84.624439],[17.051161,52.394836,84.734378],[17.051161,52.394836,84.734378],[17.051161,52.394836,84.734378],[17.051092,52.394724,84.641582],[17.051092,52.394724,84.641582],[17.051092,52.394724,84.641582],[17.051036,52.394629,84.591222],[17.051036,52.394629,84.591222],[17.051036,52.394629,84.591222],[17.051193,52.394587,84.745081],[17.051193,52.394587,84.745081],[17.051193,52.394587,84.745081],[17.051412,52.394565,84.93598],[17.051412,52.394565,84.93598],[17.051412,52.394565,84.93598],[17.051683,52.39454,85.28377],[17.051683,52.39454,85.28377],[17.051683,52.39454,85.28377],[17.051966,52.394518,85.30467],[17.051966,52.394518,85.30467],[17.051966,52.394518,85.30467],[17.052229,52.394497,85.25149],[17.052229,52.394497,85.25149],[17.052229,52.394497,85.25149],[17.052496,52.394475,85.06645],[17.052496,52.394475,85.06645],[17.052496,52.394475,85.06645],[17.052649,52.394463,85.048428],[17.052649,52.394463,85.048428],[17.052649,52.394463,85.048428],[17.052809,52.39445,85.13431],[17.052809,52.39445,85.13431],[17.052809,52.39445,85.13431],[17.05298,52.394436,85.245464],[17.05298,52.394436,85.245464],[17.05298,52.394436,85.245464],[17.053152,52.394422,85.299274],[17.053152,52.394422,85.299274],[17.053152,52.394422,85.299274],[17.053319,52.394409,85.362465],[17.053319,52.394409,85.362465],[17.053319,52.394409,85.362465],[17.053478,52.394393,85.368534],[17.053478,52.394393,85.368534],[17.053478,52.394393,85.368534],[17.053627,52.394381,85.365685],[17.053627,52.394381,85.365685],[17.053627,52.394381,85.365685],[17.053883,52.394361,85.741866],[17.053883,52.394361,85.741866],[17.053883,52.394361,85.741866],[17.05414,52.39434,86.08638],[17.05414,52.39434,86.08638],[17.05414,52.39434,86.08638],[17.054399,52.394326,86.481421],[17.054399,52.394326,86.481421],[17.054399,52.394326,86.481421],[17.054659,52.394307,86.51368],[17.054659,52.394307,86.51368],[17.054659,52.394307,86.51368],[17.054928,52.394272,86.364025],[17.054928,52.394272,86.364025],[17.054928,52.394272,86.364025],[17.055195,52.394252,86.559979],[17.055195,52.394252,86.559979],[17.055195,52.394252,86.559979],[17.055447,52.394239,86.797955],[17.055447,52.394239,86.797955],[17.055447,52.394239,86.797955],[17.05573,52.394222,87.211662],[17.05573,52.394222,87.211662],[17.05573,52.394222,87.211662],[17.055881,52.394213,87.074508],[17.055881,52.394213,87.074508],[17.055881,52.394213,87.074508],[17.056045,52.394206,86.982707],[17.056045,52.394206,86.982707],[17.056045,52.394206,86.982707],[17.056213,52.394201,86.969789],[17.056213,52.394201,86.969789],[17.056213,52.394201,86.969789],[17.056369,52.394195,86.760707],[17.056369,52.394195,86.760707],[17.056369,52.394195,86.760707],[17.056642,52.394184,86.939227],[17.056642,52.394184,86.939227],[17.056642,52.394184,86.939227],[17.056914,52.394174,86.876654],[17.056914,52.394174,86.876654],[17.056914,52.394174,86.876654],[17.057067,52.394169,86.99223],[17.057067,52.394169,86.99223],[17.057067,52.394169,86.99223],[17.057224,52.394162,87.31269],[17.057224,52.394162,87.31269],[17.057224,52.394162,87.31269],[17.057379,52.394158,87.577853],[17.057379,52.394158,87.577853],[17.057379,52.394158,87.577853],[17.057635,52.39414,88.34948],[17.057635,52.39414,88.34948],[17.057635,52.39414,88.34948],[17.057818,52.394129,88.840303],[17.057818,52.394129,88.840303],[17.057818,52.394129,88.840303],[17.057948,52.394227,88.819632],[17.057948,52.394227,88.819632],[17.057948,52.394227,88.819632],[17.057911,52.394349,89.210808],[17.057911,52.394349,89.210808],[17.057911,52.394349,89.210808],[17.057871,52.394493,89.401538],[17.057871,52.394493,89.401538],[17.057871,52.394493,89.401538],[17.057846,52.394592,89.523676],[17.057846,52.394592,89.523676],[17.057846,52.394592,89.523676],[17.05781,52.39471,89.426838],[17.05781,52.39471,89.426838],[17.05781,52.39471,89.426838],[17.057775,52.394822,89.635271],[17.057775,52.394822,89.635271],[17.057775,52.394822,89.635271],[17.057813,52.394917,89.463537],[17.057813,52.394917,89.463537],[17.057813,52.394917,89.463537],[17.057976,52.394938,89.394741],[17.057976,52.394938,89.394741],[17.057976,52.394938,89.394741],[17.0582,52.394973,89.333831],[17.0582,52.394973,89.333831],[17.0582,52.394973,89.333831],[17.058468,52.395011,89.649567],[17.058468,52.395011,89.649567],[17.058468,52.395011,89.649567],[17.058615,52.395033,89.805428],[17.058615,52.395033,89.805428],[17.058615,52.395033,89.805428],[17.058769,52.395055,89.858211],[17.058769,52.395055,89.858211],[17.058769,52.395055,89.858211],[17.058935,52.395079,90.000681],[17.058935,52.395079,90.000681],[17.058935,52.395079,90.000681],[17.059105,52.395105,90.105121],[17.059105,52.395105,90.105121],[17.059105,52.395105,90.105121],[17.059275,52.39513,90.261837],[17.059275,52.39513,90.261837],[17.059275,52.39513,90.261837],[17.059443,52.395138,90.237054],[17.059443,52.395138,90.237054],[17.059443,52.395138,90.237054],[17.059599,52.395159,90.347415],[17.059599,52.395159,90.347415],[17.059599,52.395159,90.347415],[17.059742,52.395178,90.376657],[17.059742,52.395178,90.376657],[17.059742,52.395178,90.376657],[17.059986,52.395211,90.515717],[17.059986,52.395211,90.515717],[17.059986,52.395211,90.515717],[17.060167,52.395247,90.476631],[17.060167,52.395247,90.476631],[17.060167,52.395247,90.476631],[17.060312,52.395267,90.671943],[17.060312,52.395267,90.671943],[17.060312,52.395267,90.671943],[17.060505,52.395281,90.937869],[17.060505,52.395281,90.937869],[17.060505,52.395281,90.937869],[17.060662,52.395302,91.320709],[17.060662,52.395302,91.320709],[17.060662,52.395302,91.320709],[17.060671,52.395304,91.32076],[17.060671,52.395304,91.32076],[17.060671,52.395304,91.32076]]}},{"type":"Feature","properties":{"name":"Start","time":"2026-07-22T13:07:46Z"},"geometry":{"type":"Point","coordinates":[17.020611,52.411539,87.056648]}},{"type":"Feature","properties":{"name":"End","time":"2026-07-22T13:22:51Z"},"geometry":{"type":"Point","coordinates":[17.060671,52.395304,91.32076]}}]}