{"type":"FeatureCollection","features":[{"type":"Feature","geometry":{"type":"Point","coordinates":[21.0122287,52.2296756,0]},"properties":{"name":"Warszawa","styleUrl":"#icon-1899-0288D1-nodesc","icon-opacity":1,"icon-color":"#0288d1","icon-scale":1,"icon-offset":[32,64],"icon-offset-units":["pixels","insetPixels"],"icon":"https://www.gstatic.com/mapspro/images/stock/503-wht-blank_maps.png"}},{"type":"Feature","geometry":{"type":"Point","coordinates":[18.6466384,54.3520252,0]},"properties":{"name":"Gdańsk","styleUrl":"#icon-1899-0288D1-nodesc","icon-opacity":1,"icon-color":"#0288d1","icon-scale":1,"icon-offset":[32,64],"icon-offset-units":["pixels","insetPixels"],"icon":"https://www.gstatic.com/mapspro/images/stock/503-wht-blank_maps.png"}},{"type":"Feature","geometry":{"type":"Point","coordinates":[19.0237815,50.2648919,0]},"properties":{"name":"Katowice","styleUrl":"#icon-1899-0288D1-nodesc","icon-opacity":1,"icon-color":"#0288d1","icon-scale":1,"icon-offset":[32,64],"icon-offset-units":["pixels","insetPixels"],"icon":"https://www.gstatic.com/mapspro/images/stock/503-wht-blank_maps.png"}},{"type":"Feature","geometry":{"type":"Point","coordinates":[19.4558778,51.7592924,0]},"properties":{"name":"Łódź","styleUrl":"#icon-1899-0288D1-nodesc","icon-opacity":1,"icon-color":"#0288d1","icon-scale":1,"icon-offset":[32,64],"icon-offset-units":["pixels","insetPixels"],"icon":"https://www.gstatic.com/mapspro/images/stock/503-wht-blank_maps.png"}},{"type":"Feature","geometry":{"type":"Point","coordinates":[16.9312766,52.4056786,0]},"properties":{"name":"Poznań","styleUrl":"#icon-1899-0288D1-nodesc","icon-opacity":1,"icon-color":"#0288d1","icon-scale":1,"icon-offset":[32,64],"icon-offset-units":["pixels","insetPixels"],"icon":"https://www.gstatic.com/mapspro/images/stock/503-wht-blank_maps.png"}},{"type":"Feature","geometry":{"type":"Point","coordinates":[18.5984437,53.0137902,0]},"properties":{"name":"Toruń","styleUrl":"#icon-1899-0288D1-nodesc","icon-opacity":1,"icon-color":"#0288d1","icon-scale":1,"icon-offset":[32,64],"icon-offset-units":["pixels","insetPixels"],"icon":"https://www.gstatic.com/mapspro/images/stock/503-wht-blank_maps.png"}},{"type":"Feature","geometry":{"type":"Point","coordinates":[20.4826052,49.4251093,0]},"properties":{"name":"Szczawnica","styleUrl":"#icon-1899-0288D1-nodesc","icon-opacity":1,"icon-color":"#0288d1","icon-scale":1,"icon-offset":[32,64],"icon-offset-units":["pixels","insetPixels"],"icon":"https://www.gstatic.com/mapspro/images/stock/503-wht-blank_maps.png"}},{"type":"Feature","geometry":{"type":"Point","coordinates":[20.4801193,53.778422,0]},"properties":{"name":"Olsztyn","styleUrl":"#icon-1899-0288D1-nodesc","icon-opacity":1,"icon-color":"#0288d1","icon-scale":1,"icon-offset":[32,64],"icon-offset-units":["pixels","insetPixels"],"icon":"https://www.gstatic.com/mapspro/images/stock/503-wht-blank_maps.png"}},{"type":"Feature","geometry":{"type":"Point","coordinates":[22.5747275,51.2509458,0]},"properties":{"name":"Lublin","styleUrl":"#icon-1899-0288D1-nodesc","icon-opacity":1,"icon-color":"#0288d1","icon-scale":1,"icon-offset":[32,64],"icon-offset-units":["pixels","insetPixels"],"icon":"https://www.gstatic.com/mapspro/images/stock/503-wht-blank_maps.png"}},{"type":"Feature","geometry":{"type":"Point","coordinates":[18.2199165,50.0915234,0]},"properties":{"name":"Racibórz","styleUrl":"#icon-1899-0288D1-nodesc","icon-opacity":1,"icon-color":"#0288d1","icon-scale":1,"icon-offset":[32,64],"icon-offset-units":["pixels","insetPixels"],"icon":"https://www.gstatic.com/mapspro/images/stock/503-wht-blank_maps.png"}},{"type":"Feature","geometry":{"type":"Point","coordinates":[21.8025088,52.1655883,0]},"properties":{"name":"Mrozy","styleUrl":"#icon-1899-0288D1-nodesc","icon-opacity":1,"icon-color":"#0288d1","icon-scale":1,"icon-offset":[32,64],"icon-offset-units":["pixels","insetPixels"],"icon":"https://www.gstatic.com/mapspro/images/stock/503-wht-blank_maps.png"}},{"type":"Feature","geometry":{"type":"Point","coordinates":[14.8057779,52.563421,0]},"properties":{"name":"Słońsk","styleUrl":"#icon-1899-0288D1-nodesc","icon-opacity":1,"icon-color":"#0288d1","icon-scale":1,"icon-offset":[32,64],"icon-offset-units":["pixels","insetPixels"],"icon":"https://www.gstatic.com/mapspro/images/stock/503-wht-blank_maps.png"}},{"type":"Feature","geometry":{"type":"Point","coordinates":[20.8373368,52.2211686,0]},"properties":{"name":"Bronisze","styleUrl":"#icon-1899-0288D1-nodesc","icon-opacity":1,"icon-color":"#0288d1","icon-scale":1,"icon-offset":[32,64],"icon-offset-units":["pixels","insetPixels"],"icon":"https://www.gstatic.com/mapspro/images/stock/503-wht-blank_maps.png"}},{"type":"Feature","geometry":{"type":"Point","coordinates":[15.7742,53.77564,0]},"properties":{"name":"Świdwin","styleUrl":"#icon-1899-0288D1-nodesc","icon-opacity":1,"icon-color":"#0288d1","icon-scale":1,"icon-offset":[32,64],"icon-offset-units":["pixels","insetPixels"],"icon":"https://www.gstatic.com/mapspro/images/stock/503-wht-blank_maps.png"}},{"type":"Feature","geometry":{"type":"Point","coordinates":[19.9449799,50.0646501,0]},"properties":{"name":"Kraków","styleUrl":"#icon-1899-0288D1-nodesc","icon-opacity":1,"icon-color":"#0288d1","icon-scale":1,"icon-offset":[32,64],"icon-offset-units":["pixels","insetPixels"],"icon":"https://www.gstatic.com/mapspro/images/stock/503-wht-blank_maps.png"}},{"type":"Feature","geometry":{"type":"Point","coordinates":[19.1251165,49.6305149,0]},"properties":{"name":"Przybędza","styleUrl":"#icon-1899-0288D1-nodesc","icon-opacity":1,"icon-color":"#0288d1","icon-scale":1,"icon-offset":[32,64],"icon-offset-units":["pixels","insetPixels"],"icon":"https://www.gstatic.com/mapspro/images/stock/503-wht-blank_maps.png"}},{"type":"Feature","geometry":{"type":"Point","coordinates":[18.5156624,54.3240784,0]},"properties":{"name":"Otomin","styleUrl":"#icon-1899-0288D1-nodesc","icon-opacity":1,"icon-color":"#0288d1","icon-scale":1,"icon-offset":[32,64],"icon-offset-units":["pixels","insetPixels"],"icon":"https://www.gstatic.com/mapspro/images/stock/503-wht-blank_maps.png"}},{"type":"Feature","geometry":{"type":"Point","coordinates":[19.9495621,49.299181,0]},"properties":{"name":"Zakopane","styleUrl":"#icon-1899-0288D1-nodesc","icon-opacity":1,"icon-color":"#0288d1","icon-scale":1,"icon-offset":[32,64],"icon-offset-units":["pixels","insetPixels"],"icon":"https://www.gstatic.com/mapspro/images/stock/503-wht-blank_maps.png"}},{"type":"Feature","geometry":{"type":"Point","coordinates":[19.0200022,50.1218007,0]},"properties":{"name":"Tychy","styleUrl":"#icon-1899-0288D1-nodesc","icon-opacity":1,"icon-color":"#0288d1","icon-scale":1,"icon-offset":[32,64],"icon-offset-units":["pixels","insetPixels"],"icon":"https://www.gstatic.com/mapspro/images/stock/503-wht-blank_maps.png"}},{"type":"Feature","geometry":{"type":"Point","coordinates":[23.1688403,53.1324886,0]},"properties":{"name":"Białystok","styleUrl":"#icon-1899-0288D1-nodesc","icon-opacity":1,"icon-color":"#0288d1","icon-scale":1,"icon-offset":[32,64],"icon-offset-units":["pixels","insetPixels"],"icon":"https://www.gstatic.com/mapspro/images/stock/503-wht-blank_maps.png"}},{"type":"Feature","geometry":{"type":"Point","coordinates":[18.9476954,49.9777792,0]},"properties":{"name":"Pszczyna","styleUrl":"#icon-1899-0288D1-nodesc","icon-opacity":1,"icon-color":"#0288d1","icon-scale":1,"icon-offset":[32,64],"icon-offset-units":["pixels","insetPixels"],"icon":"https://www.gstatic.com/mapspro/images/stock/503-wht-blank_maps.png"}},{"type":"Feature","geometry":{"type":"Point","coordinates":[20.0086471,51.5311945,0]},"properties":{"name":"Tomaszów Mazowiecki","styleUrl":"#icon-1899-0288D1-nodesc","icon-opacity":1,"icon-color":"#0288d1","icon-scale":1,"icon-offset":[32,64],"icon-offset-units":["pixels","insetPixels"],"icon":"https://www.gstatic.com/mapspro/images/stock/503-wht-blank_maps.png"}},{"type":"Feature","geometry":{"type":"Point","coordinates":[20.0647971,49.9870619,0]},"properties":{"name":"Wieliczka","styleUrl":"#icon-1899-0288D1-nodesc","icon-opacity":1,"icon-color":"#0288d1","icon-scale":1,"icon-offset":[32,64],"icon-offset-units":["pixels","insetPixels"],"icon":"https://www.gstatic.com/mapspro/images/stock/503-wht-blank_maps.png"}},{"type":"Feature","geometry":{"type":"Point","coordinates":[22.7744294,49.7823132,0]},"properties":{"name":"Przemyśl","styleUrl":"#icon-1899-0288D1-nodesc","icon-opacity":1,"icon-color":"#0288d1","icon-scale":1,"icon-offset":[32,64],"icon-offset-units":["pixels","insetPixels"],"icon":"https://www.gstatic.com/mapspro/images/stock/503-wht-blank_maps.png"}},{"type":"Feature","geometry":{"type":"Point","coordinates":[22.2901645,52.1676031,0]},"properties":{"name":"Siedlce","styleUrl":"#icon-1899-0288D1-nodesc","icon-opacity":1,"icon-color":"#0288d1","icon-scale":1,"icon-offset":[32,64],"icon-offset-units":["pixels","insetPixels"],"icon":"https://www.gstatic.com/mapspro/images/stock/503-wht-blank_maps.png"}},{"type":"Feature","geometry":{"type":"Point","coordinates":[16.6515211,50.2967676,0]},"properties":{"name":"Bystrzyca Kłodzka","styleUrl":"#icon-1899-0288D1-nodesc","icon-opacity":1,"icon-color":"#0288d1","icon-scale":1,"icon-offset":[32,64],"icon-offset-units":["pixels","insetPixels"],"icon":"https://www.gstatic.com/mapspro/images/stock/503-wht-blank_maps.png"}},{"type":"Feature","geometry":{"type":"Point","coordinates":[20.9101049,52.0982045,0]},"properties":{"name":"Magdalenka","styleUrl":"#icon-1899-0288D1-nodesc","icon-opacity":1,"icon-color":"#0288d1","icon-scale":1,"icon-offset":[32,64],"icon-offset-units":["pixels","insetPixels"],"icon":"https://www.gstatic.com/mapspro/images/stock/503-wht-blank_maps.png"}},{"type":"Feature","geometry":{"type":"Point","coordinates":[18.9323043,53.7263529,0]},"properties":{"name":"Kwidzyn","styleUrl":"#icon-1899-0288D1-nodesc","icon-opacity":1,"icon-color":"#0288d1","icon-scale":1,"icon-offset":[32,64],"icon-offset-units":["pixels","insetPixels"],"icon":"https://www.gstatic.com/mapspro/images/stock/503-wht-blank_maps.png"}},{"type":"Feature","geometry":{"type":"Point","coordinates":[21.8790209,53.226552,0]},"properties":{"name":"Nowogród","styleUrl":"#icon-1899-0288D1-nodesc","icon-opacity":1,"icon-color":"#0288d1","icon-scale":1,"icon-offset":[32,64],"icon-offset-units":["pixels","insetPixels"],"icon":"https://www.gstatic.com/mapspro/images/stock/503-wht-blank_maps.png"}},{"type":"Feature","geometry":{"type":"Point","coordinates":[18.2562032,52.7993317,0]},"properties":{"name":"Inowrocław","styleUrl":"#icon-1899-0288D1-nodesc","icon-opacity":1,"icon-color":"#0288d1","icon-scale":1,"icon-offset":[32,64],"icon-offset-units":["pixels","insetPixels"],"icon":"https://www.gstatic.com/mapspro/images/stock/503-wht-blank_maps.png"}},{"type":"Feature","geometry":{"type":"Point","coordinates":[18.8460247,50.4359468,0]},"properties":{"name":"Tarnowskie Góry","styleUrl":"#icon-1899-0288D1-nodesc","icon-opacity":1,"icon-color":"#0288d1","icon-scale":1,"icon-offset":[32,64],"icon-offset-units":["pixels","insetPixels"],"icon":"https://www.gstatic.com/mapspro/images/stock/503-wht-blank_maps.png"}},{"type":"Feature","geometry":{"type":"Point","coordinates":[22.0602627,50.1192541,0]},"properties":{"name":"Jasionka","styleUrl":"#icon-1899-0288D1-nodesc","icon-opacity":1,"icon-color":"#0288d1","icon-scale":1,"icon-offset":[32,64],"icon-offset-units":["pixels","insetPixels"],"icon":"https://www.gstatic.com/mapspro/images/stock/503-wht-blank_maps.png"}},{"type":"Feature","geometry":{"type":"Point","coordinates":[20.9858407,50.0121011,0]},"properties":{"name":"Tarnów","styleUrl":"#icon-1899-0288D1-nodesc","icon-opacity":1,"icon-color":"#0288d1","icon-scale":1,"icon-offset":[32,64],"icon-offset-units":["pixels","insetPixels"],"icon":"https://www.gstatic.com/mapspro/images/stock/503-wht-blank_maps.png"}},{"type":"Feature","geometry":{"type":"Point","coordinates":[21.379957,51.764669,0]},"properties":{"name":"Magnuszew","styleUrl":"#icon-1899-0288D1-nodesc","icon-opacity":1,"icon-color":"#0288d1","icon-scale":1,"icon-offset":[32,64],"icon-offset-units":["pixels","insetPixels"],"icon":"https://www.gstatic.com/mapspro/images/stock/503-wht-blank_maps.png"}},{"type":"Feature","geometry":{"type":"Point","coordinates":[21.5511768,51.5855328,0]},"properties":{"name":"Kozienice","styleUrl":"#icon-1899-0288D1-nodesc","icon-opacity":1,"icon-color":"#0288d1","icon-scale":1,"icon-offset":[32,64],"icon-offset-units":["pixels","insetPixels"],"icon":"https://www.gstatic.com/mapspro/images/stock/503-wht-blank_maps.png"}},{"type":"Feature","geometry":{"type":"Point","coordinates":[17.7530872,54.5448143,0]},"properties":{"name":"Lębork","styleUrl":"#icon-1899-0288D1-nodesc","icon-opacity":1,"icon-color":"#0288d1","icon-scale":1,"icon-offset":[32,64],"icon-offset-units":["pixels","insetPixels"],"icon":"https://www.gstatic.com/mapspro/images/stock/503-wht-blank_maps.png"}},{"type":"Feature","geometry":{"type":"Point","coordinates":[22.215293,51.28567,0]},"properties":{"name":"Nałęczów","styleUrl":"#icon-1899-0288D1-nodesc","icon-opacity":1,"icon-color":"#0288d1","icon-scale":1,"icon-offset":[32,64],"icon-offset-units":["pixels","insetPixels"],"icon":"https://www.gstatic.com/mapspro/images/stock/503-wht-blank_maps.png"}},{"type":"Feature","geometry":{"type":"Point","coordinates":[19.8887283,49.2906818,0]},"properties":{"name":"Kościelisko","styleUrl":"#icon-1899-0288D1-nodesc","icon-opacity":1,"icon-color":"#0288d1","icon-scale":1,"icon-offset":[32,64],"icon-offset-units":["pixels","insetPixels"],"icon":"https://www.gstatic.com/mapspro/images/stock/503-wht-blank_maps.png"}},{"type":"Feature","geometry":{"type":"Point","coordinates":[17.4193571,50.8452706,0]},"properties":{"name":"Skarbimierz-Osiedle","styleUrl":"#icon-1899-0288D1-nodesc","icon-opacity":1,"icon-color":"#0288d1","icon-scale":1,"icon-offset":[32,64],"icon-offset-units":["pixels","insetPixels"],"icon":"https://www.gstatic.com/mapspro/images/stock/503-wht-blank_maps.png"}},{"type":"Feature","geometry":{"type":"Point","coordinates":[20.1075143,49.3422914,0]},"properties":{"name":"Bukowina Tatrzańska","styleUrl":"#icon-1899-0288D1-nodesc","icon-opacity":1,"icon-color":"#0288d1","icon-scale":1,"icon-offset":[32,64],"icon-offset-units":["pixels","insetPixels"],"icon":"https://www.gstatic.com/mapspro/images/stock/503-wht-blank_maps.png"}},{"type":"Feature","geometry":{"type":"Point","coordinates":[20.39746,53.9867,0]},"properties":{"name":"Dobre Miasto","styleUrl":"#icon-1899-0288D1-nodesc","icon-opacity":1,"icon-color":"#0288d1","icon-scale":1,"icon-offset":[32,64],"icon-offset-units":["pixels","insetPixels"],"icon":"https://www.gstatic.com/mapspro/images/stock/503-wht-blank_maps.png"}},{"type":"Feature","geometry":{"type":"Point","coordinates":[16.861891,54.5805607,0]},"properties":{"name":"Ustka","styleUrl":"#icon-1899-0288D1-nodesc","icon-opacity":1,"icon-color":"#0288d1","icon-scale":1,"icon-offset":[32,64],"icon-offset-units":["pixels","insetPixels"],"icon":"https://www.gstatic.com/mapspro/images/stock/503-wht-blank_maps.png"}},{"type":"Feature","geometry":{"type":"Point","coordinates":[21.1471333,51.4027236,0]},"properties":{"name":"Radom","styleUrl":"#icon-1899-0288D1-nodesc","icon-opacity":1,"icon-color":"#0288d1","icon-scale":1,"icon-offset":[32,64],"icon-offset-units":["pixels","insetPixels"],"icon":"https://www.gstatic.com/mapspro/images/stock/503-wht-blank_maps.png"}},{"type":"Feature","geometry":{"type":"Point","coordinates":[22.9796023,53.8434431,0]},"properties":{"name":"Augustów","styleUrl":"#icon-1899-0288D1-nodesc","icon-opacity":1,"icon-color":"#0288d1","icon-scale":1,"icon-offset":[32,64],"icon-offset-units":["pixels","insetPixels"],"icon":"https://www.gstatic.com/mapspro/images/stock/503-wht-blank_maps.png"}},{"type":"Feature","geometry":{"type":"Point","coordinates":[20.7153326,49.6174535,0]},"properties":{"name":"Nowy Sącz","styleUrl":"#icon-1899-0288D1-nodesc","icon-opacity":1,"icon-color":"#0288d1","icon-scale":1,"icon-offset":[32,64],"icon-offset-units":["pixels","insetPixels"],"icon":"https://www.gstatic.com/mapspro/images/stock/503-wht-blank_maps.png"}},{"type":"Feature","geometry":{"type":"Point","coordinates":[15.93648,51.2732,0]},"properties":{"name":"Chojnów","styleUrl":"#icon-1899-0288D1-nodesc","icon-opacity":1,"icon-color":"#0288d1","icon-scale":1,"icon-offset":[32,64],"icon-offset-units":["pixels","insetPixels"],"icon":"https://www.gstatic.com/mapspro/images/stock/503-wht-blank_maps.png"}},{"type":"Feature","geometry":{"type":"Point","coordinates":[15.7555976,50.7758815,0]},"properties":{"name":"Karpacz","styleUrl":"#icon-1899-0288D1-nodesc","icon-opacity":1,"icon-color":"#0288d1","icon-scale":1,"icon-offset":[32,64],"icon-offset-units":["pixels","insetPixels"],"icon":"https://www.gstatic.com/mapspro/images/stock/503-wht-blank_maps.png"}},{"type":"Feature","geometry":{"type":"Point","coordinates":[15.5061862,51.9356214,0]},"properties":{"name":"Zielona Góra","styleUrl":"#icon-1899-0288D1-nodesc","icon-opacity":1,"icon-color":"#0288d1","icon-scale":1,"icon-offset":[32,64],"icon-offset-units":["pixels","insetPixels"],"icon":"https://www.gstatic.com/mapspro/images/stock/503-wht-blank_maps.png"}},{"type":"Feature","geometry":{"type":"Point","coordinates":[19.3095709,50.9213205,0]},"properties":{"name":"Nieznanice","styleUrl":"#icon-1899-0288D1-nodesc","icon-opacity":1,"icon-color":"#0288d1","icon-scale":1,"icon-offset":[32,64],"icon-offset-units":["pixels","insetPixels"],"icon":"https://www.gstatic.com/mapspro/images/stock/503-wht-blank_maps.png"}},{"type":"Feature","geometry":{"type":"Point","coordinates":[15.2926236,52.74927,0]},"properties":{"name":"Wawrów","styleUrl":"#icon-1899-0288D1-nodesc","icon-opacity":1,"icon-color":"#0288d1","icon-scale":1,"icon-offset":[32,64],"icon-offset-units":["pixels","insetPixels"],"icon":"https://www.gstatic.com/mapspro/images/stock/503-wht-blank_maps.png"}},{"type":"Feature","geometry":{"type":"Point","coordinates":[16.1714908,54.1943219,0]},"properties":{"name":"Koszalin","styleUrl":"#icon-1899-0288D1-nodesc","icon-opacity":1,"icon-color":"#0288d1","icon-scale":1,"icon-offset":[32,64],"icon-offset-units":["pixels","insetPixels"],"icon":"https://www.gstatic.com/mapspro/images/stock/503-wht-blank_maps.png"}},{"type":"Feature","geometry":{"type":"Point","coordinates":[16.9198184,52.995267,0]},"properties":{"name":"Chodzież","styleUrl":"#icon-1899-0288D1-nodesc","icon-opacity":1,"icon-color":"#0288d1","icon-scale":1,"icon-offset":[32,64],"icon-offset-units":["pixels","insetPixels"],"icon":"https://www.gstatic.com/mapspro/images/stock/503-wht-blank_maps.png"}},{"type":"Feature","geometry":{"type":"Point","coordinates":[15.4122128,51.0350353,0]},"properties":{"name":"Gryfów Śląski","styleUrl":"#icon-1899-0288D1-nodesc","icon-opacity":1,"icon-color":"#0288d1","icon-scale":1,"icon-offset":[32,64],"icon-offset-units":["pixels","insetPixels"],"icon":"https://www.gstatic.com/mapspro/images/stock/503-wht-blank_maps.png"}},{"type":"Feature","geometry":{"type":"Point","coordinates":[20.408764,51.3723811,0]},"properties":{"name":"Kraszków","styleUrl":"#icon-1899-0288D1-nodesc","icon-opacity":1,"icon-color":"#0288d1","icon-scale":1,"icon-offset":[32,64],"icon-offset-units":["pixels","insetPixels"],"icon":"https://www.gstatic.com/mapspro/images/stock/503-wht-blank_maps.png"}},{"type":"Feature","geometry":{"type":"Point","coordinates":[18.6346378,50.3955793,0]},"properties":{"name":"Pyskowice","styleUrl":"#icon-1899-0288D1-nodesc","icon-opacity":1,"icon-color":"#0288d1","icon-scale":1,"icon-offset":[32,64],"icon-offset-units":["pixels","insetPixels"],"icon":"https://www.gstatic.com/mapspro/images/stock/503-wht-blank_maps.png"}},{"type":"Feature","geometry":{"type":"Point","coordinates":[17.5826575,52.5349253,0]},"properties":{"name":"Gniezno","styleUrl":"#icon-1899-0288D1-nodesc","icon-opacity":1,"icon-color":"#0288d1","icon-scale":1,"icon-offset":[32,64],"icon-offset-units":["pixels","insetPixels"],"icon":"https://www.gstatic.com/mapspro/images/stock/503-wht-blank_maps.png"}},{"type":"Feature","geometry":{"type":"Point","coordinates":[19.0583845,49.8223768,0]},"properties":{"name":"Bielsko-Biała","styleUrl":"#icon-1899-0288D1-nodesc","icon-opacity":1,"icon-color":"#0288d1","icon-scale":1,"icon-offset":[32,64],"icon-offset-units":["pixels","insetPixels"],"icon":"https://www.gstatic.com/mapspro/images/stock/503-wht-blank_maps.png"}},{"type":"Feature","geometry":{"type":"Point","coordinates":[20.3196044,49.7314832,0]},"properties":{"name":"Tymbark","styleUrl":"#icon-1899-0288D1-nodesc","icon-opacity":1,"icon-color":"#0288d1","icon-scale":1,"icon-offset":[32,64],"icon-offset-units":["pixels","insetPixels"],"icon":"https://www.gstatic.com/mapspro/images/stock/503-wht-blank_maps.png"}},{"type":"Feature","geometry":{"type":"Point","coordinates":[18.9723705,49.9470778,0]},"properties":{"name":"Goczałkowice-Zdrój","styleUrl":"#icon-1899-0288D1-nodesc","icon-opacity":1,"icon-color":"#0288d1","icon-scale":1,"icon-offset":[32,64],"icon-offset-units":["pixels","insetPixels"],"icon":"https://www.gstatic.com/mapspro/images/stock/503-wht-blank_maps.png"}},{"type":"Feature","geometry":{"type":"Point","coordinates":[20.9461112,53.3983079,0]},"properties":{"name":"Wielbark","styleUrl":"#icon-1899-0288D1-nodesc","icon-opacity":1,"icon-color":"#0288d1","icon-scale":1,"icon-offset":[32,64],"icon-offset-units":["pixels","insetPixels"],"icon":"https://www.gstatic.com/mapspro/images/stock/503-wht-blank_maps.png"}},{"type":"Feature","geometry":{"type":"Point","coordinates":[15.8146823,52.5454367,0]},"properties":{"name":"Nowe Gorzycko","styleUrl":"#icon-1899-0288D1-nodesc","icon-opacity":1,"icon-color":"#0288d1","icon-scale":1,"icon-offset":[32,64],"icon-offset-units":["pixels","insetPixels"],"icon":"https://www.gstatic.com/mapspro/images/stock/503-wht-blank_maps.png"}},{"type":"Feature","geometry":{"type":"Point","coordinates":[16.81504,53.42049,0]},"properties":{"name":"Jastrowie","styleUrl":"#icon-1899-0288D1-nodesc","icon-opacity":1,"icon-color":"#0288d1","icon-scale":1,"icon-offset":[32,64],"icon-offset-units":["pixels","insetPixels"],"icon":"https://www.gstatic.com/mapspro/images/stock/503-wht-blank_maps.png"}},{"type":"Feature","geometry":{"type":"Point","coordinates":[18.6354709,49.7497638,0]},"properties":{"name":"Cieszyn","styleUrl":"#icon-1899-0288D1-nodesc","icon-opacity":1,"icon-color":"#0288d1","icon-scale":1,"icon-offset":[32,64],"icon-offset-units":["pixels","insetPixels"],"icon":"https://www.gstatic.com/mapspro/images/stock/503-wht-blank_maps.png"}},{"type":"Feature","geometry":{"type":"Point","coordinates":[18.3104944,54.2997403,0]},"properties":{"name":"Babi Dół","styleUrl":"#icon-1899-0288D1-nodesc","icon-opacity":1,"icon-color":"#0288d1","icon-scale":1,"icon-offset":[32,64],"icon-offset-units":["pixels","insetPixels"],"icon":"https://www.gstatic.com/mapspro/images/stock/503-wht-blank_maps.png"}},{"type":"Feature","geometry":{"type":"Point","coordinates":[23.89091,50.80518,0]},"properties":{"name":"Hrubieszów","styleUrl":"#icon-1899-0288D1-nodesc","icon-opacity":1,"icon-color":"#0288d1","icon-scale":1,"icon-offset":[32,64],"icon-offset-units":["pixels","insetPixels"],"icon":"https://www.gstatic.com/mapspro/images/stock/503-wht-blank_maps.png"}},{"type":"Feature","geometry":{"type":"Point","coordinates":[17.8068258,51.6549856,0]},"properties":{"name":"Ostrów Wielkopolski","styleUrl":"#icon-1899-0288D1-nodesc","icon-opacity":1,"icon-color":"#0288d1","icon-scale":1,"icon-offset":[32,64],"icon-offset-units":["pixels","insetPixels"],"icon":"https://www.gstatic.com/mapspro/images/stock/503-wht-blank_maps.png"}},{"type":"Feature","geometry":{"type":"Point","coordinates":[20.6286268,50.8659989,0]},"properties":{"name":"Kielce","styleUrl":"#icon-1899-0288D1-nodesc","icon-opacity":1,"icon-color":"#0288d1","icon-scale":1,"icon-offset":[32,64],"icon-offset-units":["pixels","insetPixels"],"icon":"https://www.gstatic.com/mapspro/images/stock/503-wht-blank_maps.png"}},{"type":"Feature","geometry":{"type":"Point","coordinates":[20.9499697,52.4044483,0]},"properties":{"name":"Legionowo","styleUrl":"#icon-1899-0288D1-nodesc","icon-opacity":1,"icon-color":"#0288d1","icon-scale":1,"icon-offset":[32,64],"icon-offset-units":["pixels","insetPixels"],"icon":"https://www.gstatic.com/mapspro/images/stock/503-wht-blank_maps.png"}},{"type":"Feature","geometry":{"type":"Point","coordinates":[21.4722875,49.7445663,0]},"properties":{"name":"Jasło","styleUrl":"#icon-1899-0288D1-nodesc","icon-opacity":1,"icon-color":"#0288d1","icon-scale":1,"icon-offset":[32,64],"icon-offset-units":["pixels","insetPixels"],"icon":"https://www.gstatic.com/mapspro/images/stock/503-wht-blank_maps.png"}},{"type":"Feature","geometry":{"type":"Point","coordinates":[21.4116964,50.0516417,0]},"properties":{"name":"Dębica","styleUrl":"#icon-1899-0288D1-nodesc","icon-opacity":1,"icon-color":"#0288d1","icon-scale":1,"icon-offset":[32,64],"icon-offset-units":["pixels","insetPixels"],"icon":"https://www.gstatic.com/mapspro/images/stock/503-wht-blank_maps.png"}},{"type":"Feature","geometry":{"type":"Point","coordinates":[16.0846672,51.6635852,0]},"properties":{"name":"Głogów","styleUrl":"#icon-1899-0288D1-nodesc","icon-opacity":1,"icon-color":"#0288d1","icon-scale":1,"icon-offset":[32,64],"icon-offset-units":["pixels","insetPixels"],"icon":"https://www.gstatic.com/mapspro/images/stock/503-wht-blank_maps.png"}},{"type":"Feature","geometry":{"type":"Point","coordinates":[18.867739,49.6473215,0]},"properties":{"name":"Wisła","styleUrl":"#icon-1899-0288D1-nodesc","icon-opacity":1,"icon-color":"#0288d1","icon-scale":1,"icon-offset":[32,64],"icon-offset-units":["pixels","insetPixels"],"icon":"https://www.gstatic.com/mapspro/images/stock/503-wht-blank_maps.png"}},{"type":"Feature","geometry":{"type":"Point","coordinates":[19.4044897,54.1560613,0]},"properties":{"name":"Elbląg","styleUrl":"#icon-1899-0288D1-nodesc","icon-opacity":1,"icon-color":"#0288d1","icon-scale":1,"icon-offset":[32,64],"icon-offset-units":["pixels","insetPixels"],"icon":"https://www.gstatic.com/mapspro/images/stock/503-wht-blank_maps.png"}},{"type":"Feature","geometry":{"type":"Point","coordinates":[22.2060658,49.5550187,0]},"properties":{"name":"Sanok","styleUrl":"#icon-1899-0288D1-nodesc","icon-opacity":1,"icon-color":"#0288d1","icon-scale":1,"icon-offset":[32,64],"icon-offset-units":["pixels","insetPixels"],"icon":"https://www.gstatic.com/mapspro/images/stock/503-wht-blank_maps.png"}},{"type":"Feature","geometry":{"type":"Point","coordinates":[18.5600956,54.441581,0]},"properties":{"name":"Sopot","styleUrl":"#icon-1899-0288D1-nodesc","icon-opacity":1,"icon-color":"#0288d1","icon-scale":1,"icon-offset":[32,64],"icon-offset-units":["pixels","insetPixels"],"icon":"https://www.gstatic.com/mapspro/images/stock/503-wht-blank_maps.png"}},{"type":"Feature","geometry":{"type":"Point","coordinates":[17.0283557,54.4643059,0]},"properties":{"name":"Słupsk","styleUrl":"#icon-1899-0288D1-nodesc","icon-opacity":1,"icon-color":"#0288d1","icon-scale":1,"icon-offset":[32,64],"icon-offset-units":["pixels","insetPixels"],"icon":"https://www.gstatic.com/mapspro/images/stock/503-wht-blank_maps.png"}},{"type":"Feature","geometry":{"type":"Point","coordinates":[19.11753,54.20801,0]},"properties":{"name":"Nowy Dwór Gdański","styleUrl":"#icon-1899-0288D1-nodesc","icon-opacity":1,"icon-color":"#0288d1","icon-scale":1,"icon-offset":[32,64],"icon-offset-units":["pixels","insetPixels"],"icon":"https://www.gstatic.com/mapspro/images/stock/503-wht-blank_maps.png"}},{"type":"Feature","geometry":{"type":"Point","coordinates":[23.4711986,51.1431232,0]},"properties":{"name":"Chełm","styleUrl":"#icon-1899-0288D1-nodesc","icon-opacity":1,"icon-color":"#0288d1","icon-scale":1,"icon-offset":[32,64],"icon-offset-units":["pixels","insetPixels"],"icon":"https://www.gstatic.com/mapspro/images/stock/503-wht-blank_maps.png"}},{"type":"Feature","geometry":{"type":"Point","coordinates":[19.363965,50.4466517,0]},"properties":{"name":"Ciągowice","styleUrl":"#icon-1899-0288D1-nodesc","icon-opacity":1,"icon-color":"#0288d1","icon-scale":1,"icon-offset":[32,64],"icon-offset-units":["pixels","insetPixels"],"icon":"https://www.gstatic.com/mapspro/images/stock/503-wht-blank_maps.png"}},{"type":"Feature","geometry":{"type":"Point","coordinates":[20.032096,49.4774647,0]},"properties":{"name":"Nowy Targ","styleUrl":"#icon-1899-0288D1-nodesc","icon-opacity":1,"icon-color":"#0288d1","icon-scale":1,"icon-offset":[32,64],"icon-offset-units":["pixels","insetPixels"],"icon":"https://www.gstatic.com/mapspro/images/stock/503-wht-blank_maps.png"}},{"type":"Feature","geometry":{"type":"Point","coordinates":[17.9812605,54.1222457,0]},"properties":{"name":"Kościerzyna","styleUrl":"#icon-1899-0288D1-nodesc","icon-opacity":1,"icon-color":"#0288d1","icon-scale":1,"icon-offset":[32,64],"icon-offset-units":["pixels","insetPixels"],"icon":"https://www.gstatic.com/mapspro/images/stock/503-wht-blank_maps.png"}},{"type":"Feature","geometry":{"type":"Point","coordinates":[18.4086339,54.7180477,0]},"properties":{"name":"Puck","styleUrl":"#icon-1899-0288D1-nodesc","icon-opacity":1,"icon-color":"#0288d1","icon-scale":1,"icon-offset":[32,64],"icon-offset-units":["pixels","insetPixels"],"icon":"https://www.gstatic.com/mapspro/images/stock/503-wht-blank_maps.png"}},{"type":"Feature","geometry":{"type":"Point","coordinates":[18.9348052,50.0598532,0]},"properties":{"name":"Kobiór","styleUrl":"#icon-1899-0288D1-nodesc","icon-opacity":1,"icon-color":"#0288d1","icon-scale":1,"icon-offset":[32,64],"icon-offset-units":["pixels","insetPixels"],"icon":"https://www.gstatic.com/mapspro/images/stock/503-wht-blank_maps.png"}},{"type":"Feature","geometry":{"type":"Point","coordinates":[19.7442821,53.918411,0]},"properties":{"name":"Małdyty","styleUrl":"#icon-1899-0288D1-nodesc","icon-opacity":1,"icon-color":"#0288d1","icon-scale":1,"icon-offset":[32,64],"icon-offset-units":["pixels","insetPixels"],"icon":"https://www.gstatic.com/mapspro/images/stock/503-wht-blank_maps.png"}},{"type":"Feature","geometry":{"type":"Point","coordinates":[18.5760979,54.2787562,0]},"properties":{"name":"Straszyn","styleUrl":"#icon-1899-0288D1-nodesc","icon-opacity":1,"icon-color":"#0288d1","icon-scale":1,"icon-offset":[32,64],"icon-offset-units":["pixels","insetPixels"],"icon":"https://www.gstatic.com/mapspro/images/stock/503-wht-blank_maps.png"}},{"type":"Feature","geometry":{"type":"Point","coordinates":[17.5563117,54.760117,0]},"properties":{"name":"Łeba","styleUrl":"#icon-1899-0288D1-nodesc","icon-opacity":1,"icon-color":"#0288d1","icon-scale":1,"icon-offset":[32,64],"icon-offset-units":["pixels","insetPixels"],"icon":"https://www.gstatic.com/mapspro/images/stock/503-wht-blank_maps.png"}},{"type":"Feature","geometry":{"type":"Point","coordinates":[18.8555704,50.2558286,0]},"properties":{"name":"Ruda Śląska","styleUrl":"#icon-1899-0288D1-nodesc","icon-opacity":1,"icon-color":"#0288d1","icon-scale":1,"icon-offset":[32,64],"icon-offset-units":["pixels","insetPixels"],"icon":"https://www.gstatic.com/mapspro/images/stock/503-wht-blank_maps.png"}},{"type":"Feature","geometry":{"type":"Point","coordinates":[17.3353434,50.4766766,0]},"properties":{"name":"Nysa","styleUrl":"#icon-1899-0288D1-nodesc","icon-opacity":1,"icon-color":"#0288d1","icon-scale":1,"icon-offset":[32,64],"icon-offset-units":["pixels","insetPixels"],"icon":"https://www.gstatic.com/mapspro/images/stock/503-wht-blank_maps.png"}},{"type":"Feature","geometry":{"type":"Point","coordinates":[18.8783173,50.7478709,0]},"properties":{"name":"Herby","styleUrl":"#icon-1899-0288D1-nodesc","icon-opacity":1,"icon-color":"#0288d1","icon-scale":1,"icon-offset":[32,64],"icon-offset-units":["pixels","insetPixels"],"icon":"https://www.gstatic.com/mapspro/images/stock/503-wht-blank_maps.png"}},{"type":"Feature","geometry":{"type":"Point","coordinates":[21.37504,54.07657,0]},"properties":{"name":"Kętrzyn","styleUrl":"#icon-1899-0288D1-nodesc","icon-opacity":1,"icon-color":"#0288d1","icon-scale":1,"icon-offset":[32,64],"icon-offset-units":["pixels","insetPixels"],"icon":"https://www.gstatic.com/mapspro/images/stock/503-wht-blank_maps.png"}},{"type":"Feature","geometry":{"type":"Point","coordinates":[20.4303285,49.9684577,0]},"properties":{"name":"Bochnia","styleUrl":"#icon-1899-0288D1-nodesc","icon-opacity":1,"icon-color":"#0288d1","icon-scale":1,"icon-offset":[32,64],"icon-offset-units":["pixels","insetPixels"],"icon":"https://www.gstatic.com/mapspro/images/stock/503-wht-blank_maps.png"}},{"type":"Feature","geometry":{"type":"Point","coordinates":[15.9921375,54.0029007,0]},"properties":{"name":"Białogard","styleUrl":"#icon-1899-0288D1-nodesc","icon-opacity":1,"icon-color":"#0288d1","icon-scale":1,"icon-offset":[32,64],"icon-offset-units":["pixels","insetPixels"],"icon":"https://www.gstatic.com/mapspro/images/stock/503-wht-blank_maps.png"}},{"type":"Feature","geometry":{"type":"Point","coordinates":[20.0706038,54.0085653,0]},"properties":{"name":"Miłakowo","styleUrl":"#icon-1899-0288D1-nodesc","icon-opacity":1,"icon-color":"#0288d1","icon-scale":1,"icon-offset":[32,64],"icon-offset-units":["pixels","insetPixels"],"icon":"https://www.gstatic.com/mapspro/images/stock/503-wht-blank_maps.png"}},{"type":"Feature","geometry":{"type":"Point","coordinates":[17.0386019,51.1092948,0]},"properties":{"name":"Wrocław","styleUrl":"#icon-1899-0288D1-nodesc","icon-opacity":1,"icon-color":"#0288d1","icon-scale":1,"icon-offset":[32,64],"icon-offset-units":["pixels","insetPixels"],"icon":"https://www.gstatic.com/mapspro/images/stock/503-wht-blank_maps.png"}},{"type":"Feature","geometry":{"type":"Point","coordinates":[18.7773072,54.0919269,0]},"properties":{"name":"Tczew","styleUrl":"#icon-1899-0288D1-nodesc","icon-opacity":1,"icon-color":"#0288d1","icon-scale":1,"icon-offset":[32,64],"icon-offset-units":["pixels","insetPixels"],"icon":"https://www.gstatic.com/mapspro/images/stock/503-wht-blank_maps.png"}},{"type":"Feature","geometry":{"type":"Point","coordinates":[18.2025176,54.2388853,0]},"properties":{"name":"Egiertowo","styleUrl":"#icon-1899-0288D1-nodesc","icon-opacity":1,"icon-color":"#0288d1","icon-scale":1,"icon-offset":[32,64],"icon-offset-units":["pixels","insetPixels"],"icon":"https://www.gstatic.com/mapspro/images/stock/503-wht-blank_maps.png"}},{"type":"Feature","geometry":{"type":"Point","coordinates":[20.7191757,50.470362,0]},"properties":{"name":"Busko-Zdrój","styleUrl":"#icon-1899-0288D1-nodesc","icon-opacity":1,"icon-color":"#0288d1","icon-scale":1,"icon-offset":[32,64],"icon-offset-units":["pixels","insetPixels"],"icon":"https://www.gstatic.com/mapspro/images/stock/503-wht-blank_maps.png"}},{"type":"Feature","geometry":{"type":"Point","coordinates":[19.1949126,50.3216897,0]},"properties":{"name":"Dąbrowa Górnicza","styleUrl":"#icon-1899-0288D1-nodesc","icon-opacity":1,"icon-color":"#0288d1","icon-scale":1,"icon-offset":[32,64],"icon-offset-units":["pixels","insetPixels"],"icon":"https://www.gstatic.com/mapspro/images/stock/503-wht-blank_maps.png"}},{"type":"Feature","geometry":{"type":"Point","coordinates":[17.04046,53.36381,0]},"properties":{"name":"Złotów","styleUrl":"#icon-1899-0288D1-nodesc","icon-opacity":1,"icon-color":"#0288d1","icon-scale":1,"icon-offset":[32,64],"icon-offset-units":["pixels","insetPixels"],"icon":"https://www.gstatic.com/mapspro/images/stock/503-wht-blank_maps.png"}},{"type":"Feature","geometry":{"type":"Point","coordinates":[22.455217,53.6471559,0]},"properties":{"name":"Grajewo","styleUrl":"#icon-1899-0288D1-nodesc","icon-opacity":1,"icon-color":"#0288d1","icon-scale":1,"icon-offset":[32,64],"icon-offset-units":["pixels","insetPixels"],"icon":"https://www.gstatic.com/mapspro/images/stock/503-wht-blank_maps.png"}},{"type":"Feature","geometry":{"type":"Point","coordinates":[20.880358,53.018984,0]},"properties":{"name":"Przasnysz","styleUrl":"#icon-1899-0288D1-nodesc","icon-opacity":1,"icon-color":"#0288d1","icon-scale":1,"icon-offset":[32,64],"icon-offset-units":["pixels","insetPixels"],"icon":"https://www.gstatic.com/mapspro/images/stock/503-wht-blank_maps.png"}},{"type":"Feature","geometry":{"type":"Point","coordinates":[21.7501781,50.6822405,0]},"properties":{"name":"Sandomierz","styleUrl":"#icon-1899-0288D1-nodesc","icon-opacity":1,"icon-color":"#0288d1","icon-scale":1,"icon-offset":[32,64],"icon-offset-units":["pixels","insetPixels"],"icon":"https://www.gstatic.com/mapspro/images/stock/503-wht-blank_maps.png"}},{"type":"Feature","geometry":{"type":"Point","coordinates":[16.7382266,53.1509671,0]},"properties":{"name":"Piła","styleUrl":"#icon-1899-0288D1-nodesc","icon-opacity":1,"icon-color":"#0288d1","icon-scale":1,"icon-offset":[32,64],"icon-offset-units":["pixels","insetPixels"],"icon":"https://www.gstatic.com/mapspro/images/stock/503-wht-blank_maps.png"}},{"type":"Feature","geometry":{"type":"Point","coordinates":[15.5657397,51.2658553,0]},"properties":{"name":"Bolesławiec","styleUrl":"#icon-1899-0288D1-nodesc","icon-opacity":1,"icon-color":"#0288d1","icon-scale":1,"icon-offset":[32,64],"icon-offset-units":["pixels","insetPixels"],"icon":"https://www.gstatic.com/mapspro/images/stock/503-wht-blank_maps.png"}},{"type":"Feature","geometry":{"type":"Point","coordinates":[21.9991196,50.0411867,0]},"properties":{"name":"Rzeszów","styleUrl":"#icon-1899-0288D1-nodesc","icon-opacity":1,"icon-color":"#0288d1","icon-scale":1,"icon-offset":[32,64],"icon-offset-units":["pixels","insetPixels"],"icon":"https://www.gstatic.com/mapspro/images/stock/503-wht-blank_maps.png"}},{"type":"Feature","geometry":{"type":"Point","coordinates":[16.475679,50.8498434,0]},"properties":{"name":"Świdnica","styleUrl":"#icon-1899-0288D1-nodesc","icon-opacity":1,"icon-color":"#0288d1","icon-scale":1,"icon-offset":[32,64],"icon-offset-units":["pixels","insetPixels"],"icon":"https://www.gstatic.com/mapspro/images/stock/503-wht-blank_maps.png"}},{"type":"Feature","geometry":{"type":"Point","coordinates":[17.4916088,54.1706219,0]},"properties":{"name":"Bytów","styleUrl":"#icon-1899-0288D1-nodesc","icon-opacity":1,"icon-color":"#0288d1","icon-scale":1,"icon-offset":[32,64],"icon-offset-units":["pixels","insetPixels"],"icon":"https://www.gstatic.com/mapspro/images/stock/503-wht-blank_maps.png"}},{"type":"Feature","geometry":{"type":"Point","coordinates":[19.0630733,49.9190175,0]},"properties":{"name":"Bestwinka","styleUrl":"#icon-1899-0288D1-nodesc","icon-opacity":1,"icon-color":"#0288d1","icon-scale":1,"icon-offset":[32,64],"icon-offset-units":["pixels","insetPixels"],"icon":"https://www.gstatic.com/mapspro/images/stock/503-wht-blank_maps.png"}},{"type":"Feature","geometry":{"type":"Point","coordinates":[18.2926581,54.3200744,0]},"properties":{"name":"Borowo","styleUrl":"#icon-1899-0288D1-nodesc","icon-opacity":1,"icon-color":"#0288d1","icon-scale":1,"icon-offset":[32,64],"icon-offset-units":["pixels","insetPixels"],"icon":"https://www.gstatic.com/mapspro/images/stock/503-wht-blank_maps.png"}},{"type":"Feature","geometry":{"type":"Point","coordinates":[18.3471836,54.6053867,0]},"properties":{"name":"Reda","styleUrl":"#icon-1899-0288D1-nodesc","icon-opacity":1,"icon-color":"#0288d1","icon-scale":1,"icon-offset":[32,64],"icon-offset-units":["pixels","insetPixels"],"icon":"https://www.gstatic.com/mapspro/images/stock/503-wht-blank_maps.png"}},{"type":"Feature","geometry":{"type":"Point","coordinates":[17.1731318,51.0755316,0]},"properties":{"name":"Kamieniec Wrocławski","styleUrl":"#icon-1899-0288D1-nodesc","icon-opacity":1,"icon-color":"#0288d1","icon-scale":1,"icon-offset":[32,64],"icon-offset-units":["pixels","insetPixels"],"icon":"https://www.gstatic.com/mapspro/images/stock/503-wht-blank_maps.png"}},{"type":"Feature","geometry":{"type":"Point","coordinates":[20.2827,53.58244,0]},"properties":{"name":"Olsztynek","styleUrl":"#icon-1899-0288D1-nodesc","icon-opacity":1,"icon-color":"#0288d1","icon-scale":1,"icon-offset":[32,64],"icon-offset-units":["pixels","insetPixels"],"icon":"https://www.gstatic.com/mapspro/images/stock/503-wht-blank_maps.png"}},{"type":"Feature","geometry":{"type":"Point","coordinates":[20.6925219,52.4465078,0]},"properties":{"name":"Nowy Dwór Mazowiecki","styleUrl":"#icon-1899-0288D1-nodesc","icon-opacity":1,"icon-color":"#0288d1","icon-scale":1,"icon-offset":[32,64],"icon-offset-units":["pixels","insetPixels"],"icon":"https://www.gstatic.com/mapspro/images/stock/503-wht-blank_maps.png"}},{"type":"Feature","geometry":{"type":"Point","coordinates":[18.9436714,49.7184394,0]},"properties":{"name":"Brenna","styleUrl":"#icon-1899-0288D1-nodesc","icon-opacity":1,"icon-color":"#0288d1","icon-scale":1,"icon-offset":[32,64],"icon-offset-units":["pixels","insetPixels"],"icon":"https://www.gstatic.com/mapspro/images/stock/503-wht-blank_maps.png"}},{"type":"Feature","geometry":{"type":"Point","coordinates":[21.0238602,52.0811536,0]},"properties":{"name":"Piaseczno","styleUrl":"#icon-1899-0288D1-nodesc","icon-opacity":1,"icon-color":"#0288d1","icon-scale":1,"icon-offset":[32,64],"icon-offset-units":["pixels","insetPixels"],"icon":"https://www.gstatic.com/mapspro/images/stock/503-wht-blank_maps.png"}},{"type":"Feature","geometry":{"type":"Point","coordinates":[19.7030244,51.4051721,0]},"properties":{"name":"Piotrków Trybunalski","styleUrl":"#icon-1899-0288D1-nodesc","icon-opacity":1,"icon-color":"#0288d1","icon-scale":1,"icon-offset":[32,64],"icon-offset-units":["pixels","insetPixels"],"icon":"https://www.gstatic.com/mapspro/images/stock/503-wht-blank_maps.png"}},{"type":"Feature","geometry":{"type":"Point","coordinates":[22.2323873,50.1162152,0]},"properties":{"name":"Dąbrówki","styleUrl":"#icon-1899-0288D1-nodesc","icon-opacity":1,"icon-color":"#0288d1","icon-scale":1,"icon-offset":[32,64],"icon-offset-units":["pixels","insetPixels"],"icon":"https://www.gstatic.com/mapspro/images/stock/503-wht-blank_maps.png"}},{"type":"Feature","geometry":{"type":"Point","coordinates":[17.3164789,51.0212945,0]},"properties":{"name":"Jelcz-Laskowice","styleUrl":"#icon-1899-0288D1-nodesc","icon-opacity":1,"icon-color":"#0288d1","icon-scale":1,"icon-offset":[32,64],"icon-offset-units":["pixels","insetPixels"],"icon":"https://www.gstatic.com/mapspro/images/stock/503-wht-blank_maps.png"}},{"type":"Feature","geometry":{"type":"Point","coordinates":[14.7284576,51.9489824,0]},"properties":{"name":"Gubin","styleUrl":"#icon-1899-0288D1-nodesc","icon-opacity":1,"icon-color":"#0288d1","icon-scale":1,"icon-offset":[32,64],"icon-offset-units":["pixels","insetPixels"],"icon":"https://www.gstatic.com/mapspro/images/stock/503-wht-blank_maps.png"}},{"type":"Feature","geometry":{"type":"Point","coordinates":[19.9210576,50.1180471,0]},"properties":{"name":"Zielonki","styleUrl":"#icon-1899-0288D1-nodesc","icon-opacity":1,"icon-color":"#0288d1","icon-scale":1,"icon-offset":[32,64],"icon-offset-units":["pixels","insetPixels"],"icon":"https://www.gstatic.com/mapspro/images/stock/503-wht-blank_maps.png"}},{"type":"Feature","geometry":{"type":"Point","coordinates":[19.3206515,51.7895811,0]},"properties":{"name":"Rąbień","styleUrl":"#icon-1899-0288D1-nodesc","icon-opacity":1,"icon-color":"#0288d1","icon-scale":1,"icon-offset":[32,64],"icon-offset-units":["pixels","insetPixels"],"icon":"https://www.gstatic.com/mapspro/images/stock/503-wht-blank_maps.png"}},{"type":"Feature","geometry":{"type":"Point","coordinates":[22.9196898,53.3126826,0]},"properties":{"name":"Knyszyn","styleUrl":"#icon-1899-0288D1-nodesc","icon-opacity":1,"icon-color":"#0288d1","icon-scale":1,"icon-offset":[32,64],"icon-offset-units":["pixels","insetPixels"],"icon":"https://www.gstatic.com/mapspro/images/stock/503-wht-blank_maps.png"}},{"type":"Feature","geometry":{"type":"Point","coordinates":[21.5721057,52.1792836,0]},"properties":{"name":"Mińsk Mazowiecki","styleUrl":"#icon-1899-0288D1-nodesc","icon-opacity":1,"icon-color":"#0288d1","icon-scale":1,"icon-offset":[32,64],"icon-offset-units":["pixels","insetPixels"],"icon":"https://www.gstatic.com/mapspro/images/stock/503-wht-blank_maps.png"}},{"type":"Feature","geometry":{"type":"Point","coordinates":[14.5528116,53.4285438,0]},"properties":{"name":"Szczecin","styleUrl":"#icon-1899-0288D1-nodesc","icon-opacity":1,"icon-color":"#0288d1","icon-scale":1,"icon-offset":[32,64],"icon-offset-units":["pixels","insetPixels"],"icon":"https://www.gstatic.com/mapspro/images/stock/503-wht-blank_maps.png"}},{"type":"Feature","geometry":{"type":"Point","coordinates":[20.8220812,52.140014,0]},"properties":{"name":"Komorów","styleUrl":"#icon-1899-0288D1-nodesc","icon-opacity":1,"icon-color":"#0288d1","icon-scale":1,"icon-offset":[32,64],"icon-offset-units":["pixels","insetPixels"],"icon":"https://www.gstatic.com/mapspro/images/stock/503-wht-blank_maps.png"}},{"type":"Feature","geometry":{"type":"Point","coordinates":[18.6361726,54.2621505,0]},"properties":{"name":"Pruszcz Gdański","styleUrl":"#icon-1899-0288D1-nodesc","icon-opacity":1,"icon-color":"#0288d1","icon-scale":1,"icon-offset":[32,64],"icon-offset-units":["pixels","insetPixels"],"icon":"https://www.gstatic.com/mapspro/images/stock/503-wht-blank_maps.png"}},{"type":"Feature","geometry":{"type":"Point","coordinates":[19.7513808,51.8001397,0]},"properties":{"name":"Brzeziny","styleUrl":"#icon-1899-0288D1-nodesc","icon-opacity":1,"icon-color":"#0288d1","icon-scale":1,"icon-offset":[32,64],"icon-offset-units":["pixels","insetPixels"],"icon":"https://www.gstatic.com/mapspro/images/stock/503-wht-blank_maps.png"}},{"type":"Feature","geometry":{"type":"Point","coordinates":[18.3650025,54.3422719,0]},"properties":{"name":"Żukowo","styleUrl":"#icon-1899-0288D1-nodesc","icon-opacity":1,"icon-color":"#0288d1","icon-scale":1,"icon-offset":[32,64],"icon-offset-units":["pixels","insetPixels"],"icon":"https://www.gstatic.com/mapspro/images/stock/503-wht-blank_maps.png"}},{"type":"Feature","geometry":{"type":"Point","coordinates":[22.6094606,51.4598694,0]},"properties":{"name":"Lubartów","styleUrl":"#icon-1899-0288D1-nodesc","icon-opacity":1,"icon-color":"#0288d1","icon-scale":1,"icon-offset":[32,64],"icon-offset-units":["pixels","insetPixels"],"icon":"https://www.gstatic.com/mapspro/images/stock/503-wht-blank_maps.png"}},{"type":"Feature","geometry":{"type":"Point","coordinates":[16.2843553,50.7840092,0]},"properties":{"name":"Wałbrzych","styleUrl":"#icon-1899-0288D1-nodesc","icon-opacity":1,"icon-color":"#0288d1","icon-scale":1,"icon-offset":[32,64],"icon-offset-units":["pixels","insetPixels"],"icon":"https://www.gstatic.com/mapspro/images/stock/503-wht-blank_maps.png"}},{"type":"Feature","geometry":{"type":"Point","coordinates":[15.043917,51.1580895,0]},"properties":{"name":"Łagów","styleUrl":"#icon-1899-0288D1-nodesc","icon-opacity":1,"icon-color":"#0288d1","icon-scale":1,"icon-offset":[32,64],"icon-offset-units":["pixels","insetPixels"],"icon":"https://www.gstatic.com/mapspro/images/stock/503-wht-blank_maps.png"}},{"type":"Feature","geometry":{"type":"Point","coordinates":[19.5605844,49.6613737,0]},"properties":{"name":"Zawoja","styleUrl":"#icon-1899-0288D1-nodesc","icon-opacity":1,"icon-color":"#0288d1","icon-scale":1,"icon-offset":[32,64],"icon-offset-units":["pixels","insetPixels"],"icon":"https://www.gstatic.com/mapspro/images/stock/503-wht-blank_maps.png"}},{"type":"Feature","geometry":{"type":"Point","coordinates":[20.3416847,52.5771913,0]},"properties":{"name":"Skrzynki","styleUrl":"#icon-1899-0288D1-nodesc","icon-opacity":1,"icon-color":"#0288d1","icon-scale":1,"icon-offset":[32,64],"icon-offset-units":["pixels","insetPixels"],"icon":"https://www.gstatic.com/mapspro/images/stock/503-wht-blank_maps.png"}},{"type":"Feature","geometry":{"type":"Point","coordinates":[16.4752847,53.2734739,0]},"properties":{"name":"Wałcz","styleUrl":"#icon-1899-0288D1-nodesc","icon-opacity":1,"icon-color":"#0288d1","icon-scale":1,"icon-offset":[32,64],"icon-offset-units":["pixels","insetPixels"],"icon":"https://www.gstatic.com/mapspro/images/stock/503-wht-blank_maps.png"}},{"type":"Feature","geometry":{"type":"Point","coordinates":[16.1810373,52.4479565,0]},"properties":{"name":"Lwówek","styleUrl":"#icon-1899-0288D1-nodesc","icon-opacity":1,"icon-color":"#0288d1","icon-scale":1,"icon-offset":[32,64],"icon-offset-units":["pixels","insetPixels"],"icon":"https://www.gstatic.com/mapspro/images/stock/503-wht-blank_maps.png"}},{"type":"Feature","geometry":{"type":"Point","coordinates":[15.284276,51.0492212,0]},"properties":{"name":"Kościelniki Górne","styleUrl":"#icon-1899-0288D1-nodesc","icon-opacity":1,"icon-color":"#0288d1","icon-scale":1,"icon-offset":[32,64],"icon-offset-units":["pixels","insetPixels"],"icon":"https://www.gstatic.com/mapspro/images/stock/503-wht-blank_maps.png"}},{"type":"Feature","geometry":{"type":"Point","coordinates":[19.1406482,49.7302193,0]},"properties":{"name":"Łodygowice","styleUrl":"#icon-1899-0288D1-nodesc","icon-opacity":1,"icon-color":"#0288d1","icon-scale":1,"icon-offset":[32,64],"icon-offset-units":["pixels","insetPixels"],"icon":"https://www.gstatic.com/mapspro/images/stock/503-wht-blank_maps.png"}},{"type":"Feature","geometry":{"type":"Point","coordinates":[19.0704415,50.317273,0]},"properties":{"name":"Czeladź","styleUrl":"#icon-1899-0288D1-nodesc","icon-opacity":1,"icon-color":"#0288d1","icon-scale":1,"icon-offset":[32,64],"icon-offset-units":["pixels","insetPixels"],"icon":"https://www.gstatic.com/mapspro/images/stock/503-wht-blank_maps.png"}},{"type":"Feature","geometry":{"type":"Point","coordinates":[18.7313824,49.8945858,0]},"properties":{"name":"Bąków","styleUrl":"#icon-1899-0288D1-nodesc","icon-opacity":1,"icon-color":"#0288d1","icon-scale":1,"icon-offset":[32,64],"icon-offset-units":["pixels","insetPixels"],"icon":"https://www.gstatic.com/mapspro/images/stock/503-wht-blank_maps.png"}},{"type":"Feature","geometry":{"type":"Point","coordinates":[15.8354289,52.2444825,0]},"properties":{"name":"Chlastawa","styleUrl":"#icon-1899-0288D1-nodesc","icon-opacity":1,"icon-color":"#0288d1","icon-scale":1,"icon-offset":[32,64],"icon-offset-units":["pixels","insetPixels"],"icon":"https://www.gstatic.com/mapspro/images/stock/503-wht-blank_maps.png"}},{"type":"Feature","geometry":{"type":"Point","coordinates":[19.0379763,54.0361319,0]},"properties":{"name":"Malbork","styleUrl":"#icon-1899-0288D1-nodesc","icon-opacity":1,"icon-color":"#0288d1","icon-scale":1,"icon-offset":[32,64],"icon-offset-units":["pixels","insetPixels"],"icon":"https://www.gstatic.com/mapspro/images/stock/503-wht-blank_maps.png"}},{"type":"Feature","geometry":{"type":"Point","coordinates":[23.1202176,52.0338207,0]},"properties":{"name":"Biała Podlaska","styleUrl":"#icon-1899-0288D1-nodesc","icon-opacity":1,"icon-color":"#0288d1","icon-scale":1,"icon-offset":[32,64],"icon-offset-units":["pixels","insetPixels"],"icon":"https://www.gstatic.com/mapspro/images/stock/503-wht-blank_maps.png"}},{"type":"Feature","geometry":{"type":"Point","coordinates":[19.1376847,49.4828329,0]},"properties":{"name":"Ujsoły","styleUrl":"#icon-1899-0288D1-nodesc","icon-opacity":1,"icon-color":"#0288d1","icon-scale":1,"icon-offset":[32,64],"icon-offset-units":["pixels","insetPixels"],"icon":"https://www.gstatic.com/mapspro/images/stock/503-wht-blank_maps.png"}},{"type":"Feature","geometry":{"type":"Point","coordinates":[16.2095788,51.397722,0]},"properties":{"name":"Lubin","styleUrl":"#icon-1899-0288D1-nodesc","icon-opacity":1,"icon-color":"#0288d1","icon-scale":1,"icon-offset":[32,64],"icon-offset-units":["pixels","insetPixels"],"icon":"https://www.gstatic.com/mapspro/images/stock/503-wht-blank_maps.png"}},{"type":"Feature","geometry":{"type":"Point","coordinates":[19.0295929,53.9208518,0]},"properties":{"name":"Sztum","styleUrl":"#icon-1899-0288D1-nodesc","icon-opacity":1,"icon-color":"#0288d1","icon-scale":1,"icon-offset":[32,64],"icon-offset-units":["pixels","insetPixels"],"icon":"https://www.gstatic.com/mapspro/images/stock/503-wht-blank_maps.png"}},{"type":"Feature","geometry":{"type":"Point","coordinates":[17.67392,51.57429,0]},"properties":{"name":"Odolanów","styleUrl":"#icon-1899-0288D1-nodesc","icon-opacity":1,"icon-color":"#0288d1","icon-scale":1,"icon-offset":[32,64],"icon-offset-units":["pixels","insetPixels"],"icon":"https://www.gstatic.com/mapspro/images/stock/503-wht-blank_maps.png"}},{"type":"Feature","geometry":{"type":"Point","coordinates":[18.5257,52.62669,0]},"properties":{"name":"Radziejów","styleUrl":"#icon-1899-0288D1-nodesc","icon-opacity":1,"icon-color":"#0288d1","icon-scale":1,"icon-offset":[32,64],"icon-offset-units":["pixels","insetPixels"],"icon":"https://www.gstatic.com/mapspro/images/stock/503-wht-blank_maps.png"}},{"type":"Feature","geometry":{"type":"Point","coordinates":[17.86435,50.35349,0]},"properties":{"name":"Głogówek","styleUrl":"#icon-1899-0288D1-nodesc","icon-opacity":1,"icon-color":"#0288d1","icon-scale":1,"icon-offset":[32,64],"icon-offset-units":["pixels","insetPixels"],"icon":"https://www.gstatic.com/mapspro/images/stock/503-wht-blank_maps.png"}},{"type":"Feature","geometry":{"type":"Point","coordinates":[21.3851915,50.9295234,0]},"properties":{"name":"Ostrowiec Świętokrzyski","styleUrl":"#icon-1899-0288D1-nodesc","icon-opacity":1,"icon-color":"#0288d1","icon-scale":1,"icon-offset":[32,64],"icon-offset-units":["pixels","insetPixels"],"icon":"https://www.gstatic.com/mapspro/images/stock/503-wht-blank_maps.png"}},{"type":"Feature","geometry":{"type":"Point","coordinates":[17.0784959,52.4099398,0]},"properties":{"name":"Swarzędz","styleUrl":"#icon-1899-0288D1-nodesc","icon-opacity":1,"icon-color":"#0288d1","icon-scale":1,"icon-offset":[32,64],"icon-offset-units":["pixels","insetPixels"],"icon":"https://www.gstatic.com/mapspro/images/stock/503-wht-blank_maps.png"}},{"type":"Feature","geometry":{"type":"Point","coordinates":[19.9647952,53.6963007,0]},"properties":{"name":"Ostróda","styleUrl":"#icon-1899-0288D1-nodesc","icon-opacity":1,"icon-color":"#0288d1","icon-scale":1,"icon-offset":[32,64],"icon-offset-units":["pixels","insetPixels"],"icon":"https://www.gstatic.com/mapspro/images/stock/503-wht-blank_maps.png"}},{"type":"Feature","geometry":{"type":"Point","coordinates":[19.1268002,50.2779874,0]},"properties":{"name":"Sosnowiec","styleUrl":"#icon-1899-0288D1-nodesc","icon-opacity":1,"icon-color":"#0288d1","icon-scale":1,"icon-offset":[32,64],"icon-offset-units":["pixels","insetPixels"],"icon":"https://www.gstatic.com/mapspro/images/stock/503-wht-blank_maps.png"}},{"type":"Feature","geometry":{"type":"Point","coordinates":[19.402071,50.1354928,0]},"properties":{"name":"Chrzanów","styleUrl":"#icon-1899-0288D1-nodesc","icon-opacity":1,"icon-color":"#0288d1","icon-scale":1,"icon-offset":[32,64],"icon-offset-units":["pixels","insetPixels"],"icon":"https://www.gstatic.com/mapspro/images/stock/503-wht-blank_maps.png"}},{"type":"Feature","geometry":{"type":"Point","coordinates":[19.356252,51.6574061,0]},"properties":{"name":"Pabianice","styleUrl":"#icon-1899-0288D1-nodesc","icon-opacity":1,"icon-color":"#0288d1","icon-scale":1,"icon-offset":[32,64],"icon-offset-units":["pixels","insetPixels"],"icon":"https://www.gstatic.com/mapspro/images/stock/503-wht-blank_maps.png"}},{"type":"Feature","geometry":{"type":"Point","coordinates":[22.8413044,52.7433639,0]},"properties":{"name":"Brańsk","styleUrl":"#icon-1899-0288D1-nodesc","icon-opacity":1,"icon-color":"#0288d1","icon-scale":1,"icon-offset":[32,64],"icon-offset-units":["pixels","insetPixels"],"icon":"https://www.gstatic.com/mapspro/images/stock/503-wht-blank_maps.png"}},{"type":"Feature","geometry":{"type":"Point","coordinates":[15.5261478,50.8274316,0]},"properties":{"name":"Szklarska Poręba","styleUrl":"#icon-1899-0288D1-nodesc","icon-opacity":1,"icon-color":"#0288d1","icon-scale":1,"icon-offset":[32,64],"icon-offset-units":["pixels","insetPixels"],"icon":"https://www.gstatic.com/mapspro/images/stock/503-wht-blank_maps.png"}},{"type":"Feature","geometry":{"type":"Point","coordinates":[18.3943993,50.0400034,0]},"properties":{"name":"Pszów","styleUrl":"#icon-1899-0288D1-nodesc","icon-opacity":1,"icon-color":"#0288d1","icon-scale":1,"icon-offset":[32,64],"icon-offset-units":["pixels","insetPixels"],"icon":"https://www.gstatic.com/mapspro/images/stock/503-wht-blank_maps.png"}},{"type":"Feature","geometry":{"type":"Point","coordinates":[18.5291932,54.518352,0]},"properties":{"name":"Gdynia","styleUrl":"#icon-1899-0288D1-nodesc","icon-opacity":1,"icon-color":"#0288d1","icon-scale":1,"icon-offset":[32,64],"icon-offset-units":["pixels","insetPixels"],"icon":"https://www.gstatic.com/mapspro/images/stock/503-wht-blank_maps.png"}},{"type":"Feature","geometry":{"type":"Point","coordinates":[18.7247613,53.4811693,0]},"properties":{"name":"Michale","styleUrl":"#icon-1899-0288D1-nodesc","icon-opacity":1,"icon-color":"#0288d1","icon-scale":1,"icon-offset":[32,64],"icon-offset-units":["pixels","insetPixels"],"icon":"https://www.gstatic.com/mapspro/images/stock/503-wht-blank_maps.png"}},{"type":"Feature","geometry":{"type":"Point","coordinates":[18.7302994,51.5956014,0]},"properties":{"name":"Sieradz","styleUrl":"#icon-1899-0288D1-nodesc","icon-opacity":1,"icon-color":"#0288d1","icon-scale":1,"icon-offset":[32,64],"icon-offset-units":["pixels","insetPixels"],"icon":"https://www.gstatic.com/mapspro/images/stock/503-wht-blank_maps.png"}},{"type":"Feature","geometry":{"type":"Point","coordinates":[19.2035526,50.0508357,0]},"properties":{"name":"Babice","styleUrl":"#icon-1899-0288D1-nodesc","icon-opacity":1,"icon-color":"#0288d1","icon-scale":1,"icon-offset":[32,64],"icon-offset-units":["pixels","insetPixels"],"icon":"https://www.gstatic.com/mapspro/images/stock/503-wht-blank_maps.png"}},{"type":"Feature","geometry":{"type":"Point","coordinates":[18.6774678,50.1489305,0]},"properties":{"name":"Czerwionka-Leszczyny","styleUrl":"#icon-1899-0288D1-nodesc","icon-opacity":1,"icon-color":"#0288d1","icon-scale":1,"icon-offset":[32,64],"icon-offset-units":["pixels","insetPixels"],"icon":"https://www.gstatic.com/mapspro/images/stock/503-wht-blank_maps.png"}},{"type":"Feature","geometry":{"type":"Point","coordinates":[18.5057881,51.791282,0]},"properties":{"name":"Goszczanów","styleUrl":"#icon-1899-0288D1-nodesc","icon-opacity":1,"icon-color":"#0288d1","icon-scale":1,"icon-offset":[32,64],"icon-offset-units":["pixels","insetPixels"],"icon":"https://www.gstatic.com/mapspro/images/stock/503-wht-blank_maps.png"}},{"type":"Feature","geometry":{"type":"Point","coordinates":[18.9017625,50.3998141,0]},"properties":{"name":"Radzionków","styleUrl":"#icon-1899-0288D1-nodesc","icon-opacity":1,"icon-color":"#0288d1","icon-scale":1,"icon-offset":[32,64],"icon-offset-units":["pixels","insetPixels"],"icon":"https://www.gstatic.com/mapspro/images/stock/503-wht-blank_maps.png"}},{"type":"Feature","geometry":{"type":"Point","coordinates":[15.5832667,54.1759173,0]},"properties":{"name":"Kołobrzeg","styleUrl":"#icon-1899-0288D1-nodesc","icon-opacity":1,"icon-color":"#0288d1","icon-scale":1,"icon-offset":[32,64],"icon-offset-units":["pixels","insetPixels"],"icon":"https://www.gstatic.com/mapspro/images/stock/503-wht-blank_maps.png"}},{"type":"Feature","geometry":{"type":"Point","coordinates":[19.4060704,51.8550576,0]},"properties":{"name":"Zgierz","styleUrl":"#icon-1899-0288D1-nodesc","icon-opacity":1,"icon-color":"#0288d1","icon-scale":1,"icon-offset":[32,64],"icon-offset-units":["pixels","insetPixels"],"icon":"https://www.gstatic.com/mapspro/images/stock/503-wht-blank_maps.png"}},{"type":"Feature","geometry":{"type":"Point","coordinates":[17.72244,51.07588,0]},"properties":{"name":"Namysłów","styleUrl":"#icon-1899-0288D1-nodesc","icon-opacity":1,"icon-color":"#0288d1","icon-scale":1,"icon-offset":[32,64],"icon-offset-units":["pixels","insetPixels"],"icon":"https://www.gstatic.com/mapspro/images/stock/503-wht-blank_maps.png"}},{"type":"Feature","geometry":{"type":"Point","coordinates":[19.1203094,50.8118195,0]},"properties":{"name":"Częstochowa","styleUrl":"#icon-1899-0288D1-nodesc","icon-opacity":1,"icon-color":"#0288d1","icon-scale":1,"icon-offset":[32,64],"icon-offset-units":["pixels","insetPixels"],"icon":"https://www.gstatic.com/mapspro/images/stock/503-wht-blank_maps.png"}},{"type":"Feature","geometry":{"type":"Point","coordinates":[19.6640682,54.0619067,0]},"properties":{"name":"Pasłęk","styleUrl":"#icon-1899-0288D1-nodesc","icon-opacity":1,"icon-color":"#0288d1","icon-scale":1,"icon-offset":[32,64],"icon-offset-units":["pixels","insetPixels"],"icon":"https://www.gstatic.com/mapspro/images/stock/503-wht-blank_maps.png"}},{"type":"Feature","geometry":{"type":"Point","coordinates":[14.7788948,53.2784841,0]},"properties":{"name":"Stare Czarnowo","styleUrl":"#icon-1899-0288D1-nodesc","icon-opacity":1,"icon-color":"#0288d1","icon-scale":1,"icon-offset":[32,64],"icon-offset-units":["pixels","insetPixels"],"icon":"https://www.gstatic.com/mapspro/images/stock/503-wht-blank_maps.png"}},{"type":"Feature","geometry":{"type":"Point","coordinates":[19.4694,50.15847,0]},"properties":{"name":"Trzebinia","styleUrl":"#icon-1899-0288D1-nodesc","icon-opacity":1,"icon-color":"#0288d1","icon-scale":1,"icon-offset":[32,64],"icon-offset-units":["pixels","insetPixels"],"icon":"https://www.gstatic.com/mapspro/images/stock/503-wht-blank_maps.png"}},{"type":"Feature","geometry":{"type":"Point","coordinates":[23.0729166,50.7206359,0]},"properties":{"name":"Wielącza","styleUrl":"#icon-1899-0288D1-nodesc","icon-opacity":1,"icon-color":"#0288d1","icon-scale":1,"icon-offset":[32,64],"icon-offset-units":["pixels","insetPixels"],"icon":"https://www.gstatic.com/mapspro/images/stock/503-wht-blank_maps.png"}},{"type":"Feature","geometry":{"type":"Point","coordinates":[17.7944554,51.2927156,0]},"properties":{"name":"Słupia pod Bralinem","styleUrl":"#icon-1899-0288D1-nodesc","icon-opacity":1,"icon-color":"#0288d1","icon-scale":1,"icon-offset":[32,64],"icon-offset-units":["pixels","insetPixels"],"icon":"https://www.gstatic.com/mapspro/images/stock/503-wht-blank_maps.png"}},{"type":"Feature","geometry":{"type":"Point","coordinates":[14.2475775,53.9100327,0]},"properties":{"name":"Świnoujście","styleUrl":"#icon-1899-0288D1-nodesc","icon-opacity":1,"icon-color":"#0288d1","icon-scale":1,"icon-offset":[32,64],"icon-offset-units":["pixels","insetPixels"],"icon":"https://www.gstatic.com/mapspro/images/stock/503-wht-blank_maps.png"}},{"type":"Feature","geometry":{"type":"Point","coordinates":[18.5462847,50.1021742,0]},"properties":{"name":"Rybnik","styleUrl":"#icon-1899-0288D1-nodesc","icon-opacity":1,"icon-color":"#0288d1","icon-scale":1,"icon-offset":[32,64],"icon-offset-units":["pixels","insetPixels"],"icon":"https://www.gstatic.com/mapspro/images/stock/503-wht-blank_maps.png"}},{"type":"Feature","geometry":{"type":"Point","coordinates":[16.425912,51.2322158,0]},"properties":{"name":"Kawice","styleUrl":"#icon-1899-0288D1-nodesc","icon-opacity":1,"icon-color":"#0288d1","icon-scale":1,"icon-offset":[32,64],"icon-offset-units":["pixels","insetPixels"],"icon":"https://www.gstatic.com/mapspro/images/stock/503-wht-blank_maps.png"}},{"type":"Feature","geometry":{"type":"Point","coordinates":[22.4903853,51.2767817,0]},"properties":{"name":"Dębówka","styleUrl":"#icon-1899-0288D1-nodesc","icon-opacity":1,"icon-color":"#0288d1","icon-scale":1,"icon-offset":[32,64],"icon-offset-units":["pixels","insetPixels"],"icon":"https://www.gstatic.com/mapspro/images/stock/503-wht-blank_maps.png"}},{"type":"Feature","geometry":{"type":"Point","coordinates":[19.3254913,51.7476048,0]},"properties":{"name":"Konstantynów Łódzki","styleUrl":"#icon-1899-0288D1-nodesc","icon-opacity":1,"icon-color":"#0288d1","icon-scale":1,"icon-offset":[32,64],"icon-offset-units":["pixels","insetPixels"],"icon":"https://www.gstatic.com/mapspro/images/stock/503-wht-blank_maps.png"}},{"type":"Feature","geometry":{"type":"Point","coordinates":[15.1163739,53.6741795,0]},"properties":{"name":"Nowogard","styleUrl":"#icon-1899-0288D1-nodesc","icon-opacity":1,"icon-color":"#0288d1","icon-scale":1,"icon-offset":[32,64],"icon-offset-units":["pixels","insetPixels"],"icon":"https://www.gstatic.com/mapspro/images/stock/503-wht-blank_maps.png"}},{"type":"Feature","geometry":{"type":"Point","coordinates":[18.0853462,51.7672799,0]},"properties":{"name":"Kalisz","styleUrl":"#icon-1899-0288D1-nodesc","icon-opacity":1,"icon-color":"#0288d1","icon-scale":1,"icon-offset":[32,64],"icon-offset-units":["pixels","insetPixels"],"icon":"https://www.gstatic.com/mapspro/images/stock/503-wht-blank_maps.png"}},{"type":"Feature","geometry":{"type":"Point","coordinates":[17.7887216,51.8456906,0]},"properties":{"name":"Ludwina","styleUrl":"#icon-1899-0288D1-nodesc","icon-opacity":1,"icon-color":"#0288d1","icon-scale":1,"icon-offset":[32,64],"icon-offset-units":["pixels","insetPixels"],"icon":"https://www.gstatic.com/mapspro/images/stock/503-wht-blank_maps.png"}},{"type":"Feature","geometry":{"type":"Point","coordinates":[18.031609,54.1240182,0]},"properties":{"name":"Nowy Klincz","styleUrl":"#icon-1899-0288D1-nodesc","icon-opacity":1,"icon-color":"#0288d1","icon-scale":1,"icon-offset":[32,64],"icon-offset-units":["pixels","insetPixels"],"icon":"https://www.gstatic.com/mapspro/images/stock/503-wht-blank_maps.png"}},{"type":"Feature","geometry":{"type":"Point","coordinates":[18.2330487,54.6003216,0]},"properties":{"name":"Wejherowo","styleUrl":"#icon-1899-0288D1-nodesc","icon-opacity":1,"icon-color":"#0288d1","icon-scale":1,"icon-offset":[32,64],"icon-offset-units":["pixels","insetPixels"],"icon":"https://www.gstatic.com/mapspro/images/stock/503-wht-blank_maps.png"}},{"type":"Feature","geometry":{"type":"Point","coordinates":[19.2307619,52.658547,0]},"properties":{"name":"Glewo","styleUrl":"#icon-1899-0288D1-nodesc","icon-opacity":1,"icon-color":"#0288d1","icon-scale":1,"icon-offset":[32,64],"icon-offset-units":["pixels","insetPixels"],"icon":"https://www.gstatic.com/mapspro/images/stock/503-wht-blank_maps.png"}},{"type":"Feature","geometry":{"type":"Point","coordinates":[17.5742264,50.3206779,0]},"properties":{"name":"Prudnik","styleUrl":"#icon-1899-0288D1-nodesc","icon-opacity":1,"icon-color":"#0288d1","icon-scale":1,"icon-offset":[32,64],"icon-offset-units":["pixels","insetPixels"],"icon":"https://www.gstatic.com/mapspro/images/stock/503-wht-blank_maps.png"}},{"type":"Feature","geometry":{"type":"Point","coordinates":[19.7065364,52.5463446,0]},"properties":{"name":"Płock","styleUrl":"#icon-1899-0288D1-nodesc","icon-opacity":1,"icon-color":"#0288d1","icon-scale":1,"icon-offset":[32,64],"icon-offset-units":["pixels","insetPixels"],"icon":"https://www.gstatic.com/mapspro/images/stock/503-wht-blank_maps.png"}},{"type":"Feature","geometry":{"type":"Point","coordinates":[17.359013,53.6671796,0]},"properties":{"name":"Człuchów","styleUrl":"#icon-1899-0288D1-nodesc","icon-opacity":1,"icon-color":"#0288d1","icon-scale":1,"icon-offset":[32,64],"icon-offset-units":["pixels","insetPixels"],"icon":"https://www.gstatic.com/mapspro/images/stock/503-wht-blank_maps.png"}},{"type":"Feature","geometry":{"type":"Point","coordinates":[16.3904407,50.404284,0]},"properties":{"name":"Duszniki-Zdrój","styleUrl":"#icon-1899-0288D1-nodesc","icon-opacity":1,"icon-color":"#0288d1","icon-scale":1,"icon-offset":[32,64],"icon-offset-units":["pixels","insetPixels"],"icon":"https://www.gstatic.com/mapspro/images/stock/503-wht-blank_maps.png"}},{"type":"Feature","geometry":{"type":"Point","coordinates":[16.7243328,52.4854229,0]},"properties":{"name":"Napachanie","styleUrl":"#icon-1899-0288D1-nodesc","icon-opacity":1,"icon-color":"#0288d1","icon-scale":1,"icon-offset":[32,64],"icon-offset-units":["pixels","insetPixels"],"icon":"https://www.gstatic.com/mapspro/images/stock/503-wht-blank_maps.png"}},{"type":"Feature","geometry":{"type":"Point","coordinates":[18.8120576,49.719657,0]},"properties":{"name":"Ustroń","styleUrl":"#icon-1899-0288D1-nodesc","icon-opacity":1,"icon-color":"#0288d1","icon-scale":1,"icon-offset":[32,64],"icon-offset-units":["pixels","insetPixels"],"icon":"https://www.gstatic.com/mapspro/images/stock/503-wht-blank_maps.png"}},{"type":"Feature","geometry":{"type":"Point","coordinates":[18.753565,53.4837486,0]},"properties":{"name":"Grudziądz","styleUrl":"#icon-1899-0288D1-nodesc","icon-opacity":1,"icon-color":"#0288d1","icon-scale":1,"icon-offset":[32,64],"icon-offset-units":["pixels","insetPixels"],"icon":"https://www.gstatic.com/mapspro/images/stock/503-wht-blank_maps.png"}},{"type":"Feature","geometry":{"type":"Point","coordinates":[18.39377,54.398188,0]},"properties":{"name":"Banino","styleUrl":"#icon-1899-0288D1-nodesc","icon-opacity":1,"icon-color":"#0288d1","icon-scale":1,"icon-offset":[32,64],"icon-offset-units":["pixels","insetPixels"],"icon":"https://www.gstatic.com/mapspro/images/stock/503-wht-blank_maps.png"}},{"type":"Feature","geometry":{"type":"Point","coordinates":[20.3753589,52.6230132,0]},"properties":{"name":"Płońsk","styleUrl":"#icon-1899-0288D1-nodesc","icon-opacity":1,"icon-color":"#0288d1","icon-scale":1,"icon-offset":[32,64],"icon-offset-units":["pixels","insetPixels"],"icon":"https://www.gstatic.com/mapspro/images/stock/503-wht-blank_maps.png"}},{"type":"Feature","geometry":{"type":"Point","coordinates":[21.7379182,52.1470781,0]},"properties":{"name":"Cegłów","styleUrl":"#icon-1899-0288D1-nodesc","icon-opacity":1,"icon-color":"#0288d1","icon-scale":1,"icon-offset":[32,64],"icon-offset-units":["pixels","insetPixels"],"icon":"https://www.gstatic.com/mapspro/images/stock/503-wht-blank_maps.png"}},{"type":"Feature","geometry":{"type":"Point","coordinates":[18.9544814,50.2939541,0]},"properties":{"name":"Chorzów","styleUrl":"#icon-1899-0288D1-nodesc","icon-opacity":1,"icon-color":"#0288d1","icon-scale":1,"icon-offset":[32,64],"icon-offset-units":["pixels","insetPixels"],"icon":"https://www.gstatic.com/mapspro/images/stock/503-wht-blank_maps.png"}},{"type":"Feature","geometry":{"type":"Point","coordinates":[22.8843128,52.9912947,0]},"properties":{"name":"Łapy","styleUrl":"#icon-1899-0288D1-nodesc","icon-opacity":1,"icon-color":"#0288d1","icon-scale":1,"icon-offset":[32,64],"icon-offset-units":["pixels","insetPixels"],"icon":"https://www.gstatic.com/mapspro/images/stock/503-wht-blank_maps.png"}},{"type":"Feature","geometry":{"type":"Point","coordinates":[18.9222972,49.81212,0]},"properties":{"name":"Jasienica","styleUrl":"#icon-1899-0288D1-nodesc","icon-opacity":1,"icon-color":"#0288d1","icon-scale":1,"icon-offset":[32,64],"icon-offset-units":["pixels","insetPixels"],"icon":"https://www.gstatic.com/mapspro/images/stock/503-wht-blank_maps.png"}},{"type":"Feature","geometry":{"type":"Point","coordinates":[18.5530696,53.9407091,0]},"properties":{"name":"Janowo","styleUrl":"#icon-1899-0288D1-nodesc","icon-opacity":1,"icon-color":"#0288d1","icon-scale":1,"icon-offset":[32,64],"icon-offset-units":["pixels","insetPixels"],"icon":"https://www.gstatic.com/mapspro/images/stock/503-wht-blank_maps.png"}},{"type":"Feature","geometry":{"type":"Point","coordinates":[17.5629153,52.0685167,0]},"properties":{"name":"Żerków","styleUrl":"#icon-1899-0288D1-nodesc","icon-opacity":1,"icon-color":"#0288d1","icon-scale":1,"icon-offset":[32,64],"icon-offset-units":["pixels","insetPixels"],"icon":"https://www.gstatic.com/mapspro/images/stock/503-wht-blank_maps.png"}},{"type":"Feature","geometry":{"type":"Point","coordinates":[16.6993602,53.7100713,0]},"properties":{"name":"Szczecinek","styleUrl":"#icon-1899-0288D1-nodesc","icon-opacity":1,"icon-color":"#0288d1","icon-scale":1,"icon-offset":[32,64],"icon-offset-units":["pixels","insetPixels"],"icon":"https://www.gstatic.com/mapspro/images/stock/503-wht-blank_maps.png"}},{"type":"Feature","geometry":{"type":"Point","coordinates":[15.21918,52.99444,0]},"properties":{"name":"Barlinek","styleUrl":"#icon-1899-0288D1-nodesc","icon-opacity":1,"icon-color":"#0288d1","icon-scale":1,"icon-offset":[32,64],"icon-offset-units":["pixels","insetPixels"],"icon":"https://www.gstatic.com/mapspro/images/stock/503-wht-blank_maps.png"}},{"type":"Feature","geometry":{"type":"Point","coordinates":[17.6336136,54.4990945,0]},"properties":{"name":"Pogorzelice","styleUrl":"#icon-1899-0288D1-nodesc","icon-opacity":1,"icon-color":"#0288d1","icon-scale":1,"icon-offset":[32,64],"icon-offset-units":["pixels","insetPixels"],"icon":"https://www.gstatic.com/mapspro/images/stock/503-wht-blank_maps.png"}},{"type":"Feature","geometry":{"type":"Point","coordinates":[22.2413857,52.9849941,0]},"properties":{"name":"Zambrów","styleUrl":"#icon-1899-0288D1-nodesc","icon-opacity":1,"icon-color":"#0288d1","icon-scale":1,"icon-offset":[32,64],"icon-offset-units":["pixels","insetPixels"],"icon":"https://www.gstatic.com/mapspro/images/stock/503-wht-blank_maps.png"}},{"type":"Feature","geometry":{"type":"Point","coordinates":[19.3156774,50.1037928,0]},"properties":{"name":"Libiąż","styleUrl":"#icon-1899-0288D1-nodesc","icon-opacity":1,"icon-color":"#0288d1","icon-scale":1,"icon-offset":[32,64],"icon-offset-units":["pixels","insetPixels"],"icon":"https://www.gstatic.com/mapspro/images/stock/503-wht-blank_maps.png"}},{"type":"Feature","geometry":{"type":"Point","coordinates":[19.0234375,49.714964,0]},"properties":{"name":"Szczyrk","styleUrl":"#icon-1899-0288D1-nodesc","icon-opacity":1,"icon-color":"#0288d1","icon-scale":1,"icon-offset":[32,64],"icon-offset-units":["pixels","insetPixels"],"icon":"https://www.gstatic.com/mapspro/images/stock/503-wht-blank_maps.png"}},{"type":"Feature","geometry":{"type":"Point","coordinates":[16.708557,51.2728265,0]},"properties":{"name":"Brzeg Dolny","styleUrl":"#icon-1899-0288D1-nodesc","icon-opacity":1,"icon-color":"#0288d1","icon-scale":1,"icon-offset":[32,64],"icon-offset-units":["pixels","insetPixels"],"icon":"https://www.gstatic.com/mapspro/images/stock/503-wht-blank_maps.png"}},{"type":"Feature","geometry":{"type":"Point","coordinates":[19.1310538,50.1425364,0]},"properties":{"name":"Lędziny","styleUrl":"#icon-1899-0288D1-nodesc","icon-opacity":1,"icon-color":"#0288d1","icon-scale":1,"icon-offset":[32,64],"icon-offset-units":["pixels","insetPixels"],"icon":"https://www.gstatic.com/mapspro/images/stock/503-wht-blank_maps.png"}},{"type":"Feature","geometry":{"type":"Point","coordinates":[18.9270475,50.3789108,0]},"properties":{"name":"Piekary Śląskie","styleUrl":"#icon-1899-0288D1-nodesc","icon-opacity":1,"icon-color":"#0288d1","icon-scale":1,"icon-offset":[32,64],"icon-offset-units":["pixels","insetPixels"],"icon":"https://www.gstatic.com/mapspro/images/stock/503-wht-blank_maps.png"}},{"type":"Feature","geometry":{"type":"Point","coordinates":[20.8979621,52.1370599,0]},"properties":{"name":"Janki","styleUrl":"#icon-1899-0288D1-nodesc","icon-opacity":1,"icon-color":"#0288d1","icon-scale":1,"icon-offset":[32,64],"icon-offset-units":["pixels","insetPixels"],"icon":"https://www.gstatic.com/mapspro/images/stock/503-wht-blank_maps.png"}},{"type":"Feature","geometry":{"type":"Point","coordinates":[20.445988,52.048652,0]},"properties":{"name":"Żyrardów","styleUrl":"#icon-1899-0288D1-nodesc","icon-opacity":1,"icon-color":"#0288d1","icon-scale":1,"icon-offset":[32,64],"icon-offset-units":["pixels","insetPixels"],"icon":"https://www.gstatic.com/mapspro/images/stock/503-wht-blank_maps.png"}},{"type":"Feature","geometry":{"type":"Point","coordinates":[22.2533607,52.407031,0]},"properties":{"name":"Sokołów Podlaski","styleUrl":"#icon-1899-0288D1-nodesc","icon-opacity":1,"icon-color":"#0288d1","icon-scale":1,"icon-offset":[32,64],"icon-offset-units":["pixels","insetPixels"],"icon":"https://www.gstatic.com/mapspro/images/stock/503-wht-blank_maps.png"}},{"type":"Feature","geometry":{"type":"Point","coordinates":[16.1863231,51.0545282,0]},"properties":{"name":"Jawor","styleUrl":"#icon-1899-0288D1-nodesc","icon-opacity":1,"icon-color":"#0288d1","icon-scale":1,"icon-offset":[32,64],"icon-offset-units":["pixels","insetPixels"],"icon":"https://www.gstatic.com/mapspro/images/stock/503-wht-blank_maps.png"}},{"type":"Feature","geometry":{"type":"Point","coordinates":[16.7343548,52.7989429,0]},"properties":{"name":"Połajewo","styleUrl":"#icon-1899-0288D1-nodesc","icon-opacity":1,"icon-color":"#0288d1","icon-scale":1,"icon-offset":[32,64],"icon-offset-units":["pixels","insetPixels"],"icon":"https://www.gstatic.com/mapspro/images/stock/503-wht-blank_maps.png"}},{"type":"Feature","geometry":{"type":"Point","coordinates":[23.2519686,50.7230879,0]},"properties":{"name":"Zamość","styleUrl":"#icon-1899-0288D1-nodesc","icon-opacity":1,"icon-color":"#0288d1","icon-scale":1,"icon-offset":[32,64],"icon-offset-units":["pixels","insetPixels"],"icon":"https://www.gstatic.com/mapspro/images/stock/503-wht-blank_maps.png"}},{"type":"Feature","geometry":{"type":"Point","coordinates":[16.98265,54.0026,0]},"properties":{"name":"Miastko","styleUrl":"#icon-1899-0288D1-nodesc","icon-opacity":1,"icon-color":"#0288d1","icon-scale":1,"icon-offset":[32,64],"icon-offset-units":["pixels","insetPixels"],"icon":"https://www.gstatic.com/mapspro/images/stock/503-wht-blank_maps.png"}},{"type":"Feature","geometry":{"type":"Point","coordinates":[20.6350923,52.1044383,0]},"properties":{"name":"Grodzisk Mazowiecki","styleUrl":"#icon-1899-0288D1-nodesc","icon-opacity":1,"icon-color":"#0288d1","icon-scale":1,"icon-offset":[32,64],"icon-offset-units":["pixels","insetPixels"],"icon":"https://www.gstatic.com/mapspro/images/stock/503-wht-blank_maps.png"}},{"type":"Feature","geometry":{"type":"Point","coordinates":[15.2369305,52.7325285,0]},"properties":{"name":"Gorzów Wielkopolski","styleUrl":"#icon-1899-0288D1-nodesc","icon-opacity":1,"icon-color":"#0288d1","icon-scale":1,"icon-offset":[32,64],"icon-offset-units":["pixels","insetPixels"],"icon":"https://www.gstatic.com/mapspro/images/stock/503-wht-blank_maps.png"}},{"type":"Feature","geometry":{"type":"Point","coordinates":[20.1799787,53.2356765,0]},"properties":{"name":"Działdowo","styleUrl":"#icon-1899-0288D1-nodesc","icon-opacity":1,"icon-color":"#0288d1","icon-scale":1,"icon-offset":[32,64],"icon-offset-units":["pixels","insetPixels"],"icon":"https://www.gstatic.com/mapspro/images/stock/503-wht-blank_maps.png"}},{"type":"Feature","geometry":{"type":"Point","coordinates":[17.7726135,53.6147331,0]},"properties":{"name":"Żalno","styleUrl":"#icon-1899-0288D1-nodesc","icon-opacity":1,"icon-color":"#0288d1","icon-scale":1,"icon-offset":[32,64],"icon-offset-units":["pixels","insetPixels"],"icon":"https://www.gstatic.com/mapspro/images/stock/503-wht-blank_maps.png"}},{"type":"Feature","geometry":{"type":"Point","coordinates":[20.80806,54.2533,0]},"properties":{"name":"Bartoszyce","styleUrl":"#icon-1899-0288D1-nodesc","icon-opacity":1,"icon-color":"#0288d1","icon-scale":1,"icon-offset":[32,64],"icon-offset-units":["pixels","insetPixels"],"icon":"https://www.gstatic.com/mapspro/images/stock/503-wht-blank_maps.png"}},{"type":"Feature","geometry":{"type":"Point","coordinates":[16.2426605,50.4427156,0]},"properties":{"name":"Kudowa-Zdrój","styleUrl":"#icon-1899-0288D1-nodesc","icon-opacity":1,"icon-color":"#0288d1","icon-scale":1,"icon-offset":[32,64],"icon-offset-units":["pixels","insetPixels"],"icon":"https://www.gstatic.com/mapspro/images/stock/503-wht-blank_maps.png"}},{"type":"Feature","geometry":{"type":"Point","coordinates":[21.074546,50.3094981,0]},"properties":{"name":"Szczucin","styleUrl":"#icon-1899-0288D1-nodesc","icon-opacity":1,"icon-color":"#0288d1","icon-scale":1,"icon-offset":[32,64],"icon-offset-units":["pixels","insetPixels"],"icon":"https://www.gstatic.com/mapspro/images/stock/503-wht-blank_maps.png"}},{"type":"Feature","geometry":{"type":"Point","coordinates":[15.0068394,52.5831804,0]},"properties":{"name":"Krzeszyce","styleUrl":"#icon-1899-0288D1-nodesc","icon-opacity":1,"icon-color":"#0288d1","icon-scale":1,"icon-offset":[32,64],"icon-offset-units":["pixels","insetPixels"],"icon":"https://www.gstatic.com/mapspro/images/stock/503-wht-blank_maps.png"}},{"type":"Feature","geometry":{"type":"Point","coordinates":[17.9230651,50.6683223,0]},"properties":{"name":"Opole","styleUrl":"#icon-1899-0288D1-nodesc","icon-opacity":1,"icon-color":"#0288d1","icon-scale":1,"icon-offset":[32,64],"icon-offset-units":["pixels","insetPixels"],"icon":"https://www.gstatic.com/mapspro/images/stock/503-wht-blank_maps.png"}},{"type":"Feature","geometry":{"type":"Point","coordinates":[18.9917676,49.9016056,0]},"properties":{"name":"Czechowice-Dziedzice","styleUrl":"#icon-1899-0288D1-nodesc","icon-opacity":1,"icon-color":"#0288d1","icon-scale":1,"icon-offset":[32,64],"icon-offset-units":["pixels","insetPixels"],"icon":"https://www.gstatic.com/mapspro/images/stock/503-wht-blank_maps.png"}},{"type":"Feature","geometry":{"type":"Point","coordinates":[21.969309,51.4164431,0]},"properties":{"name":"Puławy","styleUrl":"#icon-1899-0288D1-nodesc","icon-opacity":1,"icon-color":"#0288d1","icon-scale":1,"icon-offset":[32,64],"icon-offset-units":["pixels","insetPixels"],"icon":"https://www.gstatic.com/mapspro/images/stock/503-wht-blank_maps.png"}},{"type":"Feature","geometry":{"type":"Point","coordinates":[21.2660764,52.2201568,0]},"properties":{"name":"Zakręt","styleUrl":"#icon-1899-0288D1-nodesc","icon-opacity":1,"icon-color":"#0288d1","icon-scale":1,"icon-offset":[32,64],"icon-offset-units":["pixels","insetPixels"],"icon":"https://www.gstatic.com/mapspro/images/stock/503-wht-blank_maps.png"}},{"type":"Feature","geometry":{"type":"Point","coordinates":[16.9944214,52.2855375,0]},"properties":{"name":"Kamionki","styleUrl":"#icon-1899-0288D1-nodesc","icon-opacity":1,"icon-color":"#0288d1","icon-scale":1,"icon-offset":[32,64],"icon-offset-units":["pixels","insetPixels"],"icon":"https://www.gstatic.com/mapspro/images/stock/503-wht-blank_maps.png"}},{"type":"Feature","geometry":{"type":"Point","coordinates":[17.9890591,51.2781356,0]},"properties":{"name":"Kępno","styleUrl":"#icon-1899-0288D1-nodesc","icon-opacity":1,"icon-color":"#0288d1","icon-scale":1,"icon-offset":[32,64],"icon-offset-units":["pixels","insetPixels"],"icon":"https://www.gstatic.com/mapspro/images/stock/503-wht-blank_maps.png"}},{"type":"Feature","geometry":{"type":"Point","coordinates":[16.9469329,52.5426768,0]},"properties":{"name":"Biedrusko","styleUrl":"#icon-1899-0288D1-nodesc","icon-opacity":1,"icon-color":"#0288d1","icon-scale":1,"icon-offset":[32,64],"icon-offset-units":["pixels","insetPixels"],"icon":"https://www.gstatic.com/mapspro/images/stock/503-wht-blank_maps.png"}},{"type":"Feature","geometry":{"type":"Point","coordinates":[21.4238101,50.287063,0]},"properties":{"name":"Mielec","styleUrl":"#icon-1899-0288D1-nodesc","icon-opacity":1,"icon-color":"#0288d1","icon-scale":1,"icon-offset":[32,64],"icon-offset-units":["pixels","insetPixels"],"icon":"https://www.gstatic.com/mapspro/images/stock/503-wht-blank_maps.png"}},{"type":"Feature","geometry":{"type":"Point","coordinates":[14.8976504,52.6730629,0]},"properties":{"name":"Witnica","styleUrl":"#icon-1899-0288D1-nodesc","icon-opacity":1,"icon-color":"#0288d1","icon-scale":1,"icon-offset":[32,64],"icon-offset-units":["pixels","insetPixels"],"icon":"https://www.gstatic.com/mapspro/images/stock/503-wht-blank_maps.png"}},{"type":"Feature","geometry":{"type":"Point","coordinates":[16.81171,52.3439225,0]},"properties":{"name":"Komorniki","styleUrl":"#icon-1899-0288D1-nodesc","icon-opacity":1,"icon-color":"#0288d1","icon-scale":1,"icon-offset":[32,64],"icon-offset-units":["pixels","insetPixels"],"icon":"https://www.gstatic.com/mapspro/images/stock/503-wht-blank_maps.png"}},{"type":"Feature","geometry":{"type":"Point","coordinates":[16.36644,52.22553,0]},"properties":{"name":"Grodzisk Wielkopolski","styleUrl":"#icon-1899-0288D1-nodesc","icon-opacity":1,"icon-color":"#0288d1","icon-scale":1,"icon-offset":[32,64],"icon-offset-units":["pixels","insetPixels"],"icon":"https://www.gstatic.com/mapspro/images/stock/503-wht-blank_maps.png"}},{"type":"Feature","geometry":{"type":"Point","coordinates":[15.8730086,52.3648785,0]},"properties":{"name":"Trzciel","styleUrl":"#icon-1899-0288D1-nodesc","icon-opacity":1,"icon-color":"#0288d1","icon-scale":1,"icon-offset":[32,64],"icon-offset-units":["pixels","insetPixels"],"icon":"https://www.gstatic.com/mapspro/images/stock/503-wht-blank_maps.png"}},{"type":"Feature","geometry":{"type":"Point","coordinates":[22.0590321,53.1781197,0]},"properties":{"name":"Łomża","styleUrl":"#icon-1899-0288D1-nodesc","icon-opacity":1,"icon-color":"#0288d1","icon-scale":1,"icon-offset":[32,64],"icon-offset-units":["pixels","insetPixels"],"icon":"https://www.gstatic.com/mapspro/images/stock/503-wht-blank_maps.png"}},{"type":"Feature","geometry":{"type":"Point","coordinates":[17.5647322,54.3562129,0]},"properties":{"name":"Czarna Dąbrówka","styleUrl":"#icon-1899-0288D1-nodesc","icon-opacity":1,"icon-color":"#0288d1","icon-scale":1,"icon-offset":[32,64],"icon-offset-units":["pixels","insetPixels"],"icon":"https://www.gstatic.com/mapspro/images/stock/503-wht-blank_maps.png"}},{"type":"Feature","geometry":{"type":"Point","coordinates":[22.217712,50.4942799,0]},"properties":{"name":"Przędzel","styleUrl":"#icon-1899-0288D1-nodesc","icon-opacity":1,"icon-color":"#0288d1","icon-scale":1,"icon-offset":[32,64],"icon-offset-units":["pixels","insetPixels"],"icon":"https://www.gstatic.com/mapspro/images/stock/503-wht-blank_maps.png"}},{"type":"Feature","geometry":{"type":"Point","coordinates":[18.853695,49.7812927,0]},"properties":{"name":"Górki Wielkie","styleUrl":"#icon-1899-0288D1-nodesc","icon-opacity":1,"icon-color":"#0288d1","icon-scale":1,"icon-offset":[32,64],"icon-offset-units":["pixels","insetPixels"],"icon":"https://www.gstatic.com/mapspro/images/stock/503-wht-blank_maps.png"}},{"type":"Feature","geometry":{"type":"Point","coordinates":[18.9157175,50.3483816,0]},"properties":{"name":"Bytom","styleUrl":"#icon-1899-0288D1-nodesc","icon-opacity":1,"icon-color":"#0288d1","icon-scale":1,"icon-offset":[32,64],"icon-offset-units":["pixels","insetPixels"],"icon":"https://www.gstatic.com/mapspro/images/stock/503-wht-blank_maps.png"}},{"type":"Feature","geometry":{"type":"Point","coordinates":[18.0084378,53.1234804,0]},"properties":{"name":"Bydgoszcz","styleUrl":"#icon-1899-0288D1-nodesc","icon-opacity":1,"icon-color":"#0288d1","icon-scale":1,"icon-offset":[32,64],"icon-offset-units":["pixels","insetPixels"],"icon":"https://www.gstatic.com/mapspro/images/stock/503-wht-blank_maps.png"}},{"type":"Feature","geometry":{"type":"Point","coordinates":[16.1282552,52.3181885,0]},"properties":{"name":"Nowy Tomyśl","styleUrl":"#icon-1899-0288D1-nodesc","icon-opacity":1,"icon-color":"#0288d1","icon-scale":1,"icon-offset":[32,64],"icon-offset-units":["pixels","insetPixels"],"icon":"https://www.gstatic.com/mapspro/images/stock/503-wht-blank_maps.png"}},{"type":"Feature","geometry":{"type":"Point","coordinates":[17.719477,52.8493847,0]},"properties":{"name":"Żnin","styleUrl":"#icon-1899-0288D1-nodesc","icon-opacity":1,"icon-color":"#0288d1","icon-scale":1,"icon-offset":[32,64],"icon-offset-units":["pixels","insetPixels"],"icon":"https://www.gstatic.com/mapspro/images/stock/503-wht-blank_maps.png"}},{"type":"Feature","geometry":{"type":"Point","coordinates":[15.6475151,52.2884722,0]},"properties":{"name":"Myszęcin","styleUrl":"#icon-1899-0288D1-nodesc","icon-opacity":1,"icon-color":"#0288d1","icon-scale":1,"icon-offset":[32,64],"icon-offset-units":["pixels","insetPixels"],"icon":"https://www.gstatic.com/mapspro/images/stock/503-wht-blank_maps.png"}},{"type":"Feature","geometry":{"type":"Point","coordinates":[21.8423512,52.480451,0]},"properties":{"name":"Kalinowiec","styleUrl":"#icon-1899-0288D1-nodesc","icon-opacity":1,"icon-color":"#0288d1","icon-scale":1,"icon-offset":[32,64],"icon-offset-units":["pixels","insetPixels"],"icon":"https://www.gstatic.com/mapspro/images/stock/503-wht-blank_maps.png"}},{"type":"Feature","geometry":{"type":"Point","coordinates":[22.9307881,54.1115218,0]},"properties":{"name":"Suwałki","styleUrl":"#icon-1899-0288D1-nodesc","icon-opacity":1,"icon-color":"#0288d1","icon-scale":1,"icon-offset":[32,64],"icon-offset-units":["pixels","insetPixels"],"icon":"https://www.gstatic.com/mapspro/images/stock/503-wht-blank_maps.png"}},{"type":"Feature","geometry":{"type":"Point","coordinates":[20.9416501,49.7075887,0]},"properties":{"name":"Bobowa","styleUrl":"#icon-1899-0288D1-nodesc","icon-opacity":1,"icon-color":"#0288d1","icon-scale":1,"icon-offset":[32,64],"icon-offset-units":["pixels","insetPixels"],"icon":"https://www.gstatic.com/mapspro/images/stock/503-wht-blank_maps.png"}},{"type":"Feature","geometry":{"type":"Point","coordinates":[19.0677357,52.6483303,0]},"properties":{"name":"Włocławek","styleUrl":"#icon-1899-0288D1-nodesc","icon-opacity":1,"icon-color":"#0288d1","icon-scale":1,"icon-offset":[32,64],"icon-offset-units":["pixels","insetPixels"],"icon":"https://www.gstatic.com/mapspro/images/stock/503-wht-blank_maps.png"}},{"type":"Feature","geometry":{"type":"Point","coordinates":[20.7265083,52.1199928,0]},"properties":{"name":"Podkowa Leśna","styleUrl":"#icon-1899-0288D1-nodesc","icon-opacity":1,"icon-color":"#0288d1","icon-scale":1,"icon-offset":[32,64],"icon-offset-units":["pixels","insetPixels"],"icon":"https://www.gstatic.com/mapspro/images/stock/503-wht-blank_maps.png"}},{"type":"Feature","geometry":{"type":"Point","coordinates":[16.85863,51.60945,0]},"properties":{"name":"Rawicz","styleUrl":"#icon-1899-0288D1-nodesc","icon-opacity":1,"icon-color":"#0288d1","icon-scale":1,"icon-offset":[32,64],"icon-offset-units":["pixels","insetPixels"],"icon":"https://www.gstatic.com/mapspro/images/stock/503-wht-blank_maps.png"}},{"type":"Feature","geometry":{"type":"Point","coordinates":[18.2510729,52.2230334,0]},"properties":{"name":"Konin","styleUrl":"#icon-1899-0288D1-nodesc","icon-opacity":1,"icon-color":"#0288d1","icon-scale":1,"icon-offset":[32,64],"icon-offset-units":["pixels","insetPixels"],"icon":"https://www.gstatic.com/mapspro/images/stock/503-wht-blank_maps.png"}},{"type":"Feature","geometry":{"type":"Point","coordinates":[18.426598,51.652753,0]},"properties":{"name":"Borysławice","styleUrl":"#icon-1899-0288D1-nodesc","icon-opacity":1,"icon-color":"#0288d1","icon-scale":1,"icon-offset":[32,64],"icon-offset-units":["pixels","insetPixels"],"icon":"https://www.gstatic.com/mapspro/images/stock/503-wht-blank_maps.png"}},{"type":"Feature","geometry":{"type":"Point","coordinates":[17.936975,53.3140515,0]},"properties":{"name":"Koronowo","styleUrl":"#icon-1899-0288D1-nodesc","icon-opacity":1,"icon-color":"#0288d1","icon-scale":1,"icon-offset":[32,64],"icon-offset-units":["pixels","insetPixels"],"icon":"https://www.gstatic.com/mapspro/images/stock/503-wht-blank_maps.png"}},{"type":"Feature","geometry":{"type":"Point","coordinates":[19.2478694,52.0175376,0]},"properties":{"name":"Sierpów","styleUrl":"#icon-1899-0288D1-nodesc","icon-opacity":1,"icon-color":"#0288d1","icon-scale":1,"icon-offset":[32,64],"icon-offset-units":["pixels","insetPixels"],"icon":"https://www.gstatic.com/mapspro/images/stock/503-wht-blank_maps.png"}},{"type":"Feature","geometry":{"type":"Point","coordinates":[18.5009145,52.0145541,0]},"properties":{"name":"Turek","styleUrl":"#icon-1899-0288D1-nodesc","icon-opacity":1,"icon-color":"#0288d1","icon-scale":1,"icon-offset":[32,64],"icon-offset-units":["pixels","insetPixels"],"icon":"https://www.gstatic.com/mapspro/images/stock/503-wht-blank_maps.png"}},{"type":"Feature","geometry":{"type":"Point","coordinates":[20.5923151,53.7876059,0]},"properties":{"name":"Wójtowo","styleUrl":"#icon-1899-0288D1-nodesc","icon-opacity":1,"icon-color":"#0288d1","icon-scale":1,"icon-offset":[32,64],"icon-offset-units":["pixels","insetPixels"],"icon":"https://www.gstatic.com/mapspro/images/stock/503-wht-blank_maps.png"}},{"type":"Feature","geometry":{"type":"Point","coordinates":[18.5826331,50.0219161,0]},"properties":{"name":"Świerklany","styleUrl":"#icon-1899-0288D1-nodesc","icon-opacity":1,"icon-color":"#0288d1","icon-scale":1,"icon-offset":[32,64],"icon-offset-units":["pixels","insetPixels"],"icon":"https://www.gstatic.com/mapspro/images/stock/503-wht-blank_maps.png"}},{"type":"Feature","geometry":{"type":"Point","coordinates":[23.163993,51.194538,0]},"properties":{"name":"Siedliszcze","styleUrl":"#icon-1899-0288D1-nodesc","icon-opacity":1,"icon-color":"#0288d1","icon-scale":1,"icon-offset":[32,64],"icon-offset-units":["pixels","insetPixels"],"icon":"https://www.gstatic.com/mapspro/images/stock/503-wht-blank_maps.png"}},{"type":"Feature","geometry":{"type":"Point","coordinates":[20.8611424,52.0386498,0]},"properties":{"name":"Mroków","styleUrl":"#icon-1899-0288D1-nodesc","icon-opacity":1,"icon-color":"#0288d1","icon-scale":1,"icon-offset":[32,64],"icon-offset-units":["pixels","insetPixels"],"icon":"https://www.gstatic.com/mapspro/images/stock/503-wht-blank_maps.png"}},{"type":"Feature","geometry":{"type":"Point","coordinates":[19.1385113,50.2423032,0]},"properties":{"name":"Mysłowice","styleUrl":"#icon-1899-0288D1-nodesc","icon-opacity":1,"icon-color":"#0288d1","icon-scale":1,"icon-offset":[32,64],"icon-offset-units":["pixels","insetPixels"],"icon":"https://www.gstatic.com/mapspro/images/stock/503-wht-blank_maps.png"}},{"type":"Feature","geometry":{"type":"Point","coordinates":[21.6149393,51.8971987,0]},"properties":{"name":"Garwolin","styleUrl":"#icon-1899-0288D1-nodesc","icon-opacity":1,"icon-color":"#0288d1","icon-scale":1,"icon-offset":[32,64],"icon-offset-units":["pixels","insetPixels"],"icon":"https://www.gstatic.com/mapspro/images/stock/503-wht-blank_maps.png"}},{"type":"Feature","geometry":{"type":"Point","coordinates":[14.86785,52.9237186,0]},"properties":{"name":"Myślibórz","styleUrl":"#icon-1899-0288D1-nodesc","icon-opacity":1,"icon-color":"#0288d1","icon-scale":1,"icon-offset":[32,64],"icon-offset-units":["pixels","insetPixels"],"icon":"https://www.gstatic.com/mapspro/images/stock/503-wht-blank_maps.png"}},{"type":"Feature","geometry":{"type":"Point","coordinates":[15.731654,50.9034749,0]},"properties":{"name":"Jelenia Góra","styleUrl":"#icon-1899-0288D1-nodesc","icon-opacity":1,"icon-color":"#0288d1","icon-scale":1,"icon-offset":[32,64],"icon-offset-units":["pixels","insetPixels"],"icon":"https://www.gstatic.com/mapspro/images/stock/503-wht-blank_maps.png"}},{"type":"Feature","geometry":{"type":"Point","coordinates":[18.5829587,49.890108,0]},"properties":{"name":"Marklowice Górne","styleUrl":"#icon-1899-0288D1-nodesc","icon-opacity":1,"icon-color":"#0288d1","icon-scale":1,"icon-offset":[32,64],"icon-offset-units":["pixels","insetPixels"],"icon":"https://www.gstatic.com/mapspro/images/stock/503-wht-blank_maps.png"}},{"type":"Feature","geometry":{"type":"Point","coordinates":[16.3164767,51.8071084,0]},"properties":{"name":"Wschowa","styleUrl":"#icon-1899-0288D1-nodesc","icon-opacity":1,"icon-color":"#0288d1","icon-scale":1,"icon-offset":[32,64],"icon-offset-units":["pixels","insetPixels"],"icon":"https://www.gstatic.com/mapspro/images/stock/503-wht-blank_maps.png"}},{"type":"Feature","geometry":{"type":"Point","coordinates":[16.8739385,50.2955399,0]},"properties":{"name":"Stronie Śląskie","styleUrl":"#icon-1899-0288D1-nodesc","icon-opacity":1,"icon-color":"#0288d1","icon-scale":1,"icon-offset":[32,64],"icon-offset-units":["pixels","insetPixels"],"icon":"https://www.gstatic.com/mapspro/images/stock/503-wht-blank_maps.png"}},{"type":"Feature","geometry":{"type":"Point","coordinates":[21.8187544,49.5133879,0]},"properties":{"name":"Królik Polski","styleUrl":"#icon-1899-0288D1-nodesc","icon-opacity":1,"icon-color":"#0288d1","icon-scale":1,"icon-offset":[32,64],"icon-offset-units":["pixels","insetPixels"],"icon":"https://www.gstatic.com/mapspro/images/stock/503-wht-blank_maps.png"}}]}